{
"type": "FeatureCollection",
"name": "geo_28_中等教育学校",
"crs": { "type": "name", "properties": { "name": "urn:ogc:def:crs:EPSG::6668" } },
"features": [
{ "type": "Feature", "properties": { "P29_001": "28101", "P29_002": "D228110000014", "P29_003": "16003", "P29_004": "神戸大学附属中等教育学校", "P29_005": "兵庫県神戸市東灘区住吉山手5-11-1", "P29_006": "1", "P29_007": "0", "P29_008": "00", "P29_009": null }, "geometry": { "type": "Point", "coordinates": [ 135.254164005029367, 34.732008479246893 ] } },
{ "type": "Feature", "properties": { "P29_001": "28206", "P29_002": "D228210000012", "P29_003": "16003", "P29_004": "兵庫県立芦屋国際中等教育学校", "P29_005": "兵庫県芦屋市新浜町1-2", "P29_006": "2", "P29_007": "0", "P29_008": "00", "P29_009": null }, "geometry": { "type": "Point", "coordinates": [ 135.317546191445899, 34.724520210203401 ] } }
]
}
