{
"type": "FeatureCollection",
"name": "geo_28_高等専門学校",
"crs": { "type": "name", "properties": { "name": "urn:ogc:def:crs:EPSG::6668" } },
"features": [
{ "type": "Feature", "properties": { "P29_001": "28203", "P29_002": "G128110109189", "P29_003": "16005", "P29_004": "明石工業高等専門学校", "P29_005": "兵庫県明石市魚住町西岡679-3", "P29_006": "1", "P29_007": "0", "P29_008": "00", "P29_009": null }, "geometry": { "type": "Point", "coordinates": [ 134.902105988161935, 34.695120602456171 ] } },
{ "type": "Feature", "properties": { "P29_001": "28111", "P29_002": "G128210109196", "P29_003": "16005", "P29_004": "神戸市立工業高等専門学校", "P29_005": "兵庫県神戸市西区学園東町8-3", "P29_006": "3", "P29_007": "0", "P29_008": "00", "P29_009": null }, "geometry": { "type": "Point", "coordinates": [ 135.067204823949425, 34.679384250722151 ] } }
]
}
