{
"type": "FeatureCollection",
"name": "geo_28_小規模多機能型居宅介護",
"crs": { "type": "name", "properties": { "name": "urn:ogc:def:crs:OGC:1.3:CRS84" } },
"features": [
{ "type": "Feature", "properties": { "内容": "アネシスもとやま【小規模多機能型居宅介護】神戸市東灘区本山南町6-3-5", "url": "https://www.kaigokensaku.mhlw.go.jp/28/index.php?action_kouhyou_detail_004_kani=true&JigyosyoCd=2890100239-00&ServiceCd=730&Type=search", "url2": "http://www.i-souseikai.jp/" }, "geometry": { "type": "Point", "coordinates": [ 135.28623360000006, 34.7248414 ] } },
{ "type": "Feature", "properties": { "内容": "ろっこう医療生活協同組合うはら多機能ホーム【小規模多機能型居宅介護】魚崎北町6-9-18", "url": "https://www.kaigokensaku.mhlw.go.jp/28/index.php?action_kouhyou_detail_004_kani=true&JigyosyoCd=2890100254-00&ServiceCd=730&Type=search", "url2": "http://uhara-care.jp/" }, "geometry": { "type": "Point", "coordinates": [ 135.27408760000003, 34.7195362 ] } },
{ "type": "Feature", "properties": { "内容": "小規模多機能型居宅介護　協同の苑六甲アイランドにじの家【小規模多機能型居宅介護】神戸市東灘区向洋町中３丁目２－６", "url": "https://www.kaigokensaku.mhlw.go.jp/28/index.php?action_kouhyou_detail_004_kani=true&JigyosyoCd=2890100106-00&ServiceCd=730&Type=search", "url2": "http://www.kyodo-no-sono.or.jp" }, "geometry": { "type": "Point", "coordinates": [ 135.271355, 34.6871643 ] } },
{ "type": "Feature", "properties": { "内容": "うみのほしルルド小規模多機能【小規模多機能型居宅介護】兵庫県神戸市東灘区魚崎西町一丁目7番14号", "url": "https://www.kaigokensaku.mhlw.go.jp/28/index.php?action_kouhyou_detail_004_kani=true&JigyosyoCd=2890100387-00&ServiceCd=730&Type=search", "url2": "https://www.uminohosi.jp/" }, "geometry": { "type": "Point", "coordinates": [ 135.265923500000014, 34.70816580000001 ] } },
{ "type": "Feature", "properties": { "内容": "中井病院ケアホーム【小規模多機能型居宅介護】神戸市灘区泉通６丁目３－８", "url": "https://www.kaigokensaku.mhlw.go.jp/28/index.php?action_kouhyou_detail_004_kani=true&JigyosyoCd=2890200054-00&ServiceCd=730&Type=search", "url2": "http://www.nakai-hp.jp/" }, "geometry": { "type": "Point", "coordinates": [ 135.222116599999907, 34.7097954 ] } },
{ "type": "Feature", "properties": { "内容": "ろっこう医療生活協同組合小規模多機能とががわ【小規模多機能型居宅介護】中原通2-2-1", "url": "https://www.kaigokensaku.mhlw.go.jp/28/index.php?action_kouhyou_detail_004_kani=true&JigyosyoCd=2890200062-00&ServiceCd=730&Type=search", "url2": null }, "geometry": { "type": "Point", "coordinates": [ 135.223485817843823, 34.714026683483326 ] } },
{ "type": "Feature", "properties": { "内容": "小規模多機能型居宅介護　ラグナケア千鳥山荘【小規模多機能型居宅介護】神戸市兵庫区千鳥町3丁目5-1", "url": "https://www.kaigokensaku.mhlw.go.jp/28/index.php?action_kouhyou_detail_004_kani=true&JigyosyoCd=2890500024-00&ServiceCd=730&Type=search", "url2": "http://www.houonkai.jp/" }, "geometry": { "type": "Point", "coordinates": [ 135.160552899999971, 34.6910686 ] } },
{ "type": "Feature", "properties": { "内容": "小規模多機能　花みさき【小規模多機能型居宅介護】浜中町1-17-14", "url": "https://www.kaigokensaku.mhlw.go.jp/28/index.php?action_kouhyou_detail_004_kani=true&JigyosyoCd=2890500040-00&ServiceCd=730&Type=search", "url2": "hanamisaki.or.jp" }, "geometry": { "type": "Point", "coordinates": [ 135.165033599999987, 34.6561135 ] } },
{ "type": "Feature", "properties": { "内容": "ＰＬＵＭの里【小規模多機能型居宅介護】駅前通4丁目1番32号", "url": "https://www.kaigokensaku.mhlw.go.jp/28/index.php?action_kouhyou_detail_004_kani=true&JigyosyoCd=2890500081-00&ServiceCd=730&Type=search", "url2": "http://www.unikago.jp" }, "geometry": { "type": "Point", "coordinates": [ 135.1591171, 34.6664764 ] } },
{ "type": "Feature", "properties": { "内容": "小規模多機能ホームオレンジ【小規模多機能型居宅介護】兵庫県神戸市兵庫区湊山町１２番３号", "url": "https://www.kaigokensaku.mhlw.go.jp/28/index.php?action_kouhyou_detail_004_kani=true&JigyosyoCd=2890500131-00&ServiceCd=730&Type=search", "url2": null }, "geometry": { "type": "Point", "coordinates": [ 135.164508217790967, 34.690806791889607 ] } },
{ "type": "Feature", "properties": { "内容": "小規模多機能型居宅介護事業所ｽﾘｰﾙ兵庫上沢【小規模多機能型居宅介護】上沢通８丁目９－１ﾙｰｸ愛", "url": "https://www.kaigokensaku.mhlw.go.jp/28/index.php?action_kouhyou_detail_004_kani=true&JigyosyoCd=2890500107-00&ServiceCd=730&Type=search", "url2": "http://www1.ocn.ne.jp/~hinacorp/" }, "geometry": { "type": "Point", "coordinates": [ 135.1586328, 34.674145300000035 ] } },
{ "type": "Feature", "properties": { "内容": "小規模多機能型居宅介護　フリーダム兵庫【小規模多機能型居宅介護】永沢町３丁目２－２３", "url": "https://www.kaigokensaku.mhlw.go.jp/28/index.php?action_kouhyou_detail_004_kani=true&JigyosyoCd=2890500065-00&ServiceCd=730&Type=search", "url2": "freedom@ml01.rd-net.jp" }, "geometry": { "type": "Point", "coordinates": [ 135.1716745, 34.6738427 ] } },
{ "type": "Feature", "properties": { "内容": "まんてん堂小規模多機能型ホームひょうご須佐野【小規模多機能型居宅介護】兵庫県神戸市兵庫区明和通2-1-27", "url": "https://www.kaigokensaku.mhlw.go.jp/28/index.php?action_kouhyou_detail_004_kani=true&JigyosyoCd=2890500172-00&ServiceCd=730&Type=search", "url2": "http://www.manten.org/mantendou_categoy/mantendou_01_05" }, "geometry": { "type": "Point", "coordinates": [ 135.164944600000013, 34.6613548 ] } },
{ "type": "Feature", "properties": { "内容": "高齢者生協小規模多機能かけはし【小規模多機能型居宅介護】神戸市長田区大橋町9丁目４－６大橋西ビル　1F", "url": "https://www.kaigokensaku.mhlw.go.jp/28/index.php?action_kouhyou_detail_004_kani=true&JigyosyoCd=2890600022-00&ServiceCd=730&Type=search", "url2": "kakehasi-s.9825@kourei-h.org" }, "geometry": { "type": "Point", "coordinates": [ 135.141707900000029, 34.6527025 ] } },
{ "type": "Feature", "properties": { "内容": "小規模多機能型居宅介護　フリーダム長田【小規模多機能型居宅介護】兵庫県神戸市長田区宮川町1丁目26-5ふれんど神戸花水木苑2階", "url": "https://www.kaigokensaku.mhlw.go.jp/28/index.php?action_kouhyou_detail_004_kani=true&JigyosyoCd=2890600147-00&ServiceCd=730&Type=search", "url2": null }, "geometry": { "type": "Point", "coordinates": [ 135.148737899999986, 34.6684589 ] } },
{ "type": "Feature", "properties": { "内容": "小規模多機能型居宅介護　ハナ【小規模多機能型居宅介護】兵庫県神戸市長田区西尻池町２－４－２８", "url": "https://www.kaigokensaku.mhlw.go.jp/28/index.php?action_kouhyou_detail_004_kani=true&JigyosyoCd=2890600121-00&ServiceCd=730&Type=search", "url2": null }, "geometry": { "type": "Point", "coordinates": [ 135.150573500000064, 34.6587631 ] } },
{ "type": "Feature", "properties": { "内容": "小規模多機能なのはな【小規模多機能型居宅介護】神戸市須磨区白川台３－６３－１白川台会館２F", "url": "https://www.kaigokensaku.mhlw.go.jp/28/index.php?action_kouhyou_detail_004_kani=true&JigyosyoCd=2890700020-00&ServiceCd=730&Type=search", "url2": "http://komadory.com" }, "geometry": { "type": "Point", "coordinates": [ 135.100424699999962, 34.6899983 ] } },
{ "type": "Feature", "properties": { "内容": "小規模多機能ホームひまわり【小規模多機能型居宅介護】神戸市須磨区行幸町4-4-8", "url": "https://www.kaigokensaku.mhlw.go.jp/28/index.php?action_kouhyou_detail_004_kani=true&JigyosyoCd=2890700087-00&ServiceCd=730&Type=search", "url2": "https://welfarekobe.wixsite.com/mysite/blank" }, "geometry": { "type": "Point", "coordinates": [ 135.119437799999986, 34.6480752 ] } },
{ "type": "Feature", "properties": { "内容": "ニチイケアセンター西神戸【小規模多機能型居宅介護】兵庫県神戸市垂水区西舞子２－１２－５３サンマリン舞子１Ｆ", "url": "https://www.kaigokensaku.mhlw.go.jp/28/index.php?action_kouhyou_detail_004_kani=true&JigyosyoCd=2890800119-00&ServiceCd=730&Type=search", "url2": "http://www.nichiigakkan.co.jp" }, "geometry": { "type": "Point", "coordinates": [ 135.030375899999967, 34.6413638 ] } },
{ "type": "Feature", "properties": { "内容": "小規模多機能型居宅介護事業所　ファボール泉ヶ丘【小規模多機能型居宅介護】泉ヶ丘5丁目8番34号", "url": "https://www.kaigokensaku.mhlw.go.jp/28/index.php?action_kouhyou_detail_004_kani=true&JigyosyoCd=2890800051-00&ServiceCd=730&Type=search", "url2": "http://kyowakai.main.jp/" }, "geometry": { "type": "Point", "coordinates": [ 139.916705699999966, 36.5701097 ] } },
{ "type": "Feature", "properties": { "内容": "オービーホーム馬場通【小規模多機能型居宅介護】神戸市垂水区馬場通５－１１", "url": "https://www.kaigokensaku.mhlw.go.jp/28/index.php?action_kouhyou_detail_004_kani=true&JigyosyoCd=2890800069-00&ServiceCd=730&Type=search", "url2": "http://www.obh2525.or.jp" }, "geometry": { "type": "Point", "coordinates": [ 135.059883510975652, 34.635212303099898 ] } },
{ "type": "Feature", "properties": { "内容": "小規模多機能型居宅介護　舞子すみれ園【小規模多機能型居宅介護】西舞子６丁目１－１３", "url": "https://www.kaigokensaku.mhlw.go.jp/28/index.php?action_kouhyou_detail_004_kani=true&JigyosyoCd=2890800101-00&ServiceCd=730&Type=search", "url2": "http://www.sumire.or.jp" }, "geometry": { "type": "Point", "coordinates": [ 135.024904, 34.642008 ] } },
{ "type": "Feature", "properties": { "内容": "小規模多機能ホーム向陽荘【小規模多機能型居宅介護】福田５丁目2番21号", "url": "https://www.kaigokensaku.mhlw.go.jp/28/index.php?action_kouhyou_detail_004_kani=true&JigyosyoCd=2890800291-00&ServiceCd=730&Type=search", "url2": "http://www.shotokukai-th.or.jp" }, "geometry": { "type": "Point", "coordinates": [ 139.46374650000007, 35.4470557 ] } },
{ "type": "Feature", "properties": { "内容": "小規模多機能型　あったか家族【小規模多機能型居宅介護】兵庫県神戸市垂水区舞子坂３丁目１６－１０", "url": "https://www.kaigokensaku.mhlw.go.jp/28/index.php?action_kouhyou_detail_004_kani=true&JigyosyoCd=2890800374-00&ServiceCd=730&Type=search", "url2": "https://hitomarukai.or.jp" }, "geometry": { "type": "Point", "coordinates": [ 135.031520199999932, 34.6475297 ] } },
{ "type": "Feature", "properties": { "内容": "パナソニックエイジフリーケアセンター神戸霞ヶ丘・小規模多機能【小規模多機能型居宅介護】兵庫県神戸市垂水区霞ヶ丘1丁目4番24号", "url": "https://www.kaigokensaku.mhlw.go.jp/28/index.php?action_kouhyou_detail_004_kani=true&JigyosyoCd=2890800440-00&ServiceCd=730&Type=search", "url2": "https://panasonic.co.jp/es/pesaf/" }, "geometry": { "type": "Point", "coordinates": [ 135.047307400904401, 34.633247511248896 ] } },
{ "type": "Feature", "properties": { "内容": "ほほえみ星陵台【小規模多機能型居宅介護】兵庫県神戸市垂水区星陵台３－１－１", "url": "https://www.kaigokensaku.mhlw.go.jp/28/index.php?action_kouhyou_detail_004_kani=true&JigyosyoCd=2890800556-00&ServiceCd=730&Type=search", "url2": null }, "geometry": { "type": "Point", "coordinates": [ 135.047106899999989, 34.6419478 ] } },
{ "type": "Feature", "properties": { "内容": "小規模多機能　オービーホーム高丸【小規模多機能型居宅介護】兵庫県神戸市垂水区上高丸3丁目7番22号", "url": "https://www.kaigokensaku.mhlw.go.jp/28/index.php?action_kouhyou_detail_004_kani=true&JigyosyoCd=2890800598-00&ServiceCd=730&Type=search", "url2": "http://www.obh2525.or.jp" }, "geometry": { "type": "Point", "coordinates": [ 135.05379880000001, 34.6459193 ] } },
{ "type": "Feature", "properties": { "内容": "小規模多機能型居宅介護ゆとり庵西舞子【小規模多機能型居宅介護】兵庫兼神戸市垂水区西舞子7-28-16", "url": "https://www.kaigokensaku.mhlw.go.jp/28/index.php?action_kouhyou_detail_004_kani=true&JigyosyoCd=2890800465-00&ServiceCd=730&Type=search", "url2": "https://hinode.or.jp/" }, "geometry": { "type": "Point", "coordinates": [ 135.026955300000054, 34.6459621 ] } },
{ "type": "Feature", "properties": { "内容": "パナソニック　エイジフリーケアセンター神戸学が丘・小規模多機能【小規模多機能型居宅介護】学が丘4丁目9-3", "url": "https://www.kaigokensaku.mhlw.go.jp/28/index.php?action_kouhyou_detail_004_kani=true&JigyosyoCd=2890800317-00&ServiceCd=730&Type=search", "url2": "http://panasonic.co.jp/es/pesaf/" }, "geometry": { "type": "Point", "coordinates": [ 135.0584308, 34.6598758 ] } },
{ "type": "Feature", "properties": { "内容": "小規模多機能型居宅介護　ゆとり庵福田【小規模多機能型居宅介護】兵庫県神戸市垂水区福田2丁目2-23", "url": "https://www.kaigokensaku.mhlw.go.jp/28/index.php?action_kouhyou_detail_004_kani=true&JigyosyoCd=2890800549-00&ServiceCd=730&Type=search", "url2": "https://hinode.or.jp/establishment/yutorian-fukuda/" }, "geometry": { "type": "Point", "coordinates": [ 135.06387212513124, 34.64253539944518 ] } },
{ "type": "Feature", "properties": { "内容": "小規模多機能型居宅介護支援事業所　ハートフル多聞台【小規模多機能型居宅介護】多聞台4丁目12-9", "url": "https://www.kaigokensaku.mhlw.go.jp/28/index.php?action_kouhyou_detail_004_kani=true&JigyosyoCd=2890800762-00&ServiceCd=730&Type=search", "url2": null }, "geometry": { "type": "Point", "coordinates": [ 135.0438196, 34.6616626 ] } },
{ "type": "Feature", "properties": { "内容": "しょうきぼたきのうがたきょたくかいご　ばいこうえん【小規模多機能型居宅介護】神戸市北区山田町小部字南山2-35", "url": "https://www.kaigokensaku.mhlw.go.jp/28/index.php?action_kouhyou_detail_004_kani=true&JigyosyoCd=2895000087-00&ServiceCd=730&Type=search", "url2": "http://www.yasuragi-swc.or.jp" }, "geometry": { "type": "Point", "coordinates": [ 135.147684, 34.7189181 ] } },
{ "type": "Feature", "properties": { "内容": "医療法人社団六心会　小規模多機能型居宅介護こころ【小規模多機能型居宅介護】神戸市北区道場町日下部字林ヶ鼻1853番地", "url": "https://www.kaigokensaku.mhlw.go.jp/28/index.php?action_kouhyou_detail_004_kani=true&JigyosyoCd=2895000129-00&ServiceCd=730&Type=search", "url2": "http://kanoko-hp.jp/" }, "geometry": { "type": "Point", "coordinates": [ 135.223685713353007, 34.854488402977402 ] } },
{ "type": "Feature", "properties": { "内容": "小規模多機能いろどりの家・大池【小規模多機能型居宅介護】兵庫県神戸市北区西大池2丁目7番31号", "url": "https://www.kaigokensaku.mhlw.go.jp/28/index.php?action_kouhyou_detail_004_kani=true&JigyosyoCd=2895000210-00&ServiceCd=730&Type=search", "url2": "ｋ-kyowakai-kaigo.com" }, "geometry": { "type": "Point", "coordinates": [ 135.195643, 34.7743591 ] } },
{ "type": "Feature", "properties": { "内容": "PLUMの里サテライト諏訪山【小規模多機能型居宅介護】中央区神戸港地方再度谷39", "url": "https://www.kaigokensaku.mhlw.go.jp/28/index.php?action_kouhyou_detail_004_kani=true&JigyosyoCd=2895100168-00&ServiceCd=730&Type=search", "url2": "https://unikaigo.jp/" }, "geometry": { "type": "Point", "coordinates": [ 135.177234, 34.7176993 ] } },
{ "type": "Feature", "properties": { "内容": "小規模多機能　花菜【小規模多機能型居宅介護】兵庫県神戸市西区前開南町１丁目３－８ゆいま～る伊川谷１階", "url": "https://www.kaigokensaku.mhlw.go.jp/28/index.php?action_kouhyou_detail_004_kani=true&JigyosyoCd=2895200034-00&ServiceCd=730&Type=search", "url2": "https://c-net.jp/" }, "geometry": { "type": "Point", "coordinates": [ 135.041418328172284, 34.688295294283904 ] } },
{ "type": "Feature", "properties": { "内容": "小規模多機能ホーム　オリンピア神戸西【小規模多機能型居宅介護】神戸市西区玉津町上池315-10", "url": "https://www.kaigokensaku.mhlw.go.jp/28/index.php?action_kouhyou_detail_004_kani=true&JigyosyoCd=2895200059-00&ServiceCd=730&Type=search", "url2": "http://www.olympia.or.jp" }, "geometry": { "type": "Point", "coordinates": [ 134.9904765, 34.6596941 ] } },
{ "type": "Feature", "properties": { "内容": "ハッピー雅【小規模多機能型居宅介護】兵庫県神戸市西区伊川谷町有瀬1050-1ハッピー雅", "url": "https://www.kaigokensaku.mhlw.go.jp/28/index.php?action_kouhyou_detail_004_kani=true&JigyosyoCd=2895200216-00&ServiceCd=730&Type=search", "url2": "http://bestlife-care.co.jp/miyabi/" }, "geometry": { "type": "Point", "coordinates": [ 135.0153798, 34.6618138 ] } },
{ "type": "Feature", "properties": { "内容": "小規模多機能ホーム　ゆうゆう玉津【小規模多機能型居宅介護】兵庫県神戸市西区丸塚１丁目22-17", "url": "https://www.kaigokensaku.mhlw.go.jp/28/index.php?action_kouhyou_detail_004_kani=true&JigyosyoCd=2895200489-00&ServiceCd=730&Type=search", "url2": "http://www.seihoukai-grp.jp/iryou" }, "geometry": { "type": "Point", "coordinates": [ 134.9865744, 34.6821144 ] } },
{ "type": "Feature", "properties": { "内容": "小規模多機能型居宅介護西神ひらの【小規模多機能型居宅介護】兵庫県神戸市西区平野町印路字新池谷2584", "url": "https://www.kaigokensaku.mhlw.go.jp/28/index.php?action_kouhyou_detail_004_kani=true&JigyosyoCd=2895200570-00&ServiceCd=730&Type=search", "url2": "https://kobe-hinode.or.jp/" }, "geometry": { "type": "Point", "coordinates": [ 134.9920835, 34.6667802 ] } },
{ "type": "Feature", "properties": { "内容": "姫路医療生協小規模多機能ホームふるさと【小規模多機能型居宅介護】姫路市宮上町1丁目１１０", "url": "https://www.kaigokensaku.mhlw.go.jp/28/index.php?action_kouhyou_detail_004_kani=true&JigyosyoCd=2894000054-00&ServiceCd=730&Type=search", "url2": "th-furusato@himeji-mcoop.or.jp" }, "geometry": { "type": "Point", "coordinates": [ 134.71269570000004, 34.831144 ] } },
{ "type": "Feature", "properties": { "内容": "姫路医療生協小規模多機能ホームめが【小規模多機能型居宅介護】兵庫県姫路市飾磨区妻鹿278福祉介護センターめが", "url": "https://www.kaigokensaku.mhlw.go.jp/28/index.php?action_kouhyou_detail_004_kani=true&JigyosyoCd=2894000401-00&ServiceCd=730&Type=search", "url2": "http://www.himeji-mcoop.or.jp" }, "geometry": { "type": "Point", "coordinates": [ 134.696335399999953, 34.7952097 ] } },
{ "type": "Feature", "properties": { "内容": "小規模多機能ホームネバーランド【小規模多機能型居宅介護】兵庫県姫路市船津町5271-20", "url": "https://www.kaigokensaku.mhlw.go.jp/28/index.php?action_kouhyou_detail_004_kani=true&JigyosyoCd=2894000377-00&ServiceCd=730&Type=search", "url2": "https：//www.never-land.or.jp" }, "geometry": { "type": "Point", "coordinates": [ 134.7641423, 34.9099252 ] } },
{ "type": "Feature", "properties": { "内容": "小規模多機能ホームなごみ【小規模多機能型居宅介護】飾磨区宮3番地", "url": "https://www.kaigokensaku.mhlw.go.jp/28/index.php?action_kouhyou_detail_004_kani=true&JigyosyoCd=2894000492-00&ServiceCd=730&Type=search", "url2": "https://kaigo-nagomi.p-kit.com/" }, "geometry": { "type": "Point", "coordinates": [ 134.670257399999969, 34.7966317 ] } },
{ "type": "Feature", "properties": { "内容": "小規模多機能ホームさろお【小規模多機能型居宅介護】姫路市飾東町佐良和32-1", "url": "https://www.kaigokensaku.mhlw.go.jp/28/index.php?action_kouhyou_detail_004_kani=true&JigyosyoCd=2894000237-00&ServiceCd=730&Type=search", "url2": "th-saroo@himeji-mcoop.or.jp" }, "geometry": { "type": "Point", "coordinates": [ 134.729927500000031, 34.8445159 ] } },
{ "type": "Feature", "properties": { "内容": "小規模多機能ホーム　城北【小規模多機能型居宅介護】伊伝居31３番地３", "url": "https://www.kaigokensaku.mhlw.go.jp/28/index.php?action_kouhyou_detail_004_kani=true&JigyosyoCd=2894000260-00&ServiceCd=730&Type=search", "url2": "th-jouhoku@himeji-mcoop.or.jp" }, "geometry": { "type": "Point", "coordinates": [ 134.702458100000058, 34.8528285 ] } },
{ "type": "Feature", "properties": { "内容": "姫路医療生協小規模多機能ホームおおつ【小規模多機能型居宅介護】姫路市大津区天満1047-1", "url": "https://www.kaigokensaku.mhlw.go.jp/28/index.php?action_kouhyou_detail_004_kani=true&JigyosyoCd=2894000294-00&ServiceCd=730&Type=search", "url2": "http://www.himeji-mcoop.or.jp" }, "geometry": { "type": "Point", "coordinates": [ 134.6054974, 34.7953174 ] } },
{ "type": "Feature", "properties": { "内容": "小規模多機能ホーム香寺【小規模多機能型居宅介護】兵庫県姫路市香寺町香呂45", "url": "https://www.kaigokensaku.mhlw.go.jp/28/index.php?action_kouhyou_detail_004_kani=true&JigyosyoCd=2894000740-00&ServiceCd=730&Type=search", "url2": "http://www.himeji-mcoop.or.jp/" }, "geometry": { "type": "Point", "coordinates": [ 134.737044597483873, 34.912497552941915 ] } },
{ "type": "Feature", "properties": { "内容": "小規模多機能ホーム　燦燦【小規模多機能型居宅介護】林田町林谷５８６番地１", "url": "https://www.kaigokensaku.mhlw.go.jp/28/index.php?action_kouhyou_detail_004_kani=true&JigyosyoCd=2894000153-00&ServiceCd=730&Type=search", "url2": "http://www.h-fukushi.com/" }, "geometry": { "type": "Point", "coordinates": [ 134.583766430619107, 34.903765802541415 ] } },
{ "type": "Feature", "properties": { "内容": "小規模多機能ホーム野里【小規模多機能型居宅介護】兵庫県姫路市野里上野町1丁目8-8", "url": "https://www.kaigokensaku.mhlw.go.jp/28/index.php?action_kouhyou_detail_004_kani=true&JigyosyoCd=2894000872-00&ServiceCd=730&Type=search", "url2": "http://www.himeji-mcoop.or.jp" }, "geometry": { "type": "Point", "coordinates": [ 134.703986799999939, 34.8464027 ] } },
{ "type": "Feature", "properties": { "内容": "小規模多機能ホーム厚生園【小規模多機能型居宅介護】兵庫県姫路市御立西4丁目1－19", "url": "https://www.kaigokensaku.mhlw.go.jp/28/index.php?action_kouhyou_detail_004_kani=true&JigyosyoCd=2894000096-00&ServiceCd=730&Type=search", "url2": "http://www.kousei-hp.jp/mitatikai/kouseien.html" }, "geometry": { "type": "Point", "coordinates": [ 134.65996210000003, 34.8609936 ] } },
{ "type": "Feature", "properties": { "内容": "小規模多機能型居宅介護　第二姫路・勝原ホーム【小規模多機能型居宅介護】兵庫県姫路市勝原区下太田201", "url": "https://www.kaigokensaku.mhlw.go.jp/28/index.php?action_kouhyou_detail_004_kani=true&JigyosyoCd=2894000187-00&ServiceCd=730&Type=search", "url2": "http://www.katuhara.or.jp/" }, "geometry": { "type": "Point", "coordinates": [ 134.602038399999969, 34.8247088 ] } },
{ "type": "Feature", "properties": { "内容": "小規模多機能ホームさかい【小規模多機能型居宅介護】兵庫県姫路市飾西580-1", "url": "https://www.kaigokensaku.mhlw.go.jp/28/index.php?action_kouhyou_detail_004_kani=true&JigyosyoCd=2894000328-00&ServiceCd=730&Type=search", "url2": "http://www.sakai-hp.jp/" }, "geometry": { "type": "Point", "coordinates": [ 134.640797199999952, 34.8586466 ] } },
{ "type": "Feature", "properties": { "内容": "小規模多機能ホーム　サンライフ岡田【小規模多機能型居宅介護】兵庫県姫路市岡田51番地", "url": "https://www.kaigokensaku.mhlw.go.jp/28/index.php?action_kouhyou_detail_004_kani=true&JigyosyoCd=2894001219-00&ServiceCd=730&Type=search", "url2": "http://sasayurikai.or.jp" }, "geometry": { "type": "Point", "coordinates": [ 134.665588065091811, 34.827868799127963 ] } },
{ "type": "Feature", "properties": { "内容": "小規模多機能ホームあゆ美【小規模多機能型居宅介護】兵庫県姫路市北条宮の町136", "url": "https://www.kaigokensaku.mhlw.go.jp/28/index.php?action_kouhyou_detail_004_kani=true&JigyosyoCd=2894000070-00&ServiceCd=730&Type=search", "url2": "kitakawa.jp" }, "geometry": { "type": "Point", "coordinates": [ 134.692778097553287, 34.817687600000561 ] } },
{ "type": "Feature", "properties": { "内容": "小規模多機能ホーム「花田」【小規模多機能型居宅介護】花田町一本松３７３番地１１", "url": "https://www.kaigokensaku.mhlw.go.jp/28/index.php?action_kouhyou_detail_004_kani=true&JigyosyoCd=2894000138-00&ServiceCd=730&Type=search", "url2": "http://www.honkakuji-gr.com" }, "geometry": { "type": "Point", "coordinates": [ 134.720692800000052, 34.8280148 ] } },
{ "type": "Feature", "properties": { "内容": "ふれ愛ホーム　ひだまり【小規模多機能型居宅介護】兵庫県姫路市白浜町甲402番地432", "url": "https://www.kaigokensaku.mhlw.go.jp/28/index.php?action_kouhyou_detail_004_kani=true&JigyosyoCd=2894000146-00&ServiceCd=730&Type=search", "url2": "hidamari-g.co.jp" }, "geometry": { "type": "Point", "coordinates": [ 134.70579280000004, 34.7823335 ] } },
{ "type": "Feature", "properties": { "内容": "あっぷる多機能広畑【小規模多機能型居宅介護】姫路市広畑区鶴町１丁目４１－１", "url": "https://www.kaigokensaku.mhlw.go.jp/28/index.php?action_kouhyou_detail_004_kani=true&JigyosyoCd=2894000062-00&ServiceCd=730&Type=search", "url2": "http://www.apple-117.jp/" }, "geometry": { "type": "Point", "coordinates": [ 134.630897299999987, 34.7943007 ] } },
{ "type": "Feature", "properties": { "内容": "あゆみ愛小規模多機能【小規模多機能型居宅介護】兵庫県姫路市網干区浜田83-11", "url": "https://www.kaigokensaku.mhlw.go.jp/28/index.php?action_kouhyou_detail_004_kani=true&JigyosyoCd=2894000526-00&ServiceCd=730&Type=search", "url2": "https://ayumiai.net/index" }, "geometry": { "type": "Point", "coordinates": [ 134.577242800000022, 34.7825134 ] } },
{ "type": "Feature", "properties": { "内容": "小規模多機能ホーム　いやさか【小規模多機能型居宅介護】兵庫県姫路市木場1429番地127", "url": "https://www.kaigokensaku.mhlw.go.jp/28/index.php?action_kouhyou_detail_004_kani=true&JigyosyoCd=2894000666-00&ServiceCd=730&Type=search", "url2": "https://iyasakaen.jp/" }, "geometry": { "type": "Point", "coordinates": [ 134.726224199999933, 34.777481500000029 ] } },
{ "type": "Feature", "properties": { "内容": "パナソニックエイジフリーケアセンター尼崎南武庫之荘・小規模多機能【小規模多機能型居宅介護】尼崎市南武庫之荘10丁目１－７", "url": "https://www.kaigokensaku.mhlw.go.jp/28/index.php?action_kouhyou_detail_004_kani=true&JigyosyoCd=2893000501-00&ServiceCd=730&Type=search", "url2": "http://panasonic.co.jp/es/pesaf/" }, "geometry": { "type": "Point", "coordinates": [ 135.381600299999945, 34.7439685 ] } },
{ "type": "Feature", "properties": { "内容": "ﾊﾟﾅｿﾆｯｸｴｲｼﾞﾌﾘｰｹｱｾﾝﾀｰ尼崎三反田・小規模多機能【小規模多機能型居宅介護】兵庫県尼崎市三反田町２町目11-33エイジフリーハウス", "url": "https://www.kaigokensaku.mhlw.go.jp/28/index.php?action_kouhyou_detail_004_kani=true&JigyosyoCd=2893000568-00&ServiceCd=730&Type=search", "url2": "http://panasonic.co.jp/es/pesaf/" }, "geometry": { "type": "Point", "coordinates": [ 135.408367, 34.737953 ] } },
{ "type": "Feature", "properties": { "内容": "パナソニック　エイジフリーケアセンター尼崎大島・小規模多機能【小規模多機能型居宅介護】兵庫県尼崎市大島1丁目１０番１号", "url": "https://www.kaigokensaku.mhlw.go.jp/28/index.php?action_kouhyou_detail_004_kani=true&JigyosyoCd=2893000519-00&ServiceCd=730&Type=search", "url2": "https://sumai.panasonic.jp/agefree/facility_care/agefree-house/amagasakioshima/" }, "geometry": { "type": "Point", "coordinates": [ 135.3867113, 34.7298399 ] } },
{ "type": "Feature", "properties": { "内容": "パナソニックエイジフリーケアセンター尼崎下坂部・小規模多機能【小規模多機能型居宅介護】兵庫県尼崎市下坂部3丁目18番8号エイジフリーハウス尼崎下坂部", "url": "https://www.kaigokensaku.mhlw.go.jp/28/index.php?action_kouhyou_detail_004_kani=true&JigyosyoCd=2893000634-00&ServiceCd=730&Type=search", "url2": "http://panasonic.co.jp/es/pesf/" }, "geometry": { "type": "Point", "coordinates": [ 135.435461700000019, 34.742314 ] } },
{ "type": "Feature", "properties": { "内容": "小規模多機能型居宅介護　プチとまとちゃん【小規模多機能型居宅介護】兵庫県尼崎市大庄中通５の１４の１７禅　株式会社（プチとまとちゃん）", "url": "https://www.kaigokensaku.mhlw.go.jp/28/index.php?action_kouhyou_detail_004_kani=true&JigyosyoCd=2893000428-00&ServiceCd=730&Type=search", "url2": null }, "geometry": { "type": "Point", "coordinates": [ 135.392030699999964, 34.7197014 ] } },
{ "type": "Feature", "properties": { "内容": "小規模多機能型居宅介護　のむら【小規模多機能型居宅介護】兵庫県尼崎市大物町1-10-17地域生活支援ハウスのむら", "url": "https://www.kaigokensaku.mhlw.go.jp/28/index.php?action_kouhyou_detail_004_kani=true&JigyosyoCd=2893000410-00&ServiceCd=730&Type=search", "url2": "http://www.shuwakai-nomura.or.jp" }, "geometry": { "type": "Point", "coordinates": [ 135.4263297, 34.7145001 ] } },
{ "type": "Feature", "properties": { "内容": "愛・小規模多機能武庫之荘【小規模多機能型居宅介護】兵庫県尼崎市南武庫之荘4-18-31", "url": "https://www.kaigokensaku.mhlw.go.jp/28/index.php?action_kouhyou_detail_004_kani=true&JigyosyoCd=2893000451-00&ServiceCd=730&Type=search", "url2": "http://i-sogofukushi.com" }, "geometry": { "type": "Point", "coordinates": [ 135.390105100000028, 34.7451213 ] } },
{ "type": "Feature", "properties": { "内容": "サンホームあまがさき東館　ゆとり庵一歩『一歩』【小規模多機能型居宅介護】兵庫県尼崎市大庄北３丁目１４番２７号", "url": "https://www.kaigokensaku.mhlw.go.jp/28/index.php?action_kouhyou_detail_004_kani=true&JigyosyoCd=2893000600-00&ServiceCd=730&Type=search", "url2": "https://hinode.or.jp/establishment/sh_amagasaki/yutorian_ippo/" }, "geometry": { "type": "Point", "coordinates": [ 135.389380599999981, 34.733863900000017 ] } },
{ "type": "Feature", "properties": { "内容": "小規模多機能型居宅介護たのしい家たのしい家武庫之荘【小規模多機能型居宅介護】尼崎市武庫之荘五丁目１３番１２－２", "url": "https://www.kaigokensaku.mhlw.go.jp/28/index.php?action_kouhyou_detail_004_kani=true&JigyosyoCd=2893001210-00&ServiceCd=730&Type=search", "url2": null }, "geometry": { "type": "Point", "coordinates": [ 135.386484599999989, 34.7582228 ] } },
{ "type": "Feature", "properties": { "内容": "小規模多機能ホーム　園田館【小規模多機能型居宅介護】兵庫県尼崎市若王寺2丁目20番5号", "url": "https://www.kaigokensaku.mhlw.go.jp/28/index.php?action_kouhyou_detail_004_kani=true&JigyosyoCd=2893000097-00&ServiceCd=730&Type=search", "url2": "info@alliance-club.jp" }, "geometry": { "type": "Point", "coordinates": [ 135.437147500000037, 34.748099500000031 ] } },
{ "type": "Feature", "properties": { "内容": "オアシス尼崎立花小規模多機能型居宅介護事業所【小規模多機能型居宅介護】兵庫県尼崎市上ノ島町3丁目25-25ＪＡ兵庫六甲尼崎支店2階", "url": "https://www.kaigokensaku.mhlw.go.jp/28/index.php?action_kouhyou_detail_004_kani=true&JigyosyoCd=2893000485-00&ServiceCd=730&Type=search", "url2": "ｗｗｗ．ｊａ-ｏａｓｉｓ．ｃｏｍ" }, "geometry": { "type": "Point", "coordinates": [ 135.40411542925267, 34.745494202661611 ] } },
{ "type": "Feature", "properties": { "内容": "セントケア小規模多機能尼崎【小規模多機能型居宅介護】杭瀬寺島1-4-48", "url": "https://www.kaigokensaku.mhlw.go.jp/28/index.php?action_kouhyou_detail_004_kani=true&JigyosyoCd=2893000782-00&ServiceCd=730&Type=search", "url2": null }, "geometry": { "type": "Point", "coordinates": [ 135.443958400000014, 34.7200158 ] } },
{ "type": "Feature", "properties": { "内容": "尼崎小規模多機能施設ラガール【小規模多機能型居宅介護】兵庫県尼崎市大庄西町4-4-1", "url": "https://www.kaigokensaku.mhlw.go.jp/28/index.php?action_kouhyou_detail_004_kani=true&JigyosyoCd=2893001277-00&ServiceCd=730&Type=search", "url2": "http://ama-la.koudoukai.or.jp/" }, "geometry": { "type": "Point", "coordinates": [ 135.3896317, 34.7180599 ] } },
{ "type": "Feature", "properties": { "内容": "小規模多機能型居宅介護　ゆとり庵西難波町【小規模多機能型居宅介護】西難波町2丁目28ｰ7", "url": "https://www.kaigokensaku.mhlw.go.jp/28/index.php?action_kouhyou_detail_004_kani=true&JigyosyoCd=2893000956-00&ServiceCd=730&Type=search", "url2": "https://hinode.or.jp/establishment/yutorian-nishinaniwa/" }, "geometry": { "type": "Point", "coordinates": [ 135.4044998, 34.7265118 ] } },
{ "type": "Feature", "properties": { "内容": "パンセ武庫之荘ホーム【小規模多機能型居宅介護】兵庫県尼崎市武庫之荘本町1丁目18-26パンセ武庫之荘", "url": "https://www.kaigokensaku.mhlw.go.jp/28/index.php?action_kouhyou_detail_004_kani=true&JigyosyoCd=2893000790-00&ServiceCd=730&Type=search", "url2": "http://www.toshiseikatsu.net/" }, "geometry": { "type": "Point", "coordinates": [ 135.392395800000031, 34.7590835 ] } },
{ "type": "Feature", "properties": { "内容": "小規模多機能型居宅介護ゆとり庵武庫之荘【小規模多機能型居宅介護】兵庫県尼崎市武庫之荘8丁目13番1号", "url": "https://www.kaigokensaku.mhlw.go.jp/28/index.php?action_kouhyou_detail_004_kani=true&JigyosyoCd=2893000865-00&ServiceCd=730&Type=search", "url2": "https://hinode.or.jp/establishment/yutorian-mukonosou/" }, "geometry": { "type": "Point", "coordinates": [ 135.386876600000051, 34.7653048 ] } },
{ "type": "Feature", "properties": { "内容": "ルミネ尼崎【小規模多機能型居宅介護】兵庫県尼崎市潮江2丁目19-7", "url": "https://www.kaigokensaku.mhlw.go.jp/28/index.php?action_kouhyou_detail_004_kani=true&JigyosyoCd=2893000287-00&ServiceCd=730&Type=search", "url2": "http://www.nfsk.jp/" }, "geometry": { "type": "Point", "coordinates": [ 135.4338841, 34.7364069 ] } },
{ "type": "Feature", "properties": { "内容": "小規模多機能居宅介護　ゆとり庵魚住【小規模多機能型居宅介護】兵庫県明石市魚住町西岡2142", "url": "https://www.kaigokensaku.mhlw.go.jp/28/index.php?action_kouhyou_detail_004_kani=true&JigyosyoCd=2892000288-00&ServiceCd=730&Type=search", "url2": "https://hinode.or.jp/establishment/yutorian-uozumi/" }, "geometry": { "type": "Point", "coordinates": [ 134.898236499999939, 34.7088473 ] } },
{ "type": "Feature", "properties": { "内容": "カサブランカ小規模多機能型居宅介護事業所江井島【小規模多機能型居宅介護】兵庫県明石市大久保町江井島209-1", "url": "https://www.kaigokensaku.mhlw.go.jp/28/index.php?action_kouhyou_detail_004_kani=true&JigyosyoCd=2892000346-00&ServiceCd=730&Type=search", "url2": "http://www.kaigo-casablanca.co.jp/" }, "geometry": { "type": "Point", "coordinates": [ 134.92009859999996, 34.6759002 ] } },
{ "type": "Feature", "properties": { "内容": "明石二見小規模多機能施設ラガール【小規模多機能型居宅介護】明石市二見町西二見685-8", "url": "https://www.kaigokensaku.mhlw.go.jp/28/index.php?action_kouhyou_detail_004_kani=true&JigyosyoCd=2892000429-00&ServiceCd=730&Type=search", "url2": "http://www.koudoukai.or.jp/akashifutami/" }, "geometry": { "type": "Point", "coordinates": [ 134.880726800000048, 34.7026805 ] } },
{ "type": "Feature", "properties": { "内容": "大久保苑【小規模多機能型居宅介護】大久保町大窪５４４－１", "url": "https://www.kaigokensaku.mhlw.go.jp/28/index.php?action_kouhyou_detail_004_kani=true&JigyosyoCd=2892000163-00&ServiceCd=730&Type=search", "url2": "http://www.seikaen.jp/" }, "geometry": { "type": "Point", "coordinates": [ 134.9418882, 34.6824861 ] } },
{ "type": "Feature", "properties": { "内容": "まんてん堂小規模多機能型ホームあかし衣川【小規模多機能型居宅介護】兵庫県明石市田町２丁目１番１６号", "url": "https://www.kaigokensaku.mhlw.go.jp/28/index.php?action_kouhyou_detail_004_kani=true&JigyosyoCd=2892000197-00&ServiceCd=730&Type=search", "url2": "http://www.manten.org/service/facility04.html" }, "geometry": { "type": "Point", "coordinates": [ 134.977835899999974, 34.6468143 ] } },
{ "type": "Feature", "properties": { "内容": "まんてん堂小規模多機能型ホームあかし野々池【小規模多機能型居宅介護】兵庫県明石市小久保１丁目９番地の７", "url": "https://www.kaigokensaku.mhlw.go.jp/28/index.php?action_kouhyou_detail_004_kani=true&JigyosyoCd=2892000270-00&ServiceCd=730&Type=search", "url2": "http://www.manten.org/mantendou_categoy/mantendou_01_05" }, "geometry": { "type": "Point", "coordinates": [ 134.960750599999983, 34.6699045 ] } },
{ "type": "Feature", "properties": { "内容": "カサブランカ小規模多機能型居宅介護事業所魚住【小規模多機能型居宅介護】兵庫県明石市魚住町中尾221-1", "url": "https://www.kaigokensaku.mhlw.go.jp/28/index.php?action_kouhyou_detail_004_kani=true&JigyosyoCd=2892000148-00&ServiceCd=730&Type=search", "url2": "http://www.kaigo-casablanca.co.jp/index.html" }, "geometry": { "type": "Point", "coordinates": [ 134.904680800000051, 34.6844269 ] } },
{ "type": "Feature", "properties": { "内容": "明石小規模多機能施設ラガール【小規模多機能型居宅介護】兵庫県明石市林崎町3丁目553番7明石ケアセンターラガール", "url": "https://www.kaigokensaku.mhlw.go.jp/28/index.php?action_kouhyou_detail_004_kani=true&JigyosyoCd=2892000320-00&ServiceCd=730&Type=search", "url2": "http://www.koudoukai.or.jp/akashi/" }, "geometry": { "type": "Point", "coordinates": [ 134.9642063, 34.6509529 ] } },
{ "type": "Feature", "properties": { "内容": "小規模多機能型居宅介護　朝霧【小規模多機能型居宅介護】兵庫県明石市朝霧北町3777番地の87", "url": "https://www.kaigokensaku.mhlw.go.jp/28/index.php?action_kouhyou_detail_004_kani=true&JigyosyoCd=2892000213-00&ServiceCd=730&Type=search", "url2": "https://www.kindly-asagiri.jp/" }, "geometry": { "type": "Point", "coordinates": [ 135.020942528836059, 34.656394508049594 ] } },
{ "type": "Feature", "properties": { "内容": "パール明石小規模多機能事業所【小規模多機能型居宅介護】兵庫県明石市魚住町西岡842番地の2", "url": "https://www.kaigokensaku.mhlw.go.jp/28/index.php?action_kouhyou_detail_004_kani=true&JigyosyoCd=2892000619-00&ServiceCd=730&Type=search", "url2": null }, "geometry": { "type": "Point", "coordinates": [ 134.90100910000001, 34.696468 ] } },
{ "type": "Feature", "properties": { "内容": "千歳大久保【小規模多機能型居宅介護】兵庫県明石市大久保町八木６５４-３", "url": "https://www.kaigokensaku.mhlw.go.jp/28/index.php?action_kouhyou_detail_004_kani=true&JigyosyoCd=2892000882-00&ServiceCd=730&Type=search", "url2": "https://chitose-kai.com/" }, "geometry": { "type": "Point", "coordinates": [ 134.928345400000012, 34.6764644 ] } },
{ "type": "Feature", "properties": { "内容": "小規模多機能型居宅介護　ソラスト甲子園口【小規模多機能型居宅介護】兵庫県西宮市甲子園口北町1-14", "url": "https://www.kaigokensaku.mhlw.go.jp/28/index.php?action_kouhyou_detail_004_kani=true&JigyosyoCd=2890900133-00&ServiceCd=730&Type=search", "url2": "http://solasto-kaigo.com/care/area/solastokoushienguchi3.html" }, "geometry": { "type": "Point", "coordinates": [ 135.374767635581946, 34.740050849136161 ] } },
{ "type": "Feature", "properties": { "内容": "ニチイケアセンター鳴尾北【小規模多機能型居宅介護】兵庫県西宮市学文殿町2丁目5番12号", "url": "https://www.kaigokensaku.mhlw.go.jp/28/index.php?action_kouhyou_detail_004_kani=true&JigyosyoCd=2890900125-00&ServiceCd=730&Type=search", "url2": "http://www.nichiigakkan.co.jp" }, "geometry": { "type": "Point", "coordinates": [ 135.3719542, 34.7238841 ] } },
{ "type": "Feature", "properties": { "内容": "洲本小規模多機能施設ラガール【小規模多機能型居宅介護】兵庫県洲本市大野字中ノ谷６０８－１５", "url": "https://www.kaigokensaku.mhlw.go.jp/28/index.php?action_kouhyou_detail_004_kani=true&JigyosyoCd=2891500072-00&ServiceCd=730&Type=search", "url2": "http://www.koudoukai.or.jp/sumoto/" }, "geometry": { "type": "Point", "coordinates": [ 134.85522549999996, 34.3318791 ] } },
{ "type": "Feature", "properties": { "内容": "洲本中川原小規模多機能施設ラガール【小規模多機能型居宅介護】兵庫県洲本市中川原町安坂988番地洲本ケアセンターラガール", "url": "https://www.kaigokensaku.mhlw.go.jp/28/index.php?action_kouhyou_detail_004_kani=true&JigyosyoCd=2891500171-00&ServiceCd=730&Type=search", "url2": "http://www.koudoukai.or.jp/sumoto/" }, "geometry": { "type": "Point", "coordinates": [ 134.865899399999989, 34.3569851 ] } },
{ "type": "Feature", "properties": { "内容": "宇山たちばなプラス【小規模多機能型居宅介護】兵庫県洲本市宇山１丁目５番１６号", "url": "https://www.kaigokensaku.mhlw.go.jp/28/index.php?action_kouhyou_detail_004_kani=true&JigyosyoCd=2891500049-00&ServiceCd=730&Type=search", "url2": "http://www.sumoto-tachibana.or.jp/" }, "geometry": { "type": "Point", "coordinates": [ 134.885058455819745, 34.344805743791582 ] } },
{ "type": "Feature", "properties": { "内容": "小規模多機能型居宅介護事業所　地域支援ハウス　いちごの家・築地【小規模多機能型居宅介護】兵庫県洲本市栄町2丁目3-26", "url": "https://www.kaigokensaku.mhlw.go.jp/28/index.php?action_kouhyou_detail_004_kani=true&JigyosyoCd=2891500031-00&ServiceCd=730&Type=search", "url2": "http://www.awaji.-itsuki.jp/" }, "geometry": { "type": "Point", "coordinates": [ 134.892564399999969, 34.3434482 ] } },
{ "type": "Feature", "properties": { "内容": "地域支援ハウス　いちごの家・上物部【小規模多機能型居宅介護】洲本市上物部９５１番地１", "url": "https://www.kaigokensaku.mhlw.go.jp/28/index.php?action_kouhyou_detail_004_kani=true&JigyosyoCd=2891500114-00&ServiceCd=730&Type=search", "url2": "http://www.ichie-fukushikai.or.jp" }, "geometry": { "type": "Point", "coordinates": [ 134.891495299999974, 34.3338604 ] } },
{ "type": "Feature", "properties": { "内容": "hanare芦屋【小規模多機能型居宅介護】芦屋市打出町６番４号", "url": "https://www.kaigokensaku.mhlw.go.jp/28/index.php?action_kouhyou_detail_004_kani=true&JigyosyoCd=2891000057-00&ServiceCd=730&Type=search", "url2": "https://www.nomane.jp/" }, "geometry": { "type": "Point", "coordinates": [ 135.321446700000024, 34.7326241 ] } },
{ "type": "Feature", "properties": { "内容": "芦屋アラベラの家　小規模多機能型居宅介護【小規模多機能型居宅介護】兵庫県芦屋市朝日ヶ丘町９－１", "url": "https://www.kaigokensaku.mhlw.go.jp/28/index.php?action_kouhyou_detail_004_kani=true&JigyosyoCd=2891000073-00&ServiceCd=730&Type=search", "url2": "http://www.arabella.jp/" }, "geometry": { "type": "Point", "coordinates": [ 135.30440950000002, 34.746448 ] } },
{ "type": "Feature", "properties": { "内容": "シニアライフコート潮芦屋　小規模多機能型居宅介護「きずな」【小規模多機能型居宅介護】芦屋市陽光町4-55", "url": "https://www.kaigokensaku.mhlw.go.jp/28/index.php?action_kouhyou_detail_004_kani=true&JigyosyoCd=2891000040-00&ServiceCd=730&Type=search", "url2": "http://medicare-planning.jp/seniorlifecourt/pc/index.php" }, "geometry": { "type": "Point", "coordinates": [ 135.3151669, 34.7137925 ] } },
{ "type": "Feature", "properties": { "内容": "hanare伊丹【小規模多機能型居宅介護】兵庫県伊丹市船原2-4-29", "url": "https://www.kaigokensaku.mhlw.go.jp/28/index.php?action_kouhyou_detail_004_kani=true&JigyosyoCd=2893300323-00&ServiceCd=730&Type=search", "url2": "http://www.arataka.co.jp/" }, "geometry": { "type": "Point", "coordinates": [ 135.410282400000028, 34.7824092 ] } },
{ "type": "Feature", "properties": { "内容": "ニチイケアセンターいたみ【小規模多機能型居宅介護】兵庫県伊丹市大野3丁目134番地", "url": "https://www.kaigokensaku.mhlw.go.jp/28/index.php?action_kouhyou_detail_004_kani=true&JigyosyoCd=2893300166-00&ServiceCd=730&Type=search", "url2": "www.nichiigakkan.co.jp" }, "geometry": { "type": "Point", "coordinates": [ 135.39772403585971, 34.805963299295676 ] } },
{ "type": "Feature", "properties": { "内容": "小規模多機能ホームそら森本【小規模多機能型居宅介護】兵庫県伊丹市森本8-66-1", "url": "https://www.kaigokensaku.mhlw.go.jp/28/index.php?action_kouhyou_detail_004_kani=true&JigyosyoCd=2893300182-00&ServiceCd=730&Type=search", "url2": "http://www.caremind.net/index.html" }, "geometry": { "type": "Point", "coordinates": [ 135.439573673957852, 34.777854412088864 ] } },
{ "type": "Feature", "properties": { "内容": "小規模多機能ホームそら荒牧【小規模多機能型居宅介護】兵庫県伊丹市荒牧4-4-2", "url": "https://www.kaigokensaku.mhlw.go.jp/28/index.php?action_kouhyou_detail_004_kani=true&JigyosyoCd=2893300547-00&ServiceCd=730&Type=search", "url2": "https://www.caremind.co.jp/multi/sh_soraaramaki1/" }, "geometry": { "type": "Point", "coordinates": [ 135.3816608, 34.8121827 ] } },
{ "type": "Feature", "properties": { "内容": "社会福祉法人ジェイエイ兵庫六甲福祉会　オアシス伊丹池尻小規模多機能型居宅介護事業所【小規模多機能型居宅介護】兵庫県伊丹市池尻6丁目186－1", "url": "https://www.kaigokensaku.mhlw.go.jp/28/index.php?action_kouhyou_detail_004_kani=true&JigyosyoCd=2893300216-00&ServiceCd=730&Type=search", "url2": "http://ja-oasis.com/" }, "geometry": { "type": "Point", "coordinates": [ 135.41596370000002, 34.4633407 ] } },
{ "type": "Feature", "properties": { "内容": "小規模多機能ホーム令寿【小規模多機能型居宅介護】兵庫県伊丹市瑞穂町1－21", "url": "https://www.kaigokensaku.mhlw.go.jp/28/index.php?action_kouhyou_detail_004_kani=true&JigyosyoCd=2893300463-00&ServiceCd=730&Type=search", "url2": "http://senjiu-rejiu.com" }, "geometry": { "type": "Point", "coordinates": [ 135.405743, 34.7903348 ] } },
{ "type": "Feature", "properties": { "内容": "小規模多機能型居宅あそか苑ももは【小規模多機能型居宅介護】荒牧７丁目2－26荒牧拠点特別養護老人ホーム・小規模多機能型居宅介護あそか苑ももは", "url": "https://www.kaigokensaku.mhlw.go.jp/28/index.php?action_kouhyou_detail_004_kani=true&JigyosyoCd=2893300133-00&ServiceCd=730&Type=search", "url2": "http://www.asokaen.or.jp/" }, "geometry": { "type": "Point", "coordinates": [ 135.38540080000007, 34.8129804 ] } },
{ "type": "Feature", "properties": { "内容": "小規模多機能型居宅介護あそか苑みずほ【小規模多機能型居宅介護】瑞穂町6丁目46", "url": "https://www.kaigokensaku.mhlw.go.jp/28/index.php?action_kouhyou_detail_004_kani=true&JigyosyoCd=2893300307-00&ServiceCd=730&Type=search", "url2": "http://www/asokaen.or.jp/" }, "geometry": { "type": "Point", "coordinates": [ 135.40261959999998, 34.7914572 ] } },
{ "type": "Feature", "properties": { "内容": "緑の郷【小規模多機能型居宅介護】兵庫県相生市若狭野町雨内802-4", "url": "https://www.kaigokensaku.mhlw.go.jp/28/index.php?action_kouhyou_detail_004_kani=true&JigyosyoCd=2894200043-00&ServiceCd=730&Type=search", "url2": null }, "geometry": { "type": "Point", "coordinates": [ 134.418588196650717, 34.826534198957006 ] } },
{ "type": "Feature", "properties": { "内容": "小規模多機能型居宅介護事業所　たんぽぽ【小規模多機能型居宅介護】相生市那波大浜町24-21", "url": "https://www.kaigokensaku.mhlw.go.jp/28/index.php?action_kouhyou_detail_004_kani=true&JigyosyoCd=2894200050-00&ServiceCd=730&Type=search", "url2": "http://www.1209.co.jp/" }, "geometry": { "type": "Point", "coordinates": [ 134.466502499999933, 34.8085167 ] } },
{ "type": "Feature", "properties": { "内容": "天馬の家【小規模多機能型居宅介護】兵庫県相生市旭一丁目5番10号", "url": "https://www.kaigokensaku.mhlw.go.jp/28/index.php?action_kouhyou_detail_004_kani=true&JigyosyoCd=2894200068-00&ServiceCd=730&Type=search", "url2": "ibo-sato@leto.eonet.ne.jp" }, "geometry": { "type": "Point", "coordinates": [ 134.4697079, 34.80422 ] } },
{ "type": "Feature", "properties": { "内容": "小規模多機能型居宅介護事業所「ふたば」【小規模多機能型居宅介護】双葉１丁目４番８号", "url": "https://www.kaigokensaku.mhlw.go.jp/28/index.php?action_kouhyou_detail_004_kani=true&JigyosyoCd=2894200019-00&ServiceCd=730&Type=search", "url2": "http://www.shakyo-aioi.jp/" }, "geometry": { "type": "Point", "coordinates": [ 134.480134762991383, 34.814247574798337 ] } },
{ "type": "Feature", "properties": { "内容": "小規模多機能但東愛の園【小規模多機能型居宅介護】但東町小谷338-1", "url": "https://www.kaigokensaku.mhlw.go.jp/28/index.php?action_kouhyou_detail_004_kani=true&JigyosyoCd=2894400296-00&ServiceCd=730&Type=search", "url2": "https://www.izushi-ainosono.com" }, "geometry": { "type": "Point", "coordinates": [ 134.9585869, 35.4633883 ] } },
{ "type": "Feature", "properties": { "内容": "小規模多機能型施設　京町小路【小規模多機能型居宅介護】兵庫県豊岡市京町５−２１", "url": "https://www.kaigokensaku.mhlw.go.jp/28/index.php?action_kouhyou_detail_004_kani=true&JigyosyoCd=2894400197-00&ServiceCd=730&Type=search", "url2": "http://goodlife-sp.com/" }, "geometry": { "type": "Point", "coordinates": [ 134.8221423, 35.5410702 ] } },
{ "type": "Feature", "properties": { "内容": "小規模多機能型居宅介護事業所　円【小規模多機能型居宅介護】兵庫県豊岡市出石町安良239-1シカバレー", "url": "https://www.kaigokensaku.mhlw.go.jp/28/index.php?action_kouhyou_detail_004_kani=true&JigyosyoCd=2894400163-00&ServiceCd=730&Type=search", "url2": "http://www.shikavaiiey.jp" }, "geometry": { "type": "Point", "coordinates": [ 134.852327270500155, 35.500413646973989 ] } },
{ "type": "Feature", "properties": { "内容": "豊岡市社会福祉協議会　地域福祉・生活支援拠点ぐるらん【小規模多機能型居宅介護】兵庫県豊岡市日高町岩中50-4", "url": "https://www.kaigokensaku.mhlw.go.jp/28/index.php?action_kouhyou_detail_004_kani=true&JigyosyoCd=2894400221-00&ServiceCd=730&Type=search", "url2": "http://www.toyooka-wel.jp" }, "geometry": { "type": "Point", "coordinates": [ 134.77079470000001, 35.4678297 ] } },
{ "type": "Feature", "properties": { "内容": "特定非営利活動法人銀ちゃんの家【小規模多機能型居宅介護】豊岡市泉町7-30", "url": "https://www.kaigokensaku.mhlw.go.jp/28/index.php?action_kouhyou_detail_004_kani=true&JigyosyoCd=2894400072-00&ServiceCd=730&Type=search", "url2": "http://www.ginchannoie.jp/" }, "geometry": { "type": "Point", "coordinates": [ 134.820448931768851, 35.545123229342963 ] } },
{ "type": "Feature", "properties": { "内容": "小規模多機能型居宅介護　銀ちゃんの家サテライト【小規模多機能型居宅介護】兵庫県豊岡市正法寺480番地の4", "url": "https://www.kaigokensaku.mhlw.go.jp/28/index.php?action_kouhyou_detail_004_kani=true&JigyosyoCd=2894400346-00&ServiceCd=730&Type=search", "url2": "https://ginchannoie.jp/" }, "geometry": { "type": "Point", "coordinates": [ 134.8150195, 35.5391148 ] } },
{ "type": "Feature", "properties": { "内容": "キャンディタフト加古川【小規模多機能型居宅介護】兵庫県加古川市上荘町井ノ口390-6", "url": "https://www.kaigokensaku.mhlw.go.jp/28/index.php?action_kouhyou_detail_004_kani=true&JigyosyoCd=2892200268-00&ServiceCd=730&Type=search", "url2": null }, "geometry": { "type": "Point", "coordinates": [ 134.911531599999989, 34.8021601 ] } },
{ "type": "Feature", "properties": { "内容": "小規模多機能型居宅介護事業所　しのべ【小規模多機能型居宅介護】別府町新野辺2527", "url": "https://www.kaigokensaku.mhlw.go.jp/28/index.php?action_kouhyou_detail_004_kani=true&JigyosyoCd=2892200516-00&ServiceCd=730&Type=search", "url2": "https://hinode.or.jp" }, "geometry": { "type": "Point", "coordinates": [ 134.839894700000059, 34.7294279 ] } },
{ "type": "Feature", "properties": { "内容": "ニッケふれあいセンター加古川【小規模多機能型居宅介護】兵庫県加古川市加古川町本町239-1", "url": "https://www.kaigokensaku.mhlw.go.jp/28/index.php?action_kouhyou_detail_004_kani=true&JigyosyoCd=2892200060-00&ServiceCd=730&Type=search", "url2": "http://www.nikke-care-service.co.jp/" }, "geometry": { "type": "Point", "coordinates": [ 134.82792265247042, 34.770289968767614 ] } },
{ "type": "Feature", "properties": { "内容": "小規模多機能型居宅介護　ゆとり庵西条【小規模多機能型居宅介護】兵庫県加古川市神野町西条1052-1", "url": "https://www.kaigokensaku.mhlw.go.jp/28/index.php?action_kouhyou_detail_004_kani=true&JigyosyoCd=2892200250-00&ServiceCd=730&Type=search", "url2": "http://www.hakuaif.or.jp/facilities/yutorian1.html#saizyo" }, "geometry": { "type": "Point", "coordinates": [ 134.882078699999965, 34.7871142 ] } },
{ "type": "Feature", "properties": { "内容": "小規模多機能型居宅介護事業所　じけまち【小規模多機能型居宅介護】加古川市加古川町寺家町57-1", "url": "https://www.kaigokensaku.mhlw.go.jp/28/index.php?action_kouhyou_detail_004_kani=true&JigyosyoCd=2892200391-00&ServiceCd=730&Type=search", "url2": "https://ftk1998.or.jp/" }, "geometry": { "type": "Point", "coordinates": [ 134.835349930688494, 34.765264675285906 ] } },
{ "type": "Feature", "properties": { "内容": "尾上の郷【小規模多機能型居宅介護】兵庫県加古川市尾上町池田８３０－１", "url": "https://www.kaigokensaku.mhlw.go.jp/28/index.php?action_kouhyou_detail_004_kani=true&JigyosyoCd=2892200086-00&ServiceCd=730&Type=search", "url2": "http//www.midorien.org" }, "geometry": { "type": "Point", "coordinates": [ 134.820918600000027, 34.7400295 ] } },
{ "type": "Feature", "properties": { "内容": "あっぷる多機能加古川【小規模多機能型居宅介護】尾上町養田160-1あっぷる多機能加古川", "url": "https://www.kaigokensaku.mhlw.go.jp/28/index.php?action_kouhyou_detail_004_kani=true&JigyosyoCd=2892200466-00&ServiceCd=730&Type=search", "url2": "http:/ｗｗｗ.apple-117.jp/" }, "geometry": { "type": "Point", "coordinates": [ 134.8174884, 34.7525533 ] } },
{ "type": "Feature", "properties": { "内容": "陽だまりの家【小規模多機能型居宅介護】加古川市平岡町423-17", "url": "https://www.kaigokensaku.mhlw.go.jp/28/index.php?action_kouhyou_detail_004_kani=true&JigyosyoCd=2892200185-00&ServiceCd=730&Type=search", "url2": "http://www.hidamarinoie.org" }, "geometry": { "type": "Point", "coordinates": [ 134.8969449, 34.7289705 ] } },
{ "type": "Feature", "properties": { "内容": "小規模多機能型居宅介護事業所　　松ぼっくり【小規模多機能型居宅介護】兵庫県加古川市平岡町一色85-1", "url": "https://www.kaigokensaku.mhlw.go.jp/28/index.php?action_kouhyou_detail_004_kani=true&JigyosyoCd=2892200318-00&ServiceCd=730&Type=search", "url2": "http://shofukai.jp/" }, "geometry": { "type": "Point", "coordinates": [ 134.853004599999963, 34.7341552 ] } },
{ "type": "Feature", "properties": { "内容": "小規模多機能まんてん加古川【小規模多機能型居宅介護】西神吉町大国116-1", "url": "https://www.kaigokensaku.mhlw.go.jp/28/index.php?action_kouhyou_detail_004_kani=true&JigyosyoCd=2892200219-00&ServiceCd=730&Type=search", "url2": "http://www.manten.org/02_sankeikai/" }, "geometry": { "type": "Point", "coordinates": [ 134.816476700000067, 34.7906387 ] } },
{ "type": "Feature", "properties": { "内容": "小規模多機能型居宅介護　ゆとり庵　西神吉【小規模多機能型居宅介護】西神吉町鼎１３０－６", "url": "https://www.kaigokensaku.mhlw.go.jp/28/index.php?action_kouhyou_detail_004_kani=true&JigyosyoCd=2892200409-00&ServiceCd=730&Type=search", "url2": "http://www.hinode.or.jp/" }, "geometry": { "type": "Point", "coordinates": [ 134.818703899999946, 34.8057457 ] } },
{ "type": "Feature", "properties": { "内容": "小規模多機能型居宅介護　ゆとり庵尾上【小規模多機能型居宅介護】尾上町長田254-1", "url": "https://www.kaigokensaku.mhlw.go.jp/28/index.php?action_kouhyou_detail_004_kani=true&JigyosyoCd=2892200292-00&ServiceCd=730&Type=search", "url2": "https://hinode.or.jp/yutorian-onoe/" }, "geometry": { "type": "Point", "coordinates": [ 134.827940099999978, 34.7479741 ] } },
{ "type": "Feature", "properties": { "内容": "せいりょう園小規模多機能型居宅介護【小規模多機能型居宅介護】兵庫県加古川市野口町長砂95-36", "url": "https://www.kaigokensaku.mhlw.go.jp/28/index.php?action_kouhyou_detail_004_kani=true&JigyosyoCd=2892200797-00&ServiceCd=730&Type=search", "url2": "http://seiryoen.or.jp" }, "geometry": { "type": "Point", "coordinates": [ 134.848448100000013, 34.7497501 ] } },
{ "type": "Feature", "properties": { "内容": "WITH(ウイズ）【小規模多機能型居宅介護】兵庫県加古川市加古川町大野８６３－１ウイズ", "url": "https://www.kaigokensaku.mhlw.go.jp/28/index.php?action_kouhyou_detail_004_kani=true&JigyosyoCd=2892200276-00&ServiceCd=730&Type=search", "url2": "https://www.instagram.com/withwithjesus/活動内容はInstagramをご覧ください" }, "geometry": { "type": "Point", "coordinates": [ 134.859771982776124, 34.773253889814129 ] } },
{ "type": "Feature", "properties": { "内容": "小規模多機能型居宅介護　塩屋の家【小規模多機能型居宅介護】兵庫県赤穂市片浜町２３２－２", "url": "https://www.kaigokensaku.mhlw.go.jp/28/index.php?action_kouhyou_detail_004_kani=true&JigyosyoCd=2894300017-00&ServiceCd=730&Type=search", "url2": null }, "geometry": { "type": "Point", "coordinates": [ 134.374640900000031, 34.7549754 ] } },
{ "type": "Feature", "properties": { "内容": "小規模多機能ホームゆうゆう【小規模多機能型居宅介護】兵庫県西脇市西脇518-2", "url": "https://www.kaigokensaku.mhlw.go.jp/28/index.php?action_kouhyou_detail_004_kani=true&JigyosyoCd=2891800068-00&ServiceCd=730&Type=search", "url2": "http://www.seihoukai.com" }, "geometry": { "type": "Point", "coordinates": [ 134.975560399999949, 34.9870365 ] } },
{ "type": "Feature", "properties": { "内容": "小規模多機能型居宅介護施設宝塚清光苑【小規模多機能型居宅介護】兵庫県宝塚市仁川団地14-5", "url": "https://www.kaigokensaku.mhlw.go.jp/28/index.php?action_kouhyou_detail_004_kani=true&JigyosyoCd=2891100147-00&ServiceCd=730&Type=search", "url2": "http://well-seikokai.jp/" }, "geometry": { "type": "Point", "coordinates": [ 135.350619039950544, 34.781769909297886 ] } },
{ "type": "Feature", "properties": { "内容": "パナソニックエイジフリーケアセンター宝塚中山【小規模多機能型居宅介護】兵庫県宝塚市今里町１３８", "url": "https://www.kaigokensaku.mhlw.go.jp/28/index.php?action_kouhyou_detail_004_kani=true&JigyosyoCd=2891100220-00&ServiceCd=730&Type=search", "url2": "https://sumai.panasonic.jp/agefree/" }, "geometry": { "type": "Point", "coordinates": [ 135.3693948, 34.8161407 ] } },
{ "type": "Feature", "properties": { "内容": "hanare宝塚【小規模多機能型居宅介護】兵庫県宝塚市福井町32-33", "url": "https://www.kaigokensaku.mhlw.go.jp/28/index.php?action_kouhyou_detail_004_kani=true&JigyosyoCd=2891100337-00&ServiceCd=730&Type=search", "url2": "http://www.arataka.co.jp/" }, "geometry": { "type": "Point", "coordinates": [ 135.3589859, 34.7919727 ] } },
{ "type": "Feature", "properties": { "内容": "小規模多機能型居宅介護　こもれび【小規模多機能型居宅介護】山本西２丁目６番１１号あいわ結愛ｶﾞｰﾃﾞﾝ", "url": "https://www.kaigokensaku.mhlw.go.jp/28/index.php?action_kouhyou_detail_004_kani=true&JigyosyoCd=2891100212-00&ServiceCd=730&Type=search", "url2": "https://swc-aiwakai.jp/service/" }, "geometry": { "type": "Point", "coordinates": [ 135.381036399999971, 34.8194132 ] } },
{ "type": "Feature", "properties": { "内容": "小規模多機能型居宅介護「せせらぎ」【小規模多機能型居宅介護】宝塚市川面３丁目２４番９号", "url": "https://www.kaigokensaku.mhlw.go.jp/28/index.php?action_kouhyou_detail_004_kani=true&JigyosyoCd=2891100014-00&ServiceCd=730&Type=search", "url2": "http://www.soreiyu.net" }, "geometry": { "type": "Point", "coordinates": [ 135.343293200000062, 34.811188 ] } },
{ "type": "Feature", "properties": { "内容": "ｵｱｼｽ宝塚　小規模多機能型居宅介護事業所【小規模多機能型居宅介護】小浜3丁目１２－２３JA兵庫六甲ふれあい会館2階", "url": "https://www.kaigokensaku.mhlw.go.jp/28/index.php?action_kouhyou_detail_004_kani=true&JigyosyoCd=2891100097-00&ServiceCd=730&Type=search", "url2": "oasis.takaraduka.s@ja-oasis.or.jp" }, "geometry": { "type": "Point", "coordinates": [ 135.362133699999958, 34.8048196 ] } },
{ "type": "Feature", "properties": { "内容": "小規模多機能ホーム中山ちどり【小規模多機能型居宅介護】宝塚市中山桜台1丁目7番1号", "url": "https://www.kaigokensaku.mhlw.go.jp/28/index.php?action_kouhyou_detail_004_kani=true&JigyosyoCd=2891100105-00&ServiceCd=730&Type=search", "url2": "http://www.chidori.or.jp" }, "geometry": { "type": "Point", "coordinates": [ 135.3680213, 34.8307 ] } },
{ "type": "Feature", "properties": { "内容": "小規模多機能型居宅介護施設　みずき【小規模多機能型居宅介護】兵庫県三木市加佐58番地の1", "url": "https://www.kaigokensaku.mhlw.go.jp/28/index.php?action_kouhyou_detail_004_kani=true&JigyosyoCd=2892300100-00&ServiceCd=730&Type=search", "url2": "mizuki-nh.com" }, "geometry": { "type": "Point", "coordinates": [ 134.9838307, 34.8029866 ] } },
{ "type": "Feature", "properties": { "内容": "小規模多機能ホームいぶき【小規模多機能型居宅介護】兵庫県三木市緑が丘町中１丁目６－１６", "url": "https://www.kaigokensaku.mhlw.go.jp/28/index.php?action_kouhyou_detail_004_kani=true&JigyosyoCd=2892300027-00&ServiceCd=730&Type=search", "url2": "www.poly-lifecare.com" }, "geometry": { "type": "Point", "coordinates": [ 135.029825699999947, 34.7700419 ] } },
{ "type": "Feature", "properties": { "内容": "コミュニティウインドウさざんか【小規模多機能型居宅介護】吉川町大沢418番地", "url": "https://www.kaigokensaku.mhlw.go.jp/28/index.php?action_kouhyou_detail_004_kani=true&JigyosyoCd=2892300068-00&ServiceCd=730&Type=search", "url2": "yokawa@sazankanosato.com" }, "geometry": { "type": "Point", "coordinates": [ 135.121250599999939, 34.8835051 ] } },
{ "type": "Feature", "properties": { "内容": "小規模多機能ホームゆとり【小規模多機能型居宅介護】兵庫県高砂市荒井町東本町7-21パストラルゆとり", "url": "https://www.kaigokensaku.mhlw.go.jp/28/index.php?action_kouhyou_detail_004_kani=true&JigyosyoCd=2892100013-00&ServiceCd=730&Type=search", "url2": "http://yuuyuukai.com/yutori/index.html" }, "geometry": { "type": "Point", "coordinates": [ 134.795935500000041, 34.7626267 ] } },
{ "type": "Feature", "properties": { "内容": "小規模多機能ホーム　心まち【小規模多機能型居宅介護】兵庫県高砂市米田町島227-1パストラル心まち", "url": "https://www.kaigokensaku.mhlw.go.jp/28/index.php?action_kouhyou_detail_004_kani=true&JigyosyoCd=2892100070-00&ServiceCd=730&Type=search", "url2": "http://yuuyuukai.com/yutori/index.html" }, "geometry": { "type": "Point", "coordinates": [ 134.805125434393261, 34.782074321386808 ] } },
{ "type": "Feature", "properties": { "内容": "オアシス大和　小規模多機能型居宅介護事業所【小規模多機能型居宅介護】川西市大和西4丁目2番8号", "url": "https://www.kaigokensaku.mhlw.go.jp/28/index.php?action_kouhyou_detail_004_kani=true&JigyosyoCd=2893100012-00&ServiceCd=730&Type=search", "url2": "http://ja-oasis.com/" }, "geometry": { "type": "Point", "coordinates": [ 135.420251600000029, 34.8907679 ] } },
{ "type": "Feature", "properties": { "内容": "まんてん堂小規模多機能型ホームかわにし緑台【小規模多機能型居宅介護】兵庫県川西市緑台７丁目３番４３号", "url": "https://www.kaigokensaku.mhlw.go.jp/28/index.php?action_kouhyou_detail_004_kani=true&JigyosyoCd=2893100079-00&ServiceCd=730&Type=search", "url2": "http://www.manten.org/service/facility04.html" }, "geometry": { "type": "Point", "coordinates": [ 135.400209600000039, 34.8651557 ] } },
{ "type": "Feature", "properties": { "内容": "小規模多機能型居宅介護　川西小花の生活【小規模多機能型居宅介護】兵庫県川西市小花2丁目2-2複合介護施設　川西小花の生活", "url": "https://www.kaigokensaku.mhlw.go.jp/28/index.php?action_kouhyou_detail_004_kani=true&JigyosyoCd=2893100160-00&ServiceCd=730&Type=search", "url2": "http://nozomi-care.jp/obana/" }, "geometry": { "type": "Point", "coordinates": [ 135.419727122796274, 34.82657481864041 ] } },
{ "type": "Feature", "properties": { "内容": "小規模多機能型居宅介護　錦麓荘【小規模多機能型居宅介護】西多田1-2-5", "url": "https://www.kaigokensaku.mhlw.go.jp/28/index.php?action_kouhyou_detail_004_kani=true&JigyosyoCd=2893100186-00&ServiceCd=730&Type=search", "url2": "https://job-gear.net/totokan/" }, "geometry": { "type": "Point", "coordinates": [ 135.3994702, 34.8562485 ] } },
{ "type": "Feature", "properties": { "内容": "もみの木栄根【小規模多機能型居宅介護】川西市栄根2丁目２４－７", "url": "https://www.kaigokensaku.mhlw.go.jp/28/index.php?action_kouhyou_detail_004_kani=true&JigyosyoCd=2893100020-00&ServiceCd=730&Type=search", "url2": null }, "geometry": { "type": "Point", "coordinates": [ 135.410467700000027, 34.821602 ] } },
{ "type": "Feature", "properties": { "内容": "ルミネ川西【小規模多機能型居宅介護】川西市平野３丁目１５－１５", "url": "https://www.kaigokensaku.mhlw.go.jp/28/index.php?action_kouhyou_detail_004_kani=true&JigyosyoCd=2893100038-00&ServiceCd=730&Type=search", "url2": "luminekawanishi@nfsk.jp" }, "geometry": { "type": "Point", "coordinates": [ 135.416938100000039, 34.8707718 ] } },
{ "type": "Feature", "properties": { "内容": "小規模多機能型居宅介護ゆとり庵鹿野【小規模多機能型居宅介護】兵庫県小野市鹿野町字中ノ沢2471-3", "url": "https://www.kaigokensaku.mhlw.go.jp/28/index.php?action_kouhyou_detail_004_kani=true&JigyosyoCd=2891900157-00&ServiceCd=730&Type=search", "url2": "https://hinode.or.jp/establishment/yutorian-kano/" }, "geometry": { "type": "Point", "coordinates": [ 134.938760699999989, 34.869551 ] } },
{ "type": "Feature", "properties": { "内容": "さわらびの郷【小規模多機能型居宅介護】西本町５７２", "url": "https://www.kaigokensaku.mhlw.go.jp/28/index.php?action_kouhyou_detail_004_kani=true&JigyosyoCd=2891900025-00&ServiceCd=730&Type=search", "url2": "http://www.sikinosato.jp/" }, "geometry": { "type": "Point", "coordinates": [ 134.930318, 34.8463382 ] } },
{ "type": "Feature", "properties": { "内容": "小規模多機能型居宅介護事業所ふなき【小規模多機能型居宅介護】小野市船木町字前田7-3", "url": "https://www.kaigokensaku.mhlw.go.jp/28/index.php?action_kouhyou_detail_004_kani=true&JigyosyoCd=2891900017-00&ServiceCd=730&Type=search", "url2": "http://hinode.or.jp" }, "geometry": { "type": "Point", "coordinates": [ 134.985659723803678, 34.882295093571543 ] } },
{ "type": "Feature", "properties": { "内容": "小規模多機能まんてんおの南【小規模多機能型居宅介護】小野市市場町1080-1", "url": "https://www.kaigokensaku.mhlw.go.jp/28/index.php?action_kouhyou_detail_004_kani=true&JigyosyoCd=2891900132-00&ServiceCd=730&Type=search", "url2": "http://www.sankei-kai.jp" }, "geometry": { "type": "Point", "coordinates": [ 134.9425176, 34.8323433 ] } },
{ "type": "Feature", "properties": { "内容": "小規模多機能型居宅介護事業所　三田【小規模多機能型居宅介護】兵庫県三田市南ヶ丘1丁目51番5号", "url": "https://www.kaigokensaku.mhlw.go.jp/28/index.php?action_kouhyou_detail_004_kani=true&JigyosyoCd=2891200012-00&ServiceCd=730&Type=search", "url2": "http://www.kiyoukai.com/sanda/index.htm" }, "geometry": { "type": "Point", "coordinates": [ 135.218851200000017, 34.881655 ] } },
{ "type": "Feature", "properties": { "内容": "小規模多機能居宅介護事業所　けやきの郷【小規模多機能型居宅介護】兵庫県三田市けやき台３丁目７５番３号", "url": "https://www.kaigokensaku.mhlw.go.jp/28/index.php?action_kouhyou_detail_004_kani=true&JigyosyoCd=2891200020-00&ServiceCd=730&Type=search", "url2": "https://kiyoukai.com/" }, "geometry": { "type": "Point", "coordinates": [ 135.191628400000013, 34.9123476 ] } },
{ "type": "Feature", "properties": { "内容": "第二多機能ホーム銀の鈴【小規模多機能型居宅介護】兵庫県加西市畑町46-1", "url": "https://www.kaigokensaku.mhlw.go.jp/28/index.php?action_kouhyou_detail_004_kani=true&JigyosyoCd=2892600111-00&ServiceCd=730&Type=search", "url2": "https://www.ginnosuzu-kasai.com/" }, "geometry": { "type": "Point", "coordinates": [ 134.81056430000001, 34.9478618 ] } },
{ "type": "Feature", "properties": { "内容": "小規模多機能型居宅介護事業所　どっこいしょ【小規模多機能型居宅介護】加西市若井町1001－1", "url": "https://www.kaigokensaku.mhlw.go.jp/28/index.php?action_kouhyou_detail_004_kani=true&JigyosyoCd=2892600020-00&ServiceCd=730&Type=search", "url2": "http://yutaka-wel.com/" }, "geometry": { "type": "Point", "coordinates": [ 134.8269163, 34.9645795 ] } },
{ "type": "Feature", "properties": { "内容": "小規模多機能施設なの花かさい【小規模多機能型居宅介護】兵庫県加西市鎮岩町482-1", "url": "https://www.kaigokensaku.mhlw.go.jp/28/index.php?action_kouhyou_detail_004_kani=true&JigyosyoCd=2892600038-00&ServiceCd=730&Type=search", "url2": "https://nanohana-wellbee.co.jp" }, "geometry": { "type": "Point", "coordinates": [ 134.833884, 34.9067664 ] } },
{ "type": "Feature", "properties": { "内容": "小規模多機能施設なの花　たかむろ【小規模多機能型居宅介護】北条町東高室933-1", "url": "https://www.kaigokensaku.mhlw.go.jp/28/index.php?action_kouhyou_detail_004_kani=true&JigyosyoCd=2892600053-00&ServiceCd=730&Type=search", "url2": "https://nanohana-wellbee.co.jp" }, "geometry": { "type": "Point", "coordinates": [ 134.83914720000007, 34.91964 ] } },
{ "type": "Feature", "properties": { "内容": "小規模多機能ホームすみよし【小規模多機能型居宅介護】兵庫県丹波篠山市住吉台105", "url": "https://www.kaigokensaku.mhlw.go.jp/28/index.php?action_kouhyou_detail_004_kani=true&JigyosyoCd=2891400141-00&ServiceCd=730&Type=search", "url2": "http:www.yutori.or.jp" }, "geometry": { "type": "Point", "coordinates": [ 135.16510512880555, 35.066466030448403 ] } },
{ "type": "Feature", "properties": { "内容": "小規模多機能型居宅介護　百寿の郷【小規模多機能型居宅介護】丹波篠山市井ノ上167-1", "url": "https://www.kaigokensaku.mhlw.go.jp/28/index.php?action_kouhyou_detail_004_kani=true&JigyosyoCd=2891400034-00&ServiceCd=730&Type=search", "url2": "http://www.kiyoukai.com" }, "geometry": { "type": "Point", "coordinates": [ 135.294837410450782, 35.073301225926102 ] } },
{ "type": "Feature", "properties": { "内容": "小規模多機能型居宅介護　和楽の郷【小規模多機能型居宅介護】兵庫県丹波篠山市本郷108-2", "url": "https://www.kaigokensaku.mhlw.go.jp/28/index.php?action_kouhyou_detail_004_kani=true&JigyosyoCd=2891400042-00&ServiceCd=730&Type=search", "url2": "http://kiyoukai.com" }, "geometry": { "type": "Point", "coordinates": [ 135.262714599999981, 35.1585003 ] } },
{ "type": "Feature", "properties": { "内容": "小規模多機能型居宅介護センターやすらぎ古市館【小規模多機能型居宅介護】兵庫県丹波篠山市波賀野新田139番地5古市サービスステーション", "url": "https://www.kaigokensaku.mhlw.go.jp/28/index.php?action_kouhyou_detail_004_kani=true&JigyosyoCd=2891400174-00&ServiceCd=730&Type=search", "url2": "https://sasayama-yasuragien.com" }, "geometry": { "type": "Point", "coordinates": [ 135.157039313422388, 35.022107665470784 ] } },
{ "type": "Feature", "properties": { "内容": "小規模多機能ホーム　のぞみ【小規模多機能型居宅介護】兵庫県篠山市乾新町６３番地1", "url": "https://www.kaigokensaku.mhlw.go.jp/28/index.php?action_kouhyou_detail_004_kani=true&JigyosyoCd=2891400059-00&ServiceCd=730&Type=search", "url2": "http://www.yutori.or.jp" }, "geometry": { "type": "Point", "coordinates": [ 135.210443199999986, 35.0763745 ] } },
{ "type": "Feature", "properties": { "内容": "小規模多機能型居宅介護Bene【小規模多機能型居宅介護】兵庫県養父市浅野276-2", "url": "https://www.kaigokensaku.mhlw.go.jp/28/index.php?action_kouhyou_detail_004_kani=true&JigyosyoCd=2894800065-00&ServiceCd=730&Type=search", "url2": "www.yabulife.co.jp" }, "geometry": { "type": "Point", "coordinates": [ 134.755425325131228, 35.361192740590781 ] } },
{ "type": "Feature", "properties": { "内容": "小規模多機能型居宅介護はちぶせの里ようか【小規模多機能型居宅介護】兵庫県養父市八鹿町九鹿１３８番地", "url": "https://www.kaigokensaku.mhlw.go.jp/28/index.php?action_kouhyou_detail_004_kani=true&JigyosyoCd=2894800057-00&ServiceCd=730&Type=search", "url2": "https://hachibusenosato.jimdo.com/" }, "geometry": { "type": "Point", "coordinates": [ 134.76255470000001, 35.404354200000022 ] } },
{ "type": "Feature", "properties": { "内容": "小規模多機能型居宅介護　さきやま苑【小規模多機能型居宅介護】兵庫県丹波市市島町上竹田98番地の3", "url": "https://www.kaigokensaku.mhlw.go.jp/28/index.php?action_kouhyou_detail_004_kani=true&JigyosyoCd=2891300077-00&ServiceCd=730&Type=search", "url2": "http://www.kaigo-sakiyamaen.jp/feature" }, "geometry": { "type": "Point", "coordinates": [ 135.1127242, 35.226307 ] } },
{ "type": "Feature", "properties": { "内容": "小規模多機能型居宅介護　山南古代の里【小規模多機能型居宅介護】兵庫県丹波市山南町下滝200番地1号室、2号室、3号室、寿室、5号室、6号室、7号室、8号室、9号室", "url": "https://www.kaigokensaku.mhlw.go.jp/28/index.php?action_kouhyou_detail_004_kani=true&JigyosyoCd=2891300085-00&ServiceCd=730&Type=search", "url2": null }, "geometry": { "type": "Point", "coordinates": [ 135.090879500000028, 35.0889903 ] } },
{ "type": "Feature", "properties": { "内容": "小規模多機能型居宅介護事業所　柏原の郷【小規模多機能型居宅介護】兵庫県丹波市柏原町柏原2634番地", "url": "https://www.kaigokensaku.mhlw.go.jp/28/index.php?action_kouhyou_detail_004_kani=true&JigyosyoCd=2891300119-00&ServiceCd=730&Type=search", "url2": "http://www.kiyoukai.com" }, "geometry": { "type": "Point", "coordinates": [ 135.064136881773123, 35.139236046229726 ] } },
{ "type": "Feature", "properties": { "内容": "はっぴいはうす小規模多機能事業所【小規模多機能型居宅介護】兵庫県丹波市青垣町沢野96番地の３", "url": "https://www.kaigokensaku.mhlw.go.jp/28/index.php?action_kouhyou_detail_004_kani=true&JigyosyoCd=2891300051-00&ServiceCd=730&Type=search", "url2": "http://happyhouse-tanba.jp/" }, "geometry": { "type": "Point", "coordinates": [ 135.0082271, 35.248724399999979 ] } },
{ "type": "Feature", "properties": { "内容": "小規模多機能てくてく大路の杜【小規模多機能型居宅介護】兵庫県丹波市春日町中山1003", "url": "https://www.kaigokensaku.mhlw.go.jp/28/index.php?action_kouhyou_detail_004_kani=true&JigyosyoCd=2891300093-00&ServiceCd=730&Type=search", "url2": "http://www.tekuteku003.com" }, "geometry": { "type": "Point", "coordinates": [ 135.163359619573953, 35.144766244090405 ] } },
{ "type": "Feature", "properties": { "内容": "あっとホームくにうみ【小規模多機能型居宅介護】兵庫県南あわじ市八木寺内1123-1", "url": "https://www.kaigokensaku.mhlw.go.jp/28/index.php?action_kouhyou_detail_004_kani=true&JigyosyoCd=2891700029-00&ServiceCd=730&Type=search", "url2": "https://yagi-hp.com" }, "geometry": { "type": "Point", "coordinates": [ 134.7869519, 34.2899397 ] } },
{ "type": "Feature", "properties": { "内容": "みどりの家【小規模多機能型居宅介護】兵庫県南あわじ市広田広田424-1", "url": "https://www.kaigokensaku.mhlw.go.jp/28/index.php?action_kouhyou_detail_004_kani=true&JigyosyoCd=2891700045-00&ServiceCd=730&Type=search", "url2": "https://ryokufuukan.sakura.ne.jp/aeaaee/" }, "geometry": { "type": "Point", "coordinates": [ 134.8337467, 34.3233131 ] } },
{ "type": "Feature", "properties": { "内容": "小規模多機能施設　風らん【小規模多機能型居宅介護】兵庫県南あわじ市賀集八幡字中山541風らん", "url": "https://www.kaigokensaku.mhlw.go.jp/28/index.php?action_kouhyou_detail_004_kani=true&JigyosyoCd=2891700011-00&ServiceCd=730&Type=search", "url2": "https://awajishima-fukushikai.or.jp/" }, "geometry": { "type": "Point", "coordinates": [ 134.7369708, 34.268517 ] } },
{ "type": "Feature", "properties": { "内容": "小規模多機能型居宅介護たまき喜楽苑【小規模多機能型居宅介護】兵庫県朝来市和田山町玉置２５３", "url": "https://www.kaigokensaku.mhlw.go.jp/28/index.php?action_kouhyou_detail_004_kani=true&JigyosyoCd=2894900030-00&ServiceCd=730&Type=search", "url2": "http://www.kirakuen.or.jp" }, "geometry": { "type": "Point", "coordinates": [ 134.863074399999959, 35.3379798 ] } },
{ "type": "Feature", "properties": { "内容": "ステーションRONDO【小規模多機能型居宅介護】兵庫県朝来市和田山町安井820-10", "url": "https://www.kaigokensaku.mhlw.go.jp/28/index.php?action_kouhyou_detail_004_kani=true&JigyosyoCd=2894900014-00&ServiceCd=730&Type=search", "url2": "http://himawari-mission.com/" }, "geometry": { "type": "Point", "coordinates": [ 134.835485899999981, 35.3077187 ] } },
{ "type": "Feature", "properties": { "内容": "小規模多機能施設ひばり【小規模多機能型居宅介護】兵庫県朝来市山東町溝黒字網場田123番地2", "url": "https://www.kaigokensaku.mhlw.go.jp/28/index.php?action_kouhyou_detail_004_kani=true&JigyosyoCd=2894900113-00&ServiceCd=730&Type=search", "url2": null }, "geometry": { "type": "Point", "coordinates": [ 134.853150100000022, 35.3396654 ] } },
{ "type": "Feature", "properties": { "内容": "宅老所　えんや【小規模多機能型居宅介護】兵庫県朝来市立野164番地12", "url": "https://www.kaigokensaku.mhlw.go.jp/28/index.php?action_kouhyou_detail_004_kani=true&JigyosyoCd=2894900048-00&ServiceCd=730&Type=search", "url2": null }, "geometry": { "type": "Point", "coordinates": [ 134.795535100000052, 35.2331377 ] } },
{ "type": "Feature", "properties": { "内容": "小規模多機能型居宅介護事業所ほほえみ【小規模多機能型居宅介護】久留麻28番地41", "url": "https://www.kaigokensaku.mhlw.go.jp/28/index.php?action_kouhyou_detail_004_kani=true&JigyosyoCd=2891600120-00&ServiceCd=730&Type=search", "url2": "http://www.chidorikai.or.jp" }, "geometry": { "type": "Point", "coordinates": [ 134.992578500000036, 34.5337726 ] } },
{ "type": "Feature", "properties": { "内容": "小規模多機能型居宅介護事業所ぬくもり【小規模多機能型居宅介護】志筑818番地1", "url": "https://www.kaigokensaku.mhlw.go.jp/28/index.php?action_kouhyou_detail_004_kani=true&JigyosyoCd=2891600047-00&ServiceCd=730&Type=search", "url2": "www.chidorikai.com" }, "geometry": { "type": "Point", "coordinates": [ 134.892941900000011, 34.4410806 ] } },
{ "type": "Feature", "properties": { "内容": "小規模多機能ホームこみなみうれし野【小規模多機能型居宅介護】兵庫県加東市山国５７４", "url": "https://www.kaigokensaku.mhlw.go.jp/28/index.php?action_kouhyou_detail_004_kani=true&JigyosyoCd=2892500063-00&ServiceCd=730&Type=search", "url2": "http://www.kominami.co.jp" }, "geometry": { "type": "Point", "coordinates": [ 134.983755692255244, 34.908934202739275 ] } },
{ "type": "Feature", "properties": { "内容": "在宅支援小規模多機能　マイハウスみのり【小規模多機能型居宅介護】兵庫県加東市河高2538-1", "url": "https://www.kaigokensaku.mhlw.go.jp/28/index.php?action_kouhyou_detail_004_kani=true&JigyosyoCd=2892500089-00&ServiceCd=730&Type=search", "url2": "https://www.ja-minori.jp" }, "geometry": { "type": "Point", "coordinates": [ 134.934132399999953, 34.9194198 ] } },
{ "type": "Feature", "properties": { "内容": "小規模多機能型居宅介護事業所しんじょ【小規模多機能型居宅介護】兵庫県加東市新定559-1", "url": "https://www.kaigokensaku.mhlw.go.jp/28/index.php?action_kouhyou_detail_004_kani=true&JigyosyoCd=2892500048-00&ServiceCd=730&Type=search", "url2": "https://hinode.or.jp/establishment/toginosato/toginosato_shinjo/" }, "geometry": { "type": "Point", "coordinates": [ 135.046660100000054, 34.8921926 ] } },
{ "type": "Feature", "properties": { "内容": "鮎水【小規模多機能型居宅介護】たつの市揖保川町市場字前田２０３", "url": "https://www.kaigokensaku.mhlw.go.jp/28/index.php?action_kouhyou_detail_004_kani=true&JigyosyoCd=2893600086-00&ServiceCd=730&Type=search", "url2": "http://www.kuwanomien.jp/" }, "geometry": { "type": "Point", "coordinates": [ 134.546490899999981, 34.8104604 ] } },
{ "type": "Feature", "properties": { "内容": "小規模多機能型居宅介護事業所　こやすの家【小規模多機能型居宅介護】兵庫県たつの市新宮町篠首３４２－３", "url": "https://www.kaigokensaku.mhlw.go.jp/28/index.php?action_kouhyou_detail_004_kani=true&JigyosyoCd=2893600052-00&ServiceCd=730&Type=search", "url2": "http://www.kurisunosou.or.jp/" }, "geometry": { "type": "Point", "coordinates": [ 134.533683600000018, 34.9470297 ] } },
{ "type": "Feature", "properties": { "内容": "小たつの家【小規模多機能型居宅介護】たつの市揖保川町半田字辻姫１３０３", "url": "https://www.kaigokensaku.mhlw.go.jp/28/index.php?action_kouhyou_detail_004_kani=true&JigyosyoCd=2893600029-00&ServiceCd=730&Type=search", "url2": "http://www.kuwanomien.jp/" }, "geometry": { "type": "Point", "coordinates": [ 134.537777399999982, 34.8506051 ] } },
{ "type": "Feature", "properties": { "内容": "サテライト型小規模多機能型居宅介護事業所　ひだま里Ⅱ【小規模多機能型居宅介護】兵庫県たつの市神岡町東觜崎552-1", "url": "https://www.kaigokensaku.mhlw.go.jp/28/index.php?action_kouhyou_detail_004_kani=true&JigyosyoCd=2893600185-00&ServiceCd=730&Type=search", "url2": "http://www.kuwanomien.jp" }, "geometry": { "type": "Point", "coordinates": [ 134.555708, 34.8814598 ] } },
{ "type": "Feature", "properties": { "内容": "小規模多機能型居宅介護事業所　霞風庵【小規模多機能型居宅介護】兵庫県たつの市龍野町日山662", "url": "https://www.kaigokensaku.mhlw.go.jp/28/index.php?action_kouhyou_detail_004_kani=true&JigyosyoCd=2893600037-00&ServiceCd=730&Type=search", "url2": "https://enshoukai.com/facility/kafuuan/" }, "geometry": { "type": "Point", "coordinates": [ 134.536449599999969, 34.8622647 ] } },
{ "type": "Feature", "properties": { "内容": "あっぷる多機能みつ【小規模多機能型居宅介護】兵庫県たつの市御津町釜屋３１３－１", "url": "https://www.kaigokensaku.mhlw.go.jp/28/index.php?action_kouhyou_detail_004_kani=true&JigyosyoCd=2893600060-00&ServiceCd=730&Type=search", "url2": "http://www.apple-117.jp/" }, "geometry": { "type": "Point", "coordinates": [ 134.556186300000036, 34.7811969 ] } },
{ "type": "Feature", "properties": { "内容": "小規模ホーム正條【小規模多機能型居宅介護】兵庫県たつの市揖保川町正條306-4", "url": "https://www.kaigokensaku.mhlw.go.jp/28/index.php?action_kouhyou_detail_004_kani=true&JigyosyoCd=2893600227-00&ServiceCd=730&Type=search", "url2": "https://pluss-alpha-group.com/" }, "geometry": { "type": "Point", "coordinates": [ 134.528298, 34.833040500000024 ] } },
{ "type": "Feature", "properties": { "内容": "オアシス猪名川　小規模多機能型居宅介護事業所【小規模多機能型居宅介護】上野字北畑43", "url": "https://www.kaigokensaku.mhlw.go.jp/28/index.php?action_kouhyou_detail_004_kani=true&JigyosyoCd=2893200010-00&ServiceCd=730&Type=search", "url2": "https://ja-oasis.com" }, "geometry": { "type": "Point", "coordinates": [ 135.376270299999987, 34.8961202 ] } },
{ "type": "Feature", "properties": { "内容": "小規模多機能ﾎ-ﾑ　こはるの郷【小規模多機能型居宅介護】加美区大袋１９４－１", "url": "https://www.kaigokensaku.mhlw.go.jp/28/index.php?action_kouhyou_detail_004_kani=true&JigyosyoCd=2892700051-00&ServiceCd=730&Type=search", "url2": "http://nakanosato.okoshi-yasu.com/" }, "geometry": { "type": "Point", "coordinates": [ 134.923892199999955, 35.1360372 ] } },
{ "type": "Feature", "properties": { "内容": "小規模多機能ホーム清爽の里【小規模多機能型居宅介護】兵庫県多可郡多可町中区中村町377-1", "url": "https://www.kaigokensaku.mhlw.go.jp/28/index.php?action_kouhyou_detail_004_kani=true&JigyosyoCd=2892700069-00&ServiceCd=730&Type=search", "url2": "http://www.rakuenkai.or.jp" }, "geometry": { "type": "Point", "coordinates": [ 134.927030699999932, 35.0481379 ] } },
{ "type": "Feature", "properties": { "内容": "小規模多機能ホーム　悠久の里【小規模多機能型居宅介護】兵庫県多可郡多可町八千代区俵田111-60", "url": "https://www.kaigokensaku.mhlw.go.jp/28/index.php?action_kouhyou_detail_004_kani=true&JigyosyoCd=2892700028-00&ServiceCd=730&Type=search", "url2": "http://www.rakuenkai.or.jp" }, "geometry": { "type": "Point", "coordinates": [ 134.893023500000027, 35.015515459231473 ] } },
{ "type": "Feature", "properties": { "内容": "小規模多機能型居宅介護事業所　あさざ【小規模多機能型居宅介護】兵庫県加古郡稲美町六分一1406-14", "url": "https://www.kaigokensaku.mhlw.go.jp/28/index.php?action_kouhyou_detail_004_kani=true&JigyosyoCd=2892800034-00&ServiceCd=730&Type=search", "url2": "https://hinode.or.jp/" }, "geometry": { "type": "Point", "coordinates": [ 134.903355199999964, 34.7318757 ] } },
{ "type": "Feature", "properties": { "内容": "ひなたんぼ小規模多機能ホーム【小規模多機能型居宅介護】兵庫県加古郡稲美町加古５１４１", "url": "https://www.kaigokensaku.mhlw.go.jp/28/index.php?action_kouhyou_detail_004_kani=true&JigyosyoCd=2892800018-00&ServiceCd=730&Type=search", "url2": "hinatanbo@inami-shakyou.or.jp" }, "geometry": { "type": "Point", "coordinates": [ 134.9075904, 34.7607835 ] } },
{ "type": "Feature", "properties": { "内容": "小規模多機能型居宅介護事業所　みんなの家【小規模多機能型居宅介護】兵庫県加古郡播磨町宮北１丁目６番６号", "url": "https://www.kaigokensaku.mhlw.go.jp/28/index.php?action_kouhyou_detail_004_kani=true&JigyosyoCd=2892800026-00&ServiceCd=730&Type=search", "url2": "https://aenosato.jp" }, "geometry": { "type": "Point", "coordinates": [ 134.86566449999998, 34.7188099 ] } },
{ "type": "Feature", "properties": { "内容": "小規模多機能型居宅介護　ゆとり庵大中【小規模多機能型居宅介護】兵庫県加古郡播磨町南大中1丁目7-27", "url": "https://www.kaigokensaku.mhlw.go.jp/28/index.php?action_kouhyou_detail_004_kani=true&JigyosyoCd=2892800075-00&ServiceCd=730&Type=search", "url2": "https://hinode.or.jp/establishment/yutorian-onaka/" }, "geometry": { "type": "Point", "coordinates": [ 134.869093300000031, 34.720655499999985 ] } },
{ "type": "Feature", "properties": { "内容": "ヴィレッジ　によん【小規模多機能型居宅介護】兵庫県神崎郡市川町甘地187-1", "url": "https://www.kaigokensaku.mhlw.go.jp/28/index.php?action_kouhyou_detail_004_kani=true&JigyosyoCd=2893400016-00&ServiceCd=730&Type=search", "url2": "http://www.niyon.net" }, "geometry": { "type": "Point", "coordinates": [ 134.758980800000018, 34.993223 ] } },
{ "type": "Feature", "properties": { "内容": "小規模多機能ホームもちもちの木【小規模多機能型居宅介護】兵庫県神崎郡福崎町西治1487-1花さきデイサービス　小規模多機能ホームもちもちの木", "url": "https://www.kaigokensaku.mhlw.go.jp/28/index.php?action_kouhyou_detail_004_kani=true&JigyosyoCd=2893400040-00&ServiceCd=730&Type=search", "url2": "http://www.neverland.or.jp" }, "geometry": { "type": "Point", "coordinates": [ 134.741221900000028, 34.9536766 ] } },
{ "type": "Feature", "properties": { "内容": "ふるさとの家【小規模多機能型居宅介護】神崎郡福崎町南田原1185", "url": "https://www.kaigokensaku.mhlw.go.jp/28/index.php?action_kouhyou_detail_004_kani=true&JigyosyoCd=2893400032-00&ServiceCd=730&Type=search", "url2": null }, "geometry": { "type": "Point", "coordinates": [ 134.768919500000038, 34.9422085 ] } },
{ "type": "Feature", "properties": { "内容": "小規模多機能　によん神河【小規模多機能型居宅介護】兵庫県神崎郡神河町南小田1233-2によん神河", "url": "https://www.kaigokensaku.mhlw.go.jp/28/index.php?action_kouhyou_detail_004_kani=true&JigyosyoCd=2893400073-00&ServiceCd=730&Type=search", "url2": "http://www.resort-niyon.com/" }, "geometry": { "type": "Point", "coordinates": [ 134.7147271, 35.0951449 ] } },
{ "type": "Feature", "properties": { "内容": "小規模多機能居宅介護　太子の郷【小規模多機能型居宅介護】兵庫県揖保郡太子町太田231番地の1", "url": "https://www.kaigokensaku.mhlw.go.jp/28/index.php?action_kouhyou_detail_004_kani=true&JigyosyoCd=2894100045-00&ServiceCd=730&Type=search", "url2": "http://taishinosato.org/" }, "geometry": { "type": "Point", "coordinates": [ 134.598354200000017, 34.8358394 ] } },
{ "type": "Feature", "properties": { "内容": "小規模多機能型居宅介護事業所ほほえみ【小規模多機能型居宅介護】兵庫県佐用郡佐用町米田410－3", "url": "https://www.kaigokensaku.mhlw.go.jp/28/index.php?action_kouhyou_detail_004_kani=true&JigyosyoCd=2893700068-00&ServiceCd=730&Type=search", "url2": "http://www1.winknet.ne.jp/^okao52-3" }, "geometry": { "type": "Point", "coordinates": [ 134.38079730000004, 34.986264699999978 ] } },
{ "type": "Feature", "properties": { "内容": "小規模多機能ホーム　きずな【小規模多機能型居宅介護】兵庫県佐用郡佐用町上月571-1", "url": "https://www.kaigokensaku.mhlw.go.jp/28/index.php?action_kouhyou_detail_004_kani=true&JigyosyoCd=2893700084-00&ServiceCd=730&Type=search", "url2": null }, "geometry": { "type": "Point", "coordinates": [ 134.325243300000011, 34.9845363 ] } },
{ "type": "Feature", "properties": { "内容": "小規模多機能型居宅介護事業所　やすらぎの家　さよう【小規模多機能型居宅介護】兵庫県佐用郡佐用町佐用２８３８番地２", "url": "https://www.kaigokensaku.mhlw.go.jp/28/index.php?action_kouhyou_detail_004_kani=true&JigyosyoCd=2893700035-00&ServiceCd=730&Type=search", "url2": null }, "geometry": { "type": "Point", "coordinates": [ 134.356664899999942, 35.005065 ] } },
{ "type": "Feature", "properties": { "内容": "サンホームみかづき小規模多機能　志文の里【小規模多機能型居宅介護】兵庫県佐用郡佐用町志文515番地", "url": "https://www.kaigokensaku.mhlw.go.jp/28/index.php?action_kouhyou_detail_004_kani=true&JigyosyoCd=2893700043-00&ServiceCd=730&Type=search", "url2": "http://www.sunhome-cat.jp" }, "geometry": { "type": "Point", "coordinates": [ 134.435564099999965, 35.0119406 ] } }
]
}
