{
"type": "FeatureCollection",
"name": "geo_28_短期大学",
"crs": { "type": "name", "properties": { "name": "urn:ogc:def:crs:EPSG::6668" } },
"features": [
{ "type": "Feature", "properties": { "P29_001": "28204", "P29_002": "F228310109015", "P29_003": "16006", "P29_004": "大手前短期大学", "P29_005": "兵庫県西宮市御茶家所町6-42", "P29_006": "4", "P29_007": "0", "P29_008": "00", "P29_009": null }, "geometry": { "type": "Point", "coordinates": [ 135.325494085267849, 34.738067843117634 ] } },
{ "type": "Feature", "properties": { "P29_001": "28110", "P29_002": "F228310109024", "P29_003": "16006", "P29_004": "神戸女子短期大学", "P29_005": "兵庫県神戸市中央区港島中町4-7-2", "P29_006": "4", "P29_007": "0", "P29_008": "00", "P29_009": null }, "geometry": { "type": "Point", "coordinates": [ 135.207705301209813, 34.667589903493941 ] } },
{ "type": "Feature", "properties": { "P29_001": "28106", "P29_002": "F228310109033", "P29_003": "16006", "P29_004": "神戸常盤大学短期大学部", "P29_005": "兵庫県神戸市長田区大谷町2-6-2", "P29_006": "4", "P29_007": "0", "P29_008": "00", "P29_009": null }, "geometry": { "type": "Point", "coordinates": [ 135.141284093681975, 34.665553002191125 ] } },
{ "type": "Feature", "properties": { "P29_001": "28101", "P29_002": "F228310109051", "P29_003": "16006", "P29_004": "頌栄短期大学", "P29_005": "兵庫県神戸市東灘区御影山手1-18-1", "P29_006": "4", "P29_007": "0", "P29_008": "00", "P29_009": null }, "geometry": { "type": "Point", "coordinates": [ 135.249019208460538, 34.727370196057528 ] } },
{ "type": "Feature", "properties": { "P29_001": "28209", "P29_002": "F228310109079", "P29_003": "16006", "P29_004": "豊岡短期大学", "P29_005": "兵庫県豊岡市戸牧160", "P29_006": "4", "P29_007": "0", "P29_008": "00", "P29_009": null }, "geometry": { "type": "Point", "coordinates": [ 134.805631867244813, 35.535592094543155 ] } },
{ "type": "Feature", "properties": { "P29_001": "28204", "P29_002": "F228310109088", "P29_003": "16006", "P29_004": "甲子園短期大学", "P29_005": "兵庫県西宮市瓦林町4-25", "P29_006": "4", "P29_007": "0", "P29_008": "00", "P29_009": null }, "geometry": { "type": "Point", "coordinates": [ 135.370293459444582, 34.743319377898231 ] } },
{ "type": "Feature", "properties": { "P29_001": "28204", "P29_002": "F228310109104", "P29_003": "16006", "P29_004": "聖和短期大学", "P29_005": "兵庫県西宮市岡田山7-54", "P29_006": "4", "P29_007": "0", "P29_008": "00", "P29_009": null }, "geometry": { "type": "Point", "coordinates": [ 135.351721636716519, 34.761784165392605 ] } },
{ "type": "Feature", "properties": { "P29_001": "28202", "P29_002": "F228310109113", "P29_003": "16006", "P29_004": "園田学園女子大学短期大学部", "P29_005": "兵庫県尼崎市南塚口町7-29-1", "P29_006": "4", "P29_007": "0", "P29_008": "00", "P29_009": null }, "geometry": { "type": "Point", "coordinates": [ 135.409322006194202, 34.747992613675521 ] } },
{ "type": "Feature", "properties": { "P29_001": "28202", "P29_002": "F228310109122", "P29_003": "16006", "P29_004": "産業技術短期大学", "P29_005": "兵庫県尼崎市西昆陽1-27-1", "P29_006": "4", "P29_007": "0", "P29_008": "00", "P29_009": null }, "geometry": { "type": "Point", "coordinates": [ 135.382250246400076, 34.770298108903823 ] } },
{ "type": "Feature", "properties": { "P29_001": "28217", "P29_002": "F228310109131", "P29_003": "16006", "P29_004": "東洋食品工業短期大学", "P29_005": "兵庫県川西市南花屋敷4-23-2", "P29_006": "4", "P29_007": "0", "P29_008": "00", "P29_009": null }, "geometry": { "type": "Point", "coordinates": [ 135.401094968668616, 34.824407410026161 ] } },
{ "type": "Feature", "properties": { "P29_001": "28210", "P29_002": "F228310109140", "P29_003": "16006", "P29_004": "兵庫大学短期大学部", "P29_005": "兵庫県加古川市平岡町新在家2301", "P29_006": "4", "P29_007": "0", "P29_008": "00", "P29_009": null }, "geometry": { "type": "Point", "coordinates": [ 134.880785827924512, 34.747696497988507 ] } },
{ "type": "Feature", "properties": { "P29_001": "28219", "P29_002": "F228310109159", "P29_003": "16006", "P29_004": "湊川短期大学", "P29_005": "兵庫県三田市四ツ辻1430", "P29_006": "4", "P29_007": "0", "P29_008": "00", "P29_009": null }, "geometry": { "type": "Point", "coordinates": [ 135.158136295942256, 34.949397022203193 ] } },
{ "type": "Feature", "properties": { "P29_001": "28204", "P29_002": "F228310109168", "P29_003": "16006", "P29_004": "武庫川女子大学短期大学部", "P29_005": "兵庫県西宮市池開町6-46", "P29_006": "4", "P29_007": "0", "P29_008": "00", "P29_009": null }, "geometry": { "type": "Point", "coordinates": [ 135.37424443675107, 34.716395055719666 ] } },
{ "type": "Feature", "properties": { "P29_001": "28201", "P29_002": "F228310109177", "P29_003": "16006", "P29_004": "姫路日ノ本短期大学", "P29_005": "兵庫県姫路市香寺町香呂890-1", "P29_006": "4", "P29_007": "0", "P29_008": "00", "P29_009": null }, "geometry": { "type": "Point", "coordinates": [ 134.728960106014028, 34.917650379170354 ] } },
{ "type": "Feature", "properties": { "P29_001": "28106", "P29_002": "F228310109097", "P29_003": "16006", "P29_004": "神戸教育短期大学", "P29_005": "兵庫県神戸市長田区西山町2-3-3", "P29_006": "4", "P29_007": "0", "P29_008": "00", "P29_009": null }, "geometry": { "type": "Point", "coordinates": [ 135.1440174428825, 34.67201321273911 ] } },
{ "type": "Feature", "properties": { "P29_001": "28207", "P29_002": "F227310108491", "P29_003": "16006", "P29_004": "大阪芸術大学短期大学部", "P29_005": "兵庫県伊丹市荒牧4-8-70", "P29_006": "4", "P29_007": "0", "P29_008": "02", "P29_009": "伊丹学舎" }, "geometry": { "type": "Point", "coordinates": [ 135.382910263607073, 34.812764105560561 ] } }
]
}
