{
"type": "FeatureCollection",
"name": "geo_28_専修学校",
"crs": { "type": "name", "properties": { "name": "urn:ogc:def:crs:EPSG::6668" } },
"features": [
{ "type": "Feature", "properties": { "P29_001": "28106", "P29_002": "H128210000014", "P29_003": "16016", "P29_004": "兵庫県立総合衛生学院", "P29_005": "兵庫県神戸市長田区海運町7-4-13", "P29_006": "2", "P29_007": "0", "P29_008": "00", "P29_009": null }, "geometry": { "type": "Point", "coordinates": [ 135.141080464076595, 34.648680456079219 ] } },
{ "type": "Feature", "properties": { "P29_001": "28228", "P29_002": "H128210000023", "P29_003": "16016", "P29_004": "播磨看護専門学校", "P29_005": "兵庫県加東市家原812-1", "P29_006": "3", "P29_007": "0", "P29_008": "00", "P29_009": null }, "geometry": { "type": "Point", "coordinates": [ 134.962571355742739, 34.923812063527365 ] } },
{ "type": "Feature", "properties": { "P29_001": "28208", "P29_002": "H128210000032", "P29_003": "16016", "P29_004": "相生市看護専門学校", "P29_005": "兵庫県相生市汐見台2-2", "P29_006": "3", "P29_007": "0", "P29_008": "00", "P29_009": null }, "geometry": { "type": "Point", "coordinates": [ 134.471751810794899, 34.803195010408189 ] } },
{ "type": "Feature", "properties": { "P29_001": "28214", "P29_002": "H128210000050", "P29_003": "16016", "P29_004": "宝塚市立看護専門学校", "P29_005": "兵庫県宝塚市小浜4-5-5", "P29_006": "3", "P29_007": "0", "P29_008": "00", "P29_009": null }, "geometry": { "type": "Point", "coordinates": [ 135.365848272194057, 34.805873044542999 ] } },
{ "type": "Feature", "properties": { "P29_001": "28220", "P29_002": "H128210000069", "P29_003": "16016", "P29_004": "兵庫県立農業大学校", "P29_005": "兵庫県加西市常吉町1256-4", "P29_006": "2", "P29_007": "0", "P29_008": "00", "P29_009": null }, "geometry": { "type": "Point", "coordinates": [ 134.89461249925148, 34.913508568335075 ] } },
{ "type": "Feature", "properties": { "P29_001": "28223", "P29_002": "H128210000078", "P29_003": "16016", "P29_004": "丹波市立看護専門学校", "P29_005": "兵庫県丹波市氷上町石生2069-2", "P29_006": "3", "P29_007": "0", "P29_008": "00", "P29_009": null }, "geometry": { "type": "Point", "coordinates": [ 135.05564289760747, 35.146204659639913 ] } },
{ "type": "Feature", "properties": { "P29_001": "28227", "P29_002": "H128210000087", "P29_003": "16016", "P29_004": "兵庫県立森林大学校", "P29_005": "兵庫県宍粟市一宮町能倉772-1", "P29_006": "2", "P29_007": "0", "P29_008": "00", "P29_009": null }, "geometry": { "type": "Point", "coordinates": [ 134.613532106072768, 35.117524122096441 ] } },
{ "type": "Feature", "properties": { "P29_001": "28110", "P29_002": "H128310000012", "P29_003": "16016", "P29_004": "神戸電子専門学校", "P29_005": "兵庫県神戸市中央区山本通1-6-35", "P29_006": "4", "P29_007": "0", "P29_008": "00", "P29_009": null }, "geometry": { "type": "Point", "coordinates": [ 135.19265500875855, 34.699874753254981 ] } },
{ "type": "Feature", "properties": { "P29_001": "28201", "P29_002": "H128310000021", "P29_003": "16016", "P29_004": "姫路赤十字看護専門学校", "P29_005": "兵庫県姫路市下手野1-12-2", "P29_006": "4", "P29_007": "0", "P29_008": "00", "P29_009": null }, "geometry": { "type": "Point", "coordinates": [ 134.646619589290708, 34.843364339651274 ] } },
{ "type": "Feature", "properties": { "P29_001": "28202", "P29_002": "H128310000030", "P29_003": "16016", "P29_004": "関西保育福祉専門学校", "P29_005": "兵庫県尼崎市昭和通1-20-1", "P29_006": "4", "P29_007": "0", "P29_008": "00", "P29_009": null }, "geometry": { "type": "Point", "coordinates": [ 135.427594936156538, 34.720255050941013 ] } },
{ "type": "Feature", "properties": { "P29_001": "28209", "P29_002": "H128310000076", "P29_003": "16016", "P29_004": "大岡学園高等専修学校", "P29_005": "兵庫県豊岡市戸牧字丸山500-3", "P29_006": "4", "P29_007": "0", "P29_008": "00", "P29_009": null }, "geometry": { "type": "Point", "coordinates": [ 134.810022089294534, 35.533799062849525 ] } },
{ "type": "Feature", "properties": { "P29_001": "28213", "P29_002": "H128310000085", "P29_003": "16016", "P29_004": "西脇家政高等専修学校", "P29_005": "兵庫県西脇市西脇369-4", "P29_006": "4", "P29_007": "0", "P29_008": "00", "P29_009": null }, "geometry": { "type": "Point", "coordinates": [ 134.970915241075232, 34.987476319617841 ] } },
{ "type": "Feature", "properties": { "P29_001": "28227", "P29_002": "H128310000094", "P29_003": "16016", "P29_004": "山崎文化専門学校", "P29_005": "兵庫県宍粟市山崎町鹿沢24-5", "P29_006": "4", "P29_007": "0", "P29_008": "00", "P29_009": null }, "geometry": { "type": "Point", "coordinates": [ 134.544776123907468, 35.004259251554082 ] } },
{ "type": "Feature", "properties": { "P29_001": "28101", "P29_002": "H128310000101", "P29_003": "16016", "P29_004": "ＢＥＡＵＴＹＡＲＴＳＫＯＢＥ日本高等美容専門学校", "P29_005": "兵庫県神戸市東灘区御影中町8-4-14", "P29_006": "4", "P29_007": "0", "P29_008": "00", "P29_009": null }, "geometry": { "type": "Point", "coordinates": [ 135.250288224197192, 34.719134476585779 ] } },
{ "type": "Feature", "properties": { "P29_001": "28110", "P29_002": "H128310000129", "P29_003": "16016", "P29_004": "専門学校テクニカルカレッジ神戸", "P29_005": "兵庫県神戸市中央区琴ノ緒町5-7-1", "P29_006": "4", "P29_007": "0", "P29_008": "00", "P29_009": null }, "geometry": { "type": "Point", "coordinates": [ 135.194795665815434, 34.696750661407769 ] } },
{ "type": "Feature", "properties": { "P29_001": "28110", "P29_002": "H128310000138", "P29_003": "16016", "P29_004": "専門学校神戸文化服装学院", "P29_005": "兵庫県神戸市中央区楠町7-1-1", "P29_006": "4", "P29_007": "0", "P29_008": "00", "P29_009": null }, "geometry": { "type": "Point", "coordinates": [ 135.17496173865257, 34.685471286660452 ] } },
{ "type": "Feature", "properties": { "P29_001": "28110", "P29_002": "H128310000147", "P29_003": "16016", "P29_004": "兵庫県歯科医師会附属兵庫歯科衛生士学院", "P29_005": "兵庫県神戸市中央区山本通5-7-18", "P29_006": "4", "P29_007": "0", "P29_008": "00", "P29_009": null }, "geometry": { "type": "Point", "coordinates": [ 135.180175532144801, 34.693935696275958 ] } },
{ "type": "Feature", "properties": { "P29_001": "28110", "P29_002": "H128310000165", "P29_003": "16016", "P29_004": "公益社団法人神戸市民間病院協会神戸看護専門学校", "P29_005": "兵庫県神戸市中央区花隈町33-19", "P29_006": "4", "P29_007": "0", "P29_008": "00", "P29_009": null }, "geometry": { "type": "Point", "coordinates": [ 135.180465476401395, 34.689092091970593 ] } },
{ "type": "Feature", "properties": { "P29_001": "28201", "P29_002": "H128310000183", "P29_003": "16016", "P29_004": "日本調理製菓専門学校", "P29_005": "兵庫県姫路市安田1-2", "P29_006": "4", "P29_007": "0", "P29_008": "00", "P29_009": null }, "geometry": { "type": "Point", "coordinates": [ 134.685904118070511, 34.819855611726716 ] } },
{ "type": "Feature", "properties": { "P29_001": "28202", "P29_002": "H128310000192", "P29_003": "16016", "P29_004": "公益財団法人尼崎健康医療財団看護専門学校", "P29_005": "兵庫県尼崎市若王子2-18-1", "P29_006": "4", "P29_007": "0", "P29_008": "00", "P29_009": null }, "geometry": { "type": "Point", "coordinates": [ 135.438840718815214, 34.749038348810075 ] } },
{ "type": "Feature", "properties": { "P29_001": "28102", "P29_002": "H128310000209", "P29_003": "16016", "P29_004": "木下和服裁縫専門学校", "P29_005": "兵庫県神戸市灘区鶴甲3-13-26", "P29_006": "4", "P29_007": "0", "P29_008": "00", "P29_009": null }, "geometry": { "type": "Point", "coordinates": [ 135.231831828339011, 34.734067193418355 ] } },
{ "type": "Feature", "properties": { "P29_001": "28110", "P29_002": "H128310000218", "P29_003": "16016", "P29_004": "神戸ＹＭＣＡ学院専門学校", "P29_005": "兵庫県神戸市中央区加納町2-7-11", "P29_006": "4", "P29_007": "0", "P29_008": "00", "P29_009": null }, "geometry": { "type": "Point", "coordinates": [ 135.193689969086222, 34.701085111979495 ] } },
{ "type": "Feature", "properties": { "P29_001": "28105", "P29_002": "H128310000227", "P29_003": "16016", "P29_004": "神戸理容美容専門学校", "P29_005": "兵庫県神戸市兵庫区駅前通1-3-28", "P29_006": "4", "P29_007": "0", "P29_008": "00", "P29_009": null }, "geometry": { "type": "Point", "coordinates": [ 135.163386336408109, 34.668085486231583 ] } },
{ "type": "Feature", "properties": { "P29_001": "28106", "P29_002": "H128310000236", "P29_003": "16016", "P29_004": "東亜学園商業実務専門学校", "P29_005": "兵庫県神戸市長田区西山町4-11-25", "P29_006": "4", "P29_007": "0", "P29_008": "00", "P29_009": null }, "geometry": { "type": "Point", "coordinates": [ 135.143200639345878, 34.674069043132477 ] } },
{ "type": "Feature", "properties": { "P29_001": "28106", "P29_002": "H128310000245", "P29_003": "16016", "P29_004": "神戸女子洋裁専門学校", "P29_005": "兵庫県神戸市長田区東尻池町2-5-19", "P29_006": "4", "P29_007": "0", "P29_008": "00", "P29_009": null }, "geometry": { "type": "Point", "coordinates": [ 135.156168956572827, 34.660610967677897 ] } },
{ "type": "Feature", "properties": { "P29_001": "28201", "P29_002": "H128310000254", "P29_003": "16016", "P29_004": "姫路理容美容専門学校", "P29_005": "兵庫県姫路市南駅前町13", "P29_006": "4", "P29_007": "0", "P29_008": "00", "P29_009": null }, "geometry": { "type": "Point", "coordinates": [ 134.693494662451229, 34.824621926668499 ] } },
{ "type": "Feature", "properties": { "P29_001": "28202", "P29_002": "H128310000263", "P29_003": "16016", "P29_004": "育成調理師専門学校", "P29_005": "兵庫県尼崎市開明町2-30-2", "P29_006": "4", "P29_007": "0", "P29_008": "00", "P29_009": null }, "geometry": { "type": "Point", "coordinates": [ 135.415576646399188, 34.716263068756511 ] } },
{ "type": "Feature", "properties": { "P29_001": "28202", "P29_002": "H128310000272", "P29_003": "16016", "P29_004": "尼崎理容美容専門学校", "P29_005": "兵庫県尼崎市御園町37", "P29_006": "4", "P29_007": "0", "P29_008": "00", "P29_009": null }, "geometry": { "type": "Point", "coordinates": [ 135.415035038375862, 34.718156126351417 ] } },
{ "type": "Feature", "properties": { "P29_001": "28481", "P29_002": "H128310000281", "P29_003": "16016", "P29_004": "平田調理専門学校", "P29_005": "兵庫県赤穂郡上郡町上郡31-1", "P29_006": "4", "P29_007": "0", "P29_008": "00", "P29_009": null }, "geometry": { "type": "Point", "coordinates": [ 134.358870053740276, 34.86763915228439 ] } },
{ "type": "Feature", "properties": { "P29_001": "28202", "P29_002": "H128310000290", "P29_003": "16016", "P29_004": "関西労災看護専門学校", "P29_005": "兵庫県尼崎市稲葉荘3-1-69", "P29_006": "4", "P29_007": "0", "P29_008": "00", "P29_009": null }, "geometry": { "type": "Point", "coordinates": [ 135.38633145302245, 34.736563300162445 ] } },
{ "type": "Feature", "properties": { "P29_001": "28219", "P29_002": "H128310000325", "P29_003": "16016", "P29_004": "三田モードビジネス専門学校", "P29_005": "兵庫県三田市相生町15-5", "P29_006": "4", "P29_007": "0", "P29_008": "00", "P29_009": null }, "geometry": { "type": "Point", "coordinates": [ 135.228976012380741, 34.883374688103139 ] } },
{ "type": "Feature", "properties": { "P29_001": "28201", "P29_002": "H128310000334", "P29_003": "16016", "P29_004": "日本栄養専門学校", "P29_005": "兵庫県姫路市東延末2-165", "P29_006": "4", "P29_007": "0", "P29_008": "00", "P29_009": null }, "geometry": { "type": "Point", "coordinates": [ 134.687064208230964, 34.822356326513763 ] } },
{ "type": "Feature", "properties": { "P29_001": "28209", "P29_002": "H128310000343", "P29_003": "16016", "P29_004": "ビジネス専門学校キャリアカレッジ但馬", "P29_005": "兵庫県豊岡市戸牧字丸山500-1", "P29_006": "4", "P29_007": "0", "P29_008": "00", "P29_009": null }, "geometry": { "type": "Point", "coordinates": [ 134.810329731577696, 35.534226570248514 ] } },
{ "type": "Feature", "properties": { "P29_001": "28110", "P29_002": "H128310000352", "P29_003": "16016", "P29_004": "東亜経理専門学校神戸駅前校", "P29_005": "兵庫県神戸市中央区橘通2-26", "P29_006": "4", "P29_007": "0", "P29_008": "00", "P29_009": null }, "geometry": { "type": "Point", "coordinates": [ 135.176389187677017, 34.681818643439364 ] } },
{ "type": "Feature", "properties": { "P29_001": "28110", "P29_002": "H128310000361", "P29_003": "16016", "P29_004": "神戸国際調理製菓専門学校", "P29_005": "兵庫県神戸市中央区栄町通3-5-1", "P29_006": "4", "P29_007": "0", "P29_008": "00", "P29_009": null }, "geometry": { "type": "Point", "coordinates": [ 135.186664557225015, 34.687149465545623 ] } },
{ "type": "Feature", "properties": { "P29_001": "28202", "P29_002": "H128310000370", "P29_003": "16016", "P29_004": "興隆学林専門学校", "P29_005": "兵庫県尼崎市開明町3-7", "P29_006": "4", "P29_007": "0", "P29_008": "00", "P29_009": null }, "geometry": { "type": "Point", "coordinates": [ 135.415074430940365, 34.717498708982205 ] } },
{ "type": "Feature", "properties": { "P29_001": "28206", "P29_002": "H128310000398", "P29_003": "16016", "P29_004": "専修学校クラーク高等学院芦屋校", "P29_005": "兵庫県芦屋市公光町1-18", "P29_006": "4", "P29_007": "0", "P29_008": "00", "P29_009": null }, "geometry": { "type": "Point", "coordinates": [ 135.303897107919653, 34.731635441361156 ] } },
{ "type": "Feature", "properties": { "P29_001": "28110", "P29_002": "H128310000405", "P29_003": "16016", "P29_004": "神戸ファッション専門学校", "P29_005": "兵庫県神戸市中央区国香通6-7", "P29_006": "4", "P29_007": "0", "P29_008": "00", "P29_009": null }, "geometry": { "type": "Point", "coordinates": [ 135.200073022477966, 34.701829963703339 ] } },
{ "type": "Feature", "properties": { "P29_001": "28201", "P29_002": "H128310000414", "P29_003": "16016", "P29_004": "姫路情報システム専門学校", "P29_005": "兵庫県姫路市東延末2-25", "P29_006": "4", "P29_007": "0", "P29_008": "00", "P29_009": null }, "geometry": { "type": "Point", "coordinates": [ 134.685685386540513, 34.82186787095204 ] } },
{ "type": "Feature", "properties": { "P29_001": "28106", "P29_002": "H128310000432", "P29_003": "16016", "P29_004": "阪神自動車航空鉄道専門学校", "P29_005": "兵庫県神戸市長田区林山町27-1", "P29_006": "4", "P29_007": "0", "P29_008": "00", "P29_009": null }, "geometry": { "type": "Point", "coordinates": [ 135.141804929382801, 34.676669556400441 ] } },
{ "type": "Feature", "properties": { "P29_001": "28204", "P29_002": "H128310000441", "P29_003": "16016", "P29_004": "専修学校西宮甲英高等学院", "P29_005": "兵庫県西宮市津門綾羽町2-3", "P29_006": "4", "P29_007": "0", "P29_008": "00", "P29_009": null }, "geometry": { "type": "Point", "coordinates": [ 135.353791242473648, 34.734589856991924 ] } },
{ "type": "Feature", "properties": { "P29_001": "28201", "P29_002": "H128310000469", "P29_003": "16016", "P29_004": "姫路福祉保育専門学校", "P29_005": "兵庫県姫路市手柄1-22-1", "P29_006": "4", "P29_007": "0", "P29_008": "00", "P29_009": null }, "geometry": { "type": "Point", "coordinates": [ 134.67865418222496, 34.813792121210817 ] } },
{ "type": "Feature", "properties": { "P29_001": "28111", "P29_002": "H128310000478", "P29_003": "16016", "P29_004": "西神看護専門学校", "P29_005": "兵庫県神戸市西区神出町勝成78-53", "P29_006": "4", "P29_007": "0", "P29_008": "00", "P29_009": null }, "geometry": { "type": "Point", "coordinates": [ 134.993186013994773, 34.773129450194986 ] } },
{ "type": "Feature", "properties": { "P29_001": "28111", "P29_002": "H128310000487", "P29_003": "16016", "P29_004": "専門学校トヨタ神戸自動車大学校", "P29_005": "兵庫県神戸市西区学園東町4-1", "P29_006": "4", "P29_007": "0", "P29_008": "00", "P29_009": null }, "geometry": { "type": "Point", "coordinates": [ 135.068110791960152, 34.684556769860649 ] } },
{ "type": "Feature", "properties": { "P29_001": "28110", "P29_002": "H128310000496", "P29_003": "16016", "P29_004": "神戸医療福祉専門学校中央校", "P29_005": "兵庫県神戸市中央区多聞通2-6-3", "P29_006": "4", "P29_007": "0", "P29_008": "00", "P29_009": null }, "geometry": { "type": "Point", "coordinates": [ 135.176722523977276, 34.681426832223686 ] } },
{ "type": "Feature", "properties": { "P29_001": "28111", "P29_002": "H128310000502", "P29_003": "16016", "P29_004": "神戸市医師会看護専門学校", "P29_005": "兵庫県神戸市西区学園西町4-2", "P29_006": "4", "P29_007": "0", "P29_008": "00", "P29_009": null }, "geometry": { "type": "Point", "coordinates": [ 135.04875250520638, 34.684153754667712 ] } },
{ "type": "Feature", "properties": { "P29_001": "28201", "P29_002": "H128310000511", "P29_003": "16016", "P29_004": "専門学校日本工科大学校", "P29_005": "兵庫県姫路市兼田383-22", "P29_006": "4", "P29_007": "0", "P29_008": "00", "P29_009": null }, "geometry": { "type": "Point", "coordinates": [ 134.696346904137329, 34.804955724319647 ] } },
{ "type": "Feature", "properties": { "P29_001": "28204", "P29_002": "H128310000520", "P29_003": "16016", "P29_004": "西宮市医師会看護専門学校", "P29_005": "兵庫県西宮市池田町13-2", "P29_006": "4", "P29_007": "0", "P29_008": "00", "P29_009": null }, "geometry": { "type": "Point", "coordinates": [ 135.349810295933139, 34.738701805793845 ] } },
{ "type": "Feature", "properties": { "P29_001": "28101", "P29_002": "H128310000539", "P29_003": "16016", "P29_004": "愛甲学院専門学校", "P29_005": "兵庫県神戸市東灘区本山北町3-2-8", "P29_006": "4", "P29_007": "0", "P29_008": "00", "P29_009": null }, "geometry": { "type": "Point", "coordinates": [ 135.279722896375205, 34.727531982877927 ] } },
{ "type": "Feature", "properties": { "P29_001": "28365", "P29_002": "H128310000557", "P29_003": "16016", "P29_004": "関西野球専門学校", "P29_005": "兵庫県多可郡多可町加美区豊部1879", "P29_006": "4", "P29_007": "0", "P29_008": "00", "P29_009": null }, "geometry": { "type": "Point", "coordinates": [ 134.902954297920331, 35.100264389397076 ] } },
{ "type": "Feature", "properties": { "P29_001": "28110", "P29_002": "H128310000566", "P29_003": "16016", "P29_004": "大原簿記専門学校神戸校", "P29_005": "兵庫県神戸市中央区八幡通4-2-5", "P29_006": "4", "P29_007": "0", "P29_008": "00", "P29_009": null }, "geometry": { "type": "Point", "coordinates": [ 135.19663745674606, 34.689590264513292 ] } },
{ "type": "Feature", "properties": { "P29_001": "28226", "P29_002": "H128310000575", "P29_003": "16016", "P29_004": "関西総合リハビリテーション専門学校", "P29_005": "兵庫県淡路市志筑新島7-4", "P29_006": "4", "P29_007": "0", "P29_008": "00", "P29_009": null }, "geometry": { "type": "Point", "coordinates": [ 134.900478360068831, 34.425560266955806 ] } },
{ "type": "Feature", "properties": { "P29_001": "28110", "P29_002": "H128310000584", "P29_003": "16016", "P29_004": "神戸ベルェベル美容専門学校", "P29_005": "兵庫県神戸市中央区江戸町90", "P29_006": "4", "P29_007": "0", "P29_008": "00", "P29_009": null }, "geometry": { "type": "Point", "coordinates": [ 135.194055975396395, 34.688913327946153 ] } },
{ "type": "Feature", "properties": { "P29_001": "28206", "P29_002": "H128310000593", "P29_003": "16016", "P29_004": "関西健康科学専門学校", "P29_005": "兵庫県芦屋市公光町1-18", "P29_006": "4", "P29_007": "0", "P29_008": "00", "P29_009": null }, "geometry": { "type": "Point", "coordinates": [ 135.30398737093725, 34.731616437519996 ] } },
{ "type": "Feature", "properties": { "P29_001": "28203", "P29_002": "H128310000600", "P29_003": "16016", "P29_004": "明石医療センター附属看護専門学校", "P29_005": "兵庫県明石市大久保町八木743-33", "P29_006": "4", "P29_007": "0", "P29_008": "00", "P29_009": null }, "geometry": { "type": "Point", "coordinates": [ 134.936889926352364, 34.674629426246895 ] } },
{ "type": "Feature", "properties": { "P29_001": "28110", "P29_002": "H128310000619", "P29_003": "16016", "P29_004": "神戸製菓専門学校", "P29_005": "兵庫県神戸市中央区加納町2-5-1", "P29_006": "4", "P29_007": "0", "P29_008": "00", "P29_009": null }, "geometry": { "type": "Point", "coordinates": [ 135.193695209633887, 34.699915622851826 ] } },
{ "type": "Feature", "properties": { "P29_001": "28110", "P29_002": "H128310000628", "P29_003": "16016", "P29_004": "兵庫鍼灸専門学校", "P29_005": "兵庫県神戸市中央区山本通2-14-31", "P29_006": "4", "P29_007": "0", "P29_008": "00", "P29_009": null }, "geometry": { "type": "Point", "coordinates": [ 135.190226113713862, 34.69886097541837 ] } },
{ "type": "Feature", "properties": { "P29_001": "28201", "P29_002": "H128310000637", "P29_003": "16016", "P29_004": "姫路市医師会看護専門学校", "P29_005": "兵庫県姫路市御立西5-6-22", "P29_006": "4", "P29_007": "0", "P29_008": "00", "P29_009": null }, "geometry": { "type": "Point", "coordinates": [ 134.661168156268275, 34.862772526400754 ] } },
{ "type": "Feature", "properties": { "P29_001": "28212", "P29_002": "H128310000646", "P29_003": "16016", "P29_004": "はくほう会医療専門学校赤穂校", "P29_005": "兵庫県赤穂市元町5-9", "P29_006": "4", "P29_007": "0", "P29_008": "00", "P29_009": null }, "geometry": { "type": "Point", "coordinates": [ 134.391647676287675, 34.758770511486972 ] } },
{ "type": "Feature", "properties": { "P29_001": "28110", "P29_002": "H128310000655", "P29_003": "16016", "P29_004": "神戸リハビリテーション衛生専門学校", "P29_005": "兵庫県神戸市中央区古湊通1-2-2", "P29_006": "4", "P29_007": "0", "P29_008": "00", "P29_009": null }, "geometry": { "type": "Point", "coordinates": [ 135.175948460005316, 34.678534525360973 ] } },
{ "type": "Feature", "properties": { "P29_001": "28201", "P29_002": "H128310000664", "P29_003": "16016", "P29_004": "アルファジャパン美容専門学校", "P29_005": "兵庫県姫路市綿町148", "P29_006": "4", "P29_007": "0", "P29_008": "00", "P29_009": null }, "geometry": { "type": "Point", "coordinates": [ 134.694119213982731, 34.832484439891502 ] } },
{ "type": "Feature", "properties": { "P29_001": "28204", "P29_002": "H128310000682", "P29_003": "16016", "P29_004": "平成リハビリテーション専門学校", "P29_005": "兵庫県西宮市津門西口町2-26", "P29_006": "4", "P29_007": "0", "P29_008": "00", "P29_009": null }, "geometry": { "type": "Point", "coordinates": [ 135.346988156808294, 34.73539868947632 ] } },
{ "type": "Feature", "properties": { "P29_001": "28109", "P29_002": "H128310000691", "P29_003": "16016", "P29_004": "神戸こども総合専門学院", "P29_005": "兵庫県神戸市北区山田町小部東山56-2", "P29_006": "4", "P29_007": "0", "P29_008": "00", "P29_009": null }, "geometry": { "type": "Point", "coordinates": [ 135.168256862955502, 34.740918899774393 ] } },
{ "type": "Feature", "properties": { "P29_001": "28201", "P29_002": "H128310000708", "P29_003": "16016", "P29_004": "姫路ハーベスト医療福祉専門学校", "P29_005": "兵庫県姫路市南駅前町91-6", "P29_006": "4", "P29_007": "0", "P29_008": "00", "P29_009": null }, "geometry": { "type": "Point", "coordinates": [ 134.691923816343319, 34.825841199319193 ] } },
{ "type": "Feature", "properties": { "P29_001": "28107", "P29_002": "H128310000717", "P29_003": "16016", "P29_004": "専門学校神戸国際ビジネスカレッジ", "P29_005": "兵庫県神戸市須磨区中落合3-16-4", "P29_006": "4", "P29_007": "0", "P29_008": "00", "P29_009": null }, "geometry": { "type": "Point", "coordinates": [ 135.092814955835621, 34.680616012703204 ] } },
{ "type": "Feature", "properties": { "P29_001": "28110", "P29_002": "H128310000726", "P29_003": "16016", "P29_004": "神戸ブレーメン動物専門学校", "P29_005": "兵庫県神戸市中央区布引町2-1-17", "P29_006": "4", "P29_007": "0", "P29_008": "00", "P29_009": null }, "geometry": { "type": "Point", "coordinates": [ 135.194287322874374, 34.699927649582527 ] } },
{ "type": "Feature", "properties": { "P29_001": "28110", "P29_002": "H128310000735", "P29_003": "16016", "P29_004": "専門学校東京国際ビジネスカレッジ神戸校", "P29_005": "兵庫県神戸市中央区磯辺通4-1-6", "P29_006": "4", "P29_007": "0", "P29_008": "00", "P29_009": null }, "geometry": { "type": "Point", "coordinates": [ 135.198107708660899, 34.688303869154808 ] } },
{ "type": "Feature", "properties": { "P29_001": "28203", "P29_002": "H128310000744", "P29_003": "16016", "P29_004": "はくほう会医療専門学校明石校", "P29_005": "兵庫県明石市魚住町錦が丘4-12-11", "P29_006": "4", "P29_007": "0", "P29_008": "00", "P29_009": null }, "geometry": { "type": "Point", "coordinates": [ 134.905177116663793, 34.698841648694533 ] } },
{ "type": "Feature", "properties": { "P29_001": "28201", "P29_002": "H128310000753", "P29_003": "16016", "P29_004": "姫路情報ＩＴクリエイター法律専門学校", "P29_005": "兵庫県姫路市白銀町61", "P29_006": "4", "P29_007": "0", "P29_008": "00", "P29_009": null }, "geometry": { "type": "Point", "coordinates": [ 134.691048890706469, 34.831175000836559 ] } },
{ "type": "Feature", "properties": { "P29_001": "28201", "P29_002": "H128310000762", "P29_003": "16016", "P29_004": "大原保育スポーツ医療専門学校姫路校", "P29_005": "兵庫県姫路市白銀町61", "P29_006": "4", "P29_007": "0", "P29_008": "00", "P29_009": null }, "geometry": { "type": "Point", "coordinates": [ 134.691043642856613, 34.83112058074596 ] } },
{ "type": "Feature", "properties": { "P29_001": "28224", "P29_002": "H128310000780", "P29_003": "16016", "P29_004": "平成淡路看護専門学校", "P29_005": "兵庫県南あわじ市広田広田656-1", "P29_006": "4", "P29_007": "0", "P29_008": "00", "P29_009": null }, "geometry": { "type": "Point", "coordinates": [ 134.832973508195408, 34.330178251517559 ] } },
{ "type": "Feature", "properties": { "P29_001": "28301", "P29_002": "H128310000799", "P29_003": "16016", "P29_004": "専修学校猪名川甲英高等学院", "P29_005": "兵庫県川辺郡猪名川町上阿古谷字畑ヶ芝56-3", "P29_006": "4", "P29_007": "0", "P29_008": "00", "P29_009": null }, "geometry": { "type": "Point", "coordinates": [ 135.381821165344519, 34.934600575078257 ] } },
{ "type": "Feature", "properties": { "P29_001": "28110", "P29_002": "H128310000806", "P29_003": "16016", "P29_004": "神戸元町医療秘書専門学校", "P29_005": "兵庫県神戸市中央区北長狭通4-7-37", "P29_006": "4", "P29_007": "0", "P29_008": "00", "P29_009": null }, "geometry": { "type": "Point", "coordinates": [ 135.187130971005928, 34.690551965927895 ] } },
{ "type": "Feature", "properties": { "P29_001": "28110", "P29_002": "H128310000815", "P29_003": "16016", "P29_004": "神戸元町こども専門学校", "P29_005": "兵庫県神戸市中央区北長狭通4-7-37", "P29_006": "4", "P29_007": "0", "P29_008": "00", "P29_009": null }, "geometry": { "type": "Point", "coordinates": [ 135.186968287660278, 34.690509639190765 ] } },
{ "type": "Feature", "properties": { "P29_001": "28201", "P29_002": "H128310000824", "P29_003": "16016", "P29_004": "専修学校クラーク高等学院姫路校", "P29_005": "兵庫県姫路市東駅前町97", "P29_006": "4", "P29_007": "0", "P29_008": "00", "P29_009": null }, "geometry": { "type": "Point", "coordinates": [ 134.693525555846946, 34.82931134085797 ] } },
{ "type": "Feature", "properties": { "P29_001": "28201", "P29_002": "H128310000833", "P29_003": "16016", "P29_004": "姫路医療専門学校", "P29_005": "兵庫県姫路市駅前町27-2", "P29_006": "4", "P29_007": "0", "P29_008": "00", "P29_009": null }, "geometry": { "type": "Point", "coordinates": [ 134.694936401965379, 34.826855525403865 ] } },
{ "type": "Feature", "properties": { "P29_001": "28110", "P29_002": "H128310000842", "P29_003": "16016", "P29_004": "神戸・甲陽音楽＆ダンス専門学校", "P29_005": "兵庫県神戸市中央区伊藤町107-1", "P29_006": "4", "P29_007": "0", "P29_008": "00", "P29_009": null }, "geometry": { "type": "Point", "coordinates": [ 135.194707502033566, 34.687509599996247 ] } },
{ "type": "Feature", "properties": { "P29_001": "28110", "P29_002": "H128310000851", "P29_003": "16016", "P29_004": "神戸・甲陽音楽ダンス＆アート高等専修学校", "P29_005": "兵庫県神戸市中央区伊藤町107-1", "P29_006": "4", "P29_007": "0", "P29_008": "00", "P29_009": null }, "geometry": { "type": "Point", "coordinates": [ 135.194693857623946, 34.687411989357564 ] } },
{ "type": "Feature", "properties": { "P29_001": "28105", "P29_002": "H128310000860", "P29_003": "16016", "P29_004": "関西国際旅行・ホテル専門学校", "P29_005": "兵庫県神戸市兵庫区荒田町1-12-7", "P29_006": "4", "P29_007": "0", "P29_008": "00", "P29_009": null }, "geometry": { "type": "Point", "coordinates": [ 135.167792626600004, 34.681010257403514 ] } },
{ "type": "Feature", "properties": { "P29_001": "28201", "P29_002": "H128310000888", "P29_003": "16016", "P29_004": "兵庫徳誠会歯科衛生士学校", "P29_005": "兵庫県姫路市高尾町87", "P29_006": "4", "P29_007": "0", "P29_008": "00", "P29_009": null }, "geometry": { "type": "Point", "coordinates": [ 134.683948319036574, 34.829147722042741 ] } },
{ "type": "Feature", "properties": { "P29_001": "28110", "P29_002": "H128310000897", "P29_003": "16016", "P29_004": "高等専修学校神戸セミナー", "P29_005": "兵庫県神戸市中央区下山手通8-4-26", "P29_006": "4", "P29_007": "0", "P29_008": "00", "P29_009": null }, "geometry": { "type": "Point", "coordinates": [ 135.179033069892029, 34.685963030160629 ] } },
{ "type": "Feature", "properties": { "P29_001": "28111", "P29_002": "H128110000016", "P29_003": "16016", "P29_004": "国立神戸視力障害センター", "P29_005": "兵庫県神戸市西区曙町1070", "P29_006": "1", "P29_007": "0", "P29_008": "00", "P29_009": null }, "geometry": { "type": "Point", "coordinates": [ 134.978614755241153, 34.669665929706419 ] } },
{ "type": "Feature", "properties": { "P29_001": "28222", "P29_002": "H128210000041", "P29_003": "16016", "P29_004": "公立八鹿病院看護専門学校", "P29_005": "兵庫県養父市八鹿町下網場381-1", "P29_006": "3", "P29_007": "0", "P29_008": "00", "P29_009": null }, "geometry": { "type": "Point", "coordinates": [ 134.773548580338883, 35.404229412392056 ] } },
{ "type": "Feature", "properties": { "P29_001": "28101", "P29_002": "H128310000058", "P29_003": "16016", "P29_004": "専門学校アートカレッジ神戸", "P29_005": "兵庫県神戸市東灘区向洋町中1-15", "P29_006": "4", "P29_007": "0", "P29_008": "00", "P29_009": null }, "geometry": { "type": "Point", "coordinates": [ 135.270872670280056, 34.690592078605128 ] } },
{ "type": "Feature", "properties": { "P29_001": "28207", "P29_002": "H128310000067", "P29_003": "16016", "P29_004": "伊丹高等文化学院専門学校", "P29_005": "兵庫県伊丹市中央6-1-7", "P29_006": "4", "P29_007": "0", "P29_008": "00", "P29_009": null }, "geometry": { "type": "Point", "coordinates": [ 135.416544592161671, 34.779635702881279 ] } },
{ "type": "Feature", "properties": { "P29_001": "28107", "P29_002": "H128310000110", "P29_003": "16016", "P29_004": "神戸総合医療専門学校", "P29_005": "兵庫県神戸市須磨区友が丘7-1-21", "P29_006": "4", "P29_007": "0", "P29_008": "00", "P29_009": null }, "geometry": { "type": "Point", "coordinates": [ 135.10000875705876, 34.671960569899177 ] } },
{ "type": "Feature", "properties": { "P29_001": "28109", "P29_002": "H128310000156", "P29_003": "16016", "P29_004": "神戸中央病院附属看護専門学校", "P29_005": "兵庫県神戸市北区惣山町2-1-1", "P29_006": "4", "P29_007": "0", "P29_008": "00", "P29_009": null }, "geometry": { "type": "Point", "coordinates": [ 135.155810650561818, 34.73537952711731 ] } },
{ "type": "Feature", "properties": { "P29_001": "28201", "P29_002": "H128310000174", "P29_003": "16016", "P29_004": "姫路経営医療専門学校", "P29_005": "兵庫県姫路市阿保甲499-4", "P29_006": "4", "P29_007": "0", "P29_008": "00", "P29_009": null }, "geometry": { "type": "Point", "coordinates": [ 134.699885347107426, 34.822735610325644 ] } },
{ "type": "Feature", "properties": { "P29_001": "28210", "P29_002": "H128310000389", "P29_003": "16016", "P29_004": "恵愛ソフトウェア専門学校", "P29_005": "兵庫県加古川市平岡町新在家830", "P29_006": "4", "P29_007": "0", "P29_008": "00", "P29_009": null }, "geometry": { "type": "Point", "coordinates": [ 134.866716494364596, 34.749297354092363 ] } },
{ "type": "Feature", "properties": { "P29_001": "28101", "P29_002": "H128310000423", "P29_003": "16016", "P29_004": "神戸動植物環境専門学校", "P29_005": "兵庫県神戸市東灘区向洋町中1-16", "P29_006": "4", "P29_007": "0", "P29_008": "00", "P29_009": null }, "geometry": { "type": "Point", "coordinates": [ 135.27050348324326, 34.690519139450913 ] } },
{ "type": "Feature", "properties": { "P29_001": "28219", "P29_002": "H128310000548", "P29_003": "16016", "P29_004": "神戸医療福祉専門学校三田校", "P29_005": "兵庫県三田市福島501-85", "P29_006": "4", "P29_007": "0", "P29_008": "00", "P29_009": null }, "geometry": { "type": "Point", "coordinates": [ 135.207880999448435, 34.906541798437189 ] } },
{ "type": "Feature", "properties": { "P29_001": "28201", "P29_002": "H128310000673", "P29_003": "16016", "P29_004": "姫路歯科衛生専門学校", "P29_005": "兵庫県姫路市阿保甲499-4", "P29_006": "4", "P29_007": "0", "P29_008": "00", "P29_009": null }, "geometry": { "type": "Point", "coordinates": [ 134.699829843192703, 34.822545633711279 ] } },
{ "type": "Feature", "properties": { "P29_001": "28203", "P29_002": "H128310000771", "P29_003": "16016", "P29_004": "ＩＣＴ専門学校", "P29_005": "兵庫県明石市花園町1-1", "P29_006": "4", "P29_007": "0", "P29_008": "00", "P29_009": null }, "geometry": { "type": "Point", "coordinates": [ 134.965988694663849, 34.662811628827818 ] } },
{ "type": "Feature", "properties": { "P29_001": "28201", "P29_002": "H128310000879", "P29_003": "16016", "P29_004": "独立行政法人国立病院機構姫路医療センター附属看護学校", "P29_005": "兵庫県姫路市本町68", "P29_006": "0", "P29_007": "0", "P29_008": "00", "P29_009": null }, "geometry": { "type": "Point", "coordinates": [ 134.69950478984029, 34.838896930498997 ] } },
{ "type": "Feature", "properties": { "P29_001": "28202", "P29_002": "H128310000904", "P29_003": "16016", "P29_004": "アジア貢献ホスピタリティ専門学校", "P29_005": "兵庫県尼崎市久々知西町2-1-32", "P29_006": "4", "P29_007": "0", "P29_008": "00", "P29_009": null }, "geometry": { "type": "Point", "coordinates": [ 135.423789432029054, 34.738812560918916 ] } }
]
}
