{
"type": "FeatureCollection",
"name": "geo_28_介護医療院",
"crs": { "type": "name", "properties": { "name": "urn:ogc:def:crs:OGC:1.3:CRS84" } },
"features": [
{ "type": "Feature", "properties": { "内容": "東神戸病院介護医療院【介護医療院】神戸市東灘区住吉本町1丁目24番13号", "url": "https://www.kaigokensaku.mhlw.go.jp/28/index.php?action_kouhyou_detail_004_kani=true&JigyosyoCd=28B0100010-00&ServiceCd=550&Type=search", "url2": null }, "geometry": { "type": "Point", "coordinates": [ 135.2601812, 34.7222134 ] } },
{ "type": "Feature", "properties": { "内容": "医療法人愛和会　金沢病院　介護医療院【介護医療院】兵庫県神戸市灘区神ノ木通4-2-15", "url": "https://www.kaigokensaku.mhlw.go.jp/28/index.php?action_kouhyou_detail_004_kani=true&JigyosyoCd=28B0200018-00&ServiceCd=550&Type=search", "url2": "http://www.kanazawa-hp.jp" }, "geometry": { "type": "Point", "coordinates": [ 135.2289642, 34.713978800000014 ] } },
{ "type": "Feature", "properties": { "内容": "介護医療院すまいれすと夢野【介護医療院】兵庫県神戸市兵庫区熊野町５丁目１５番１４号", "url": "https://www.kaigokensaku.mhlw.go.jp/28/index.php?action_kouhyou_detail_004_kani=true&JigyosyoCd=28B0500011-00&ServiceCd=550&Type=search", "url2": "https://www.ryoseikai.or.jp/" }, "geometry": { "type": "Point", "coordinates": [ 135.153680935581974, 34.684793667046314 ] } },
{ "type": "Feature", "properties": { "内容": "介護医療院よしだ【介護医療院】兵庫県神戸市長田区東尻池町1丁目10-23", "url": "https://www.kaigokensaku.mhlw.go.jp/28/index.php?action_kouhyou_detail_004_kani=true&JigyosyoCd=28B0600019-00&ServiceCd=550&Type=search", "url2": "http://www.yoshida-hp.or.jp/" }, "geometry": { "type": "Point", "coordinates": [ 135.1560256, 34.6622731 ] } },
{ "type": "Feature", "properties": { "内容": "まほし介護医療院【介護医療院】兵庫県神戸市北区山田町上谷上字古々谷12番地の3", "url": "https://www.kaigokensaku.mhlw.go.jp/28/index.php?action_kouhyou_detail_004_kani=true&JigyosyoCd=28B5000017-00&ServiceCd=550&Type=search", "url2": "http://www.mahoshi.com/" }, "geometry": { "type": "Point", "coordinates": [ 135.189786599999934, 34.7710635 ] } },
{ "type": "Feature", "properties": { "内容": "医療法人社団　尚仁会　福山診療所　介護医療院【介護医療院】兵庫県神戸市北区菖蒲が丘１丁目１４番地１", "url": "https://www.kaigokensaku.mhlw.go.jp/28/index.php?action_kouhyou_detail_004_kani=true&JigyosyoCd=28B5000025-00&ServiceCd=550&Type=search", "url2": null }, "geometry": { "type": "Point", "coordinates": [ 135.2181644, 34.839445 ] } },
{ "type": "Feature", "properties": { "内容": "ポートアイランド介護医療院【介護医療院】兵庫県神戸市中央区港島中町4-6メディケアセンタービル", "url": "https://www.kaigokensaku.mhlw.go.jp/28/index.php?action_kouhyou_detail_004_kani=true&JigyosyoCd=28B5100015-00&ServiceCd=550&Type=search", "url2": "http://www.pi.kobe-mariners.or.jp/" }, "geometry": { "type": "Point", "coordinates": [ 135.2090473, 34.66869040000001 ] } },
{ "type": "Feature", "properties": { "内容": "社会医療法人　恵風会　介護医療院　ヴェルデ【介護医療院】兵庫県姫路市西今宿５丁目３番８号", "url": "https://www.kaigokensaku.mhlw.go.jp/28/index.php?action_kouhyou_detail_004_kani=true&JigyosyoCd=28B4000026-00&ServiceCd=550&Type=search", "url2": "http://www.keifukai.or.jp/" }, "geometry": { "type": "Point", "coordinates": [ 134.6612409, 34.8452927 ] } },
{ "type": "Feature", "properties": { "内容": "厚生病院介護医療院【介護医療院】兵庫県姫路市御立西４丁目１番２５号", "url": "https://www.kaigokensaku.mhlw.go.jp/28/index.php?action_kouhyou_detail_004_kani=true&JigyosyoCd=28B4000018-00&ServiceCd=550&Type=search", "url2": "www.kousei-hp.jp/" }, "geometry": { "type": "Point", "coordinates": [ 134.660021300000011, 34.861654 ] } },
{ "type": "Feature", "properties": { "内容": "國富胃腸病院介護医療院【介護医療院】兵庫県姫路市青山３丁目３３番１号", "url": "https://www.kaigokensaku.mhlw.go.jp/28/index.php?action_kouhyou_detail_004_kani=true&JigyosyoCd=2814020067-00&ServiceCd=550&Type=search", "url2": "www.kunitomi-icho-hp.com" }, "geometry": { "type": "Point", "coordinates": [ 134.642175391550865, 34.84439424069793 ] } },
{ "type": "Feature", "properties": { "内容": "日並内科外科医院　介護医療院【介護医療院】兵庫県姫路市香寺町犬飼502", "url": "https://www.kaigokensaku.mhlw.go.jp/28/index.php?action_kouhyou_detail_004_kani=true&JigyosyoCd=28B4000034-00&ServiceCd=550&Type=search", "url2": "http://hinami-naikageka.or.jp" }, "geometry": { "type": "Point", "coordinates": [ 134.7344043, 34.9001973 ] } },
{ "type": "Feature", "properties": { "内容": "つかぐち介護医療院【介護医療院】兵庫県尼崎市南塚口町6丁目8番地1号", "url": "https://www.kaigokensaku.mhlw.go.jp/28/index.php?action_kouhyou_detail_004_kani=true&JigyosyoCd=28B3000019-00&ServiceCd=550&Type=search", "url2": "https://www.kensei-kai-tsukaguchi.jp/" }, "geometry": { "type": "Point", "coordinates": [ 135.415941800000013, 34.7463721 ] } },
{ "type": "Feature", "properties": { "内容": "介護医療院トワイエ尼崎【介護医療院】尼崎市南塚口町6丁目8番22号", "url": "https://www.kaigokensaku.mhlw.go.jp/28/index.php?action_kouhyou_detail_004_kani=true&JigyosyoCd=28B3000027-00&ServiceCd=550&Type=search", "url2": "https://amar.or.jp/towaie/" }, "geometry": { "type": "Point", "coordinates": [ 135.41525870000001, 34.7463397 ] } },
{ "type": "Feature", "properties": { "内容": "くまの介護医療院【介護医療院】兵庫県西宮市下大市西町14番13号", "url": "https://www.kaigokensaku.mhlw.go.jp/28/index.php?action_kouhyou_detail_004_kani=true&JigyosyoCd=28B0900021-00&ServiceCd=550&Type=search", "url2": "https://kumano-hp.com/" }, "geometry": { "type": "Point", "coordinates": [ 135.3602158, 34.761783600000015 ] } },
{ "type": "Feature", "properties": { "内容": "三好病院介護医療院【介護医療院】兵庫県西宮市甲子園口北町24-9", "url": "https://www.kaigokensaku.mhlw.go.jp/28/index.php?action_kouhyou_detail_004_kani=true&JigyosyoCd=28B0900013-00&ServiceCd=550&Type=search", "url2": "https://miyoshi-hp.jp/" }, "geometry": { "type": "Point", "coordinates": [ 135.3769115, 34.741720600000022 ] } },
{ "type": "Feature", "properties": { "内容": "介護医療院　ケアヴィラ伊丹【介護医療院】兵庫県伊丹市大野１丁目3-2", "url": "https://www.kaigokensaku.mhlw.go.jp/28/index.php?action_kouhyou_detail_004_kani=true&JigyosyoCd=28B3300013-00&ServiceCd=550&Type=search", "url2": "https://carevilla.com/itami/index.html" }, "geometry": { "type": "Point", "coordinates": [ 135.40120490000001, 34.8044443 ] } },
{ "type": "Feature", "properties": { "内容": "いなみ野病院介護医療院【介護医療院】兵庫県加古川市平岡町土山字川池423-2", "url": "https://www.kaigokensaku.mhlw.go.jp/28/index.php?action_kouhyou_detail_004_kani=true&JigyosyoCd=28B2200016-00&ServiceCd=550&Type=search", "url2": "https://inamino-hp.senreikai.org/" }, "geometry": { "type": "Point", "coordinates": [ 134.8962865, 34.7298815 ] } },
{ "type": "Feature", "properties": { "内容": "医療法人社団九十九記念病院介護医療院【介護医療院】兵庫県川西市栄町10番4号", "url": "https://www.kaigokensaku.mhlw.go.jp/28/index.php?action_kouhyou_detail_004_kani=true&JigyosyoCd=28B3100025-00&ServiceCd=550&Type=search", "url2": "http://www.tukumo-kinenhp.jp/" }, "geometry": { "type": "Point", "coordinates": [ 135.4137574, 34.8291646 ] } },
{ "type": "Feature", "properties": { "内容": "平島病院　介護医療院【介護医療院】兵庫県三田市天神1丁目2番15号", "url": "https://www.kaigokensaku.mhlw.go.jp/28/index.php?action_kouhyou_detail_004_kani=true&JigyosyoCd=28B1200017-00&ServiceCd=550&Type=search", "url2": "https://www.mc-shojin.or.jp/" }, "geometry": { "type": "Point", "coordinates": [ 135.222271299999989, 34.8897028 ] } },
{ "type": "Feature", "properties": { "内容": "米田病院介護医療院【介護医療院】兵庫県加西市尾崎町字野田10番1", "url": "https://www.kaigokensaku.mhlw.go.jp/28/index.php?action_kouhyou_detail_004_kani=true&JigyosyoCd=28B2600017-00&ServiceCd=550&Type=search", "url2": "http:/www.yoneda-hospital.com/" }, "geometry": { "type": "Point", "coordinates": [ 134.844116899999989, 34.9016338 ] } },
{ "type": "Feature", "properties": { "内容": "介護医療院　ふきの郷【介護医療院】東吹1015番1", "url": "https://www.kaigokensaku.mhlw.go.jp/28/index.php?action_kouhyou_detail_004_kani=true&JigyosyoCd=28B1400013-00&ServiceCd=550&Type=search", "url2": "http://www.kiyoukai.com" }, "geometry": { "type": "Point", "coordinates": [ 135.1974606, 35.070727 ] } },
{ "type": "Feature", "properties": { "内容": "脳神経外科枚田クリニック介護医療院【介護医療院】兵庫県養父市上野1168", "url": "https://www.kaigokensaku.mhlw.go.jp/28/index.php?action_kouhyou_detail_004_kani=true&JigyosyoCd=28B4800011-00&ServiceCd=550&Type=search", "url2": "https://www.hirata-cl.com/" }, "geometry": { "type": "Point", "coordinates": [ 134.7850539, 35.3760149 ] } },
{ "type": "Feature", "properties": { "内容": "平成病院　平成介護医療院【介護医療院】兵庫県南あわじ市八木養宜中１７３", "url": "https://www.kaigokensaku.mhlw.go.jp/28/index.php?action_kouhyou_detail_004_kani=true&JigyosyoCd=28B1700016-00&ServiceCd=550&Type=search", "url2": "https://heiseihp.jp/" }, "geometry": { "type": "Point", "coordinates": [ 134.7959538, 34.3023992 ] } },
{ "type": "Feature", "properties": { "内容": "東浦介護医療院【介護医療院】久留麻1869番地", "url": "https://www.kaigokensaku.mhlw.go.jp/28/index.php?action_kouhyou_detail_004_kani=true&JigyosyoCd=28B1600018-00&ServiceCd=550&Type=search", "url2": "https://higashihp.jp/" }, "geometry": { "type": "Point", "coordinates": [ 134.9867165, 34.5245399 ] } },
{ "type": "Feature", "properties": { "内容": "医療法人社団衿正会　生駒病院介護医療院【介護医療院】兵庫県川辺郡猪名川町広根字九十九8", "url": "https://www.kaigokensaku.mhlw.go.jp/28/index.php?action_kouhyou_detail_004_kani=true&JigyosyoCd=28B3200015-00&ServiceCd=550&Type=search", "url2": "https://www.ikoma-hp.com" }, "geometry": { "type": "Point", "coordinates": [ 135.3727364, 34.8905916 ] } },
{ "type": "Feature", "properties": { "内容": "多可赤十字介護医療院【介護医療院】兵庫県多可郡多可町中区岸上280-19多可赤十字介護医療院", "url": "https://www.kaigokensaku.mhlw.go.jp/28/index.php?action_kouhyou_detail_004_kani=true&JigyosyoCd=28B2700015-00&ServiceCd=550&Type=search", "url2": "http://www.taka.jrc.or.jp" }, "geometry": { "type": "Point", "coordinates": [ 134.923287132679746, 35.054107223177191 ] } },
{ "type": "Feature", "properties": { "内容": "医療法人社団一葉会きねん介護医療院【介護医療院】兵庫県佐用郡佐用町佐用1132-25", "url": "https://www.kaigokensaku.mhlw.go.jp/28/index.php?action_kouhyou_detail_004_kani=true&JigyosyoCd=28B3700014-00&ServiceCd=550&Type=search", "url2": "http://sayohp.jp/" }, "geometry": { "type": "Point", "coordinates": [ 134.35182180000001, 35.0062843 ] } }
]
}
