{
"type": "FeatureCollection",
"name": "geo_28_看護小規模多機能型居宅介護（複合型サービス）",
"crs": { "type": "name", "properties": { "name": "urn:ogc:def:crs:OGC:1.3:CRS84" } },
"features": [
{ "type": "Feature", "properties": { "内容": "みかげ倶楽部【看護小規模多機能型居宅介護（複合型サービス）】兵庫県神戸市東灘区住吉山手2丁目11番26号", "url": "https://www.kaigokensaku.mhlw.go.jp/28/index.php?action_kouhyou_detail_004_kani=true&JigyosyoCd=2890100437-00&ServiceCd=&Type=search", "url2": "http://mikage-club.com/" }, "geometry": { "type": "Point", "coordinates": [ 135.256352389234678, 34.727049244903895 ] } },
{ "type": "Feature", "properties": { "内容": "やさしい手看護小規模多機能型居宅介護かえりえ東灘【看護小規模多機能型居宅介護（複合型サービス）】青木3-1-43", "url": "https://www.kaigokensaku.mhlw.go.jp/28/index.php?action_kouhyou_detail_004_kani=true&JigyosyoCd=2890100338-00&ServiceCd=&Type=search", "url2": "http://www.yasashiite.com/subdomains/section/532/" }, "geometry": { "type": "Point", "coordinates": [ 135.282841700000063, 34.7143256 ] } },
{ "type": "Feature", "properties": { "内容": "看護小規模多機能COCOグレージュ六甲【看護小規模多機能型居宅介護（複合型サービス）】神戸市灘区六甲町４－２－２１", "url": "https://www.kaigokensaku.mhlw.go.jp/28/index.php?action_kouhyou_detail_004_kani=true&JigyosyoCd=2890200286-00&ServiceCd=&Type=search", "url2": "https://emtown.co.jp/" }, "geometry": { "type": "Point", "coordinates": [ 135.2332903, 34.7142566 ] } },
{ "type": "Feature", "properties": { "内容": "看護小規模多機能型居宅介護つむぎびと【看護小規模多機能型居宅介護（複合型サービス）】兵庫県神戸市兵庫区雪御所町２－１５ＮＡＴＵＲＥＳＴＵＤＩＯＷＥＳＴ　Ｃ－２０３", "url": "https://www.kaigokensaku.mhlw.go.jp/28/index.php?action_kouhyou_detail_004_kani=true&JigyosyoCd=2890500305-00&ServiceCd=&Type=search", "url2": null }, "geometry": { "type": "Point", "coordinates": [ 135.1652412, 34.6891369 ] } },
{ "type": "Feature", "properties": { "内容": "看護小規模多機能みどり【看護小規模多機能型居宅介護（複合型サービス）】兵庫県神戸市長田区房王寺町６丁目２番１３号長田みどり苑", "url": "https://www.kaigokensaku.mhlw.go.jp/28/index.php?action_kouhyou_detail_004_kani=true&JigyosyoCd=2890600329-00&ServiceCd=&Type=search", "url2": "http://www.sendankai.or.jp/" }, "geometry": { "type": "Point", "coordinates": [ 135.1498891, 34.6824077 ] } },
{ "type": "Feature", "properties": { "内容": "MEINHAUS看護小規模多機能型居宅介護【看護小規模多機能型居宅介護（複合型サービス）】兵庫県神戸市須磨区大手町6丁目2番11号", "url": "https://www.kaigokensaku.mhlw.go.jp/28/index.php?action_kouhyou_detail_004_kani=true&JigyosyoCd=2890700186-00&ServiceCd=&Type=search", "url2": "http://meinhaus1001.com" }, "geometry": { "type": "Point", "coordinates": [ 135.1293971, 34.659102543800245 ] } },
{ "type": "Feature", "properties": { "内容": "MEINHAUSVilla看護小規模多機能型居宅介護【看護小規模多機能型居宅介護（複合型サービス）】兵庫県神戸市須磨区大手町6丁目5-16", "url": "https://www.kaigokensaku.mhlw.go.jp/28/index.php?action_kouhyou_detail_004_kani=true&JigyosyoCd=2890700384-00&ServiceCd=&Type=search", "url2": "meinhaus1001.com" }, "geometry": { "type": "Point", "coordinates": [ 135.1290956, 34.659387100000025 ] } },
{ "type": "Feature", "properties": { "内容": "看護小規模多機能型居宅介護　せんじゅ【看護小規模多機能型居宅介護（複合型サービス）】兵庫県神戸市垂水区宮本町1－28ジョイビル4階", "url": "https://www.kaigokensaku.mhlw.go.jp/28/index.php?action_kouhyou_detail_004_kani=true&JigyosyoCd=2890800705-00&ServiceCd=&Type=search", "url2": "https://senjyu-moegi.com" }, "geometry": { "type": "Point", "coordinates": [ 135.053672, 34.6281401 ] } },
{ "type": "Feature", "properties": { "内容": "看護小規模多機能型居宅介護　みょうだに倶楽部【看護小規模多機能型居宅介護（複合型サービス）】兵庫県神戸市垂水区名谷町1874", "url": "https://www.kaigokensaku.mhlw.go.jp/28/index.php?action_kouhyou_detail_004_kani=true&JigyosyoCd=2890800366-00&ServiceCd=&Type=search", "url2": "http://nikko-kei.jp/" }, "geometry": { "type": "Point", "coordinates": [ 135.071339640475486, 34.660934654387283 ] } },
{ "type": "Feature", "properties": { "内容": "看護小規模多機能型居宅介護さくらホーム【看護小規模多機能型居宅介護（複合型サービス）】兵庫県神戸市北区山田町小部字惣六畑山8-18", "url": "https://www.kaigokensaku.mhlw.go.jp/28/index.php?action_kouhyou_detail_004_kani=true&JigyosyoCd=2895000186-00&ServiceCd=&Type=search", "url2": "http://www.yasuragi-swc.or.jp" }, "geometry": { "type": "Point", "coordinates": [ 135.160785300000072, 34.7371245 ] } },
{ "type": "Feature", "properties": { "内容": "うさぎの丘　鈴蘭台【看護小規模多機能型居宅介護（複合型サービス）】兵庫県神戸市北区鈴蘭台西町１丁目１６－３", "url": "https://www.kaigokensaku.mhlw.go.jp/28/index.php?action_kouhyou_detail_004_kani=true&JigyosyoCd=2895000368-00&ServiceCd=&Type=search", "url2": "http://www.koudai-care.co.jp/" }, "geometry": { "type": "Point", "coordinates": [ 135.143061799999941, 34.7262016 ] } },
{ "type": "Feature", "properties": { "内容": "看護小規模多機能ホームなるこ【看護小規模多機能型居宅介護（複合型サービス）】兵庫県神戸市北区鳴子3丁目1番", "url": "https://www.kaigokensaku.mhlw.go.jp/28/index.php?action_kouhyou_detail_004_kani=true&JigyosyoCd=2895000517-00&ServiceCd=&Type=search", "url2": "https://asukafukushikai.com" }, "geometry": { "type": "Point", "coordinates": [ 135.127528, 34.7255529 ] } },
{ "type": "Feature", "properties": { "内容": "看護小規模多機能型居宅介護なでしこ神戸【看護小規模多機能型居宅介護（複合型サービス）】兵庫県神戸市北区藤原台南町3丁目18番4号", "url": "https://www.kaigokensaku.mhlw.go.jp/28/index.php?action_kouhyou_detail_004_kani=true&JigyosyoCd=2895000152-00&ServiceCd=&Type=search", "url2": "http://fujinosato.info/" }, "geometry": { "type": "Point", "coordinates": [ 135.202897200000052, 34.8118855 ] } },
{ "type": "Feature", "properties": { "内容": "看護小規模多機能型居宅介護つついの杜【看護小規模多機能型居宅介護（複合型サービス）】兵庫県神戸市中央区宮本通3-1-30", "url": "https://www.kaigokensaku.mhlw.go.jp/28/index.php?action_kouhyou_detail_004_kani=true&JigyosyoCd=2895100127-00&ServiceCd=&Type=search", "url2": "https://asukacarelife.co.jp/" }, "geometry": { "type": "Point", "coordinates": [ 135.210606928836086, 34.707413781079985 ] } },
{ "type": "Feature", "properties": { "内容": "ガーデンライフファミリー神戸西【看護小規模多機能型居宅介護（複合型サービス）】兵庫県神戸市西区玉津町出合220-1ガーデンライフ神戸西", "url": "https://www.kaigokensaku.mhlw.go.jp/28/index.php?action_kouhyou_detail_004_kani=true&JigyosyoCd=2895200141-00&ServiceCd=&Type=search", "url2": "https://www.yuko-kai.net/gardenlife/" }, "geometry": { "type": "Point", "coordinates": [ 134.981018400000011, 34.6745141 ] } },
{ "type": "Feature", "properties": { "内容": "看護小規模多機能型居宅介護　みたに【看護小規模多機能型居宅介護（複合型サービス）】兵庫県神戸市西区水谷１丁目19-28", "url": "https://www.kaigokensaku.mhlw.go.jp/28/index.php?action_kouhyou_detail_004_kani=true&JigyosyoCd=2895200539-00&ServiceCd=&Type=search", "url2": "https://kobe-hinode.or.jp/" }, "geometry": { "type": "Point", "coordinates": [ 134.998381068647774, 34.681217224143566 ] } },
{ "type": "Feature", "properties": { "内容": "看多機かえりえ伊川谷有瀬【看護小規模多機能型居宅介護（複合型サービス）】兵庫県　　神戸市西区伊川谷町有瀬558－6", "url": "https://www.kaigokensaku.mhlw.go.jp/28/index.php?action_kouhyou_detail_004_kani=true&JigyosyoCd=2895200414-00&ServiceCd=&Type=search", "url2": "https://www.yasashiite.com/subdomains/section/770/" }, "geometry": { "type": "Point", "coordinates": [ 135.027255599999989, 34.6647809 ] } },
{ "type": "Feature", "properties": { "内容": "看護小規模多機能型居宅介護　伊川谷すみれハウス【看護小規模多機能型居宅介護（複合型サービス）】兵庫県神戸市西区白水1丁目2-25", "url": "https://www.kaigokensaku.mhlw.go.jp/28/index.php?action_kouhyou_detail_004_kani=true&JigyosyoCd=2895200463-00&ServiceCd=&Type=search", "url2": "http://ikawadani-sumire-house.jp" }, "geometry": { "type": "Point", "coordinates": [ 135.004244, 34.6715644 ] } },
{ "type": "Feature", "properties": { "内容": "看護小規模多機能てがら【看護小規模多機能型居宅介護（複合型サービス）】兵庫県姫路市飯田472番地1", "url": "https://www.kaigokensaku.mhlw.go.jp/28/index.php?action_kouhyou_detail_004_kani=true&JigyosyoCd=2894001045-00&ServiceCd=&Type=search", "url2": "th-tegara@himeji-mcoop.or.jp" }, "geometry": { "type": "Point", "coordinates": [ 134.669412299999976, 34.8150684 ] } },
{ "type": "Feature", "properties": { "内容": "看護小規模多機能すずかぜ【看護小規模多機能型居宅介護（複合型サービス）】砥堀630", "url": "https://www.kaigokensaku.mhlw.go.jp/28/index.php?action_kouhyou_detail_004_kani=true&JigyosyoCd=2894001052-00&ServiceCd=&Type=search", "url2": "http://www.himeji-mcoop.or.jp" }, "geometry": { "type": "Point", "coordinates": [ 134.726675, 34.868771799999976 ] } },
{ "type": "Feature", "properties": { "内容": "看護小規模多機能　書写ひまわりホーム【看護小規模多機能型居宅介護（複合型サービス）】兵庫県姫路市634-50", "url": "https://www.kaigokensaku.mhlw.go.jp/28/index.php?action_kouhyou_detail_004_kani=true&JigyosyoCd=2894000971-00&ServiceCd=&Type=search", "url2": "http://himawarihome.or.jp" }, "geometry": { "type": "Point", "coordinates": [ 134.659789, 34.8674218 ] } },
{ "type": "Feature", "properties": { "内容": "看護小規模多機能ケアぬくもり【看護小規模多機能型居宅介護（複合型サービス）】兵庫県姫路市勝原区宮田190-1", "url": "https://www.kaigokensaku.mhlw.go.jp/28/index.php?action_kouhyou_detail_004_kani=true&JigyosyoCd=2894000989-00&ServiceCd=&Type=search", "url2": null }, "geometry": { "type": "Point", "coordinates": [ 134.598309400000062, 34.8074656 ] } },
{ "type": "Feature", "properties": { "内容": "看護小規模多機能型居宅介護　ゆとり庵今在家【看護小規模多機能型居宅介護（複合型サービス）】兵庫県姫路市飾磨区今在家北３丁目１０５", "url": "https://www.kaigokensaku.mhlw.go.jp/28/index.php?action_kouhyou_detail_004_kani=true&JigyosyoCd=2894001029-00&ServiceCd=&Type=search", "url2": "https://hinode.or.jp/establishment/yutorian-imazaike/" }, "geometry": { "type": "Point", "coordinates": [ 134.655421100000012, 34.8111658 ] } },
{ "type": "Feature", "properties": { "内容": "あっぷる看護多機能ひめじ【看護小規模多機能型居宅介護（複合型サービス）】兵庫県姫路市宮西町3丁目14", "url": "https://www.kaigokensaku.mhlw.go.jp/28/index.php?action_kouhyou_detail_004_kani=true&JigyosyoCd=2894001391-00&ServiceCd=&Type=search", "url2": "https://www.apple-117.jp/" }, "geometry": { "type": "Point", "coordinates": [ 134.7049642, 34.8273282 ] } },
{ "type": "Feature", "properties": { "内容": "看護小規模多機能夢前ひまわりホーム【看護小規模多機能型居宅介護（複合型サービス）】兵庫県姫路市夢前町置本４３９番地１看護小規模多機能夢前ひまわりホーム", "url": "https://www.kaigokensaku.mhlw.go.jp/28/index.php?action_kouhyou_detail_004_kani=true&JigyosyoCd=2894001326-00&ServiceCd=&Type=search", "url2": "https://himawarihome.or.jp" }, "geometry": { "type": "Point", "coordinates": [ 134.6693019, 34.903832700000017 ] } },
{ "type": "Feature", "properties": { "内容": "かんたき武庫之荘【看護小規模多機能型居宅介護（複合型サービス）】兵庫県尼崎市武庫豊町二丁目12番6号", "url": "https://www.kaigokensaku.mhlw.go.jp/28/index.php?action_kouhyou_detail_004_kani=true&JigyosyoCd=2893000709-00&ServiceCd=&Type=search", "url2": "https://nursing.nursing-hc.co.jp/fcl/kantaki-mukonoso.html" }, "geometry": { "type": "Point", "coordinates": [ 135.379347199999984, 34.763861 ] } },
{ "type": "Feature", "properties": { "内容": "かんたき尼崎【看護小規模多機能型居宅介護（複合型サービス）】次屋１丁目９番１号", "url": "https://www.kaigokensaku.mhlw.go.jp/28/index.php?action_kouhyou_detail_004_kani=true&JigyosyoCd=2893000659-00&ServiceCd=&Type=search", "url2": "http://www.nursing-hc.co.jp/" }, "geometry": { "type": "Point", "coordinates": [ 135.438920100000018, 34.7368847 ] } },
{ "type": "Feature", "properties": { "内容": "看護小規模多機能型居宅介護桜うさぎ【看護小規模多機能型居宅介護（複合型サービス）】稲葉元町2丁目1番12号", "url": "https://www.kaigokensaku.mhlw.go.jp/28/index.php?action_kouhyou_detail_004_kani=true&JigyosyoCd=2893001145-00&ServiceCd=&Type=search", "url2": "https://koudai-care.co.jp/" }, "geometry": { "type": "Point", "coordinates": [ 135.4976486, 34.6623888 ] } },
{ "type": "Feature", "properties": { "内容": "看護小規模多機能型居宅介護ゆとり庵大久保【看護小規模多機能型居宅介護（複合型サービス）】兵庫県明石市大久保町西脇519", "url": "https://www.kaigokensaku.mhlw.go.jp/28/index.php?action_kouhyou_detail_004_kani=true&JigyosyoCd=2892000569-00&ServiceCd=&Type=search", "url2": "https://hinode.or.jp/about/hakuaifukushikai/" }, "geometry": { "type": "Point", "coordinates": [ 134.930525799999941, 34.6900421 ] } },
{ "type": "Feature", "properties": { "内容": "かえりえ西明石【看護小規模多機能型居宅介護（複合型サービス）】野々上2-6-17", "url": "https://www.kaigokensaku.mhlw.go.jp/28/index.php?action_kouhyou_detail_004_kani=true&JigyosyoCd=2892000411-00&ServiceCd=&Type=search", "url2": "http://www.yasashiite.com/subdomains/section/362/" }, "geometry": { "type": "Point", "coordinates": [ 134.9693112, 34.668218500000044 ] } },
{ "type": "Feature", "properties": { "内容": "看護小規模多機能型居宅介護よつは【看護小規模多機能型居宅介護（複合型サービス）】魚住町住吉1-7-10よつはメディカルケア３F", "url": "https://www.kaigokensaku.mhlw.go.jp/28/index.php?action_kouhyou_detail_004_kani=true&JigyosyoCd=2892000718-00&ServiceCd=&Type=search", "url2": "https://yotsuha.org/" }, "geometry": { "type": "Point", "coordinates": [ 134.9049712, 34.6920679 ] } },
{ "type": "Feature", "properties": { "内容": "ステディホーム　リハ・リハ【看護小規模多機能型居宅介護（複合型サービス）】明石市大久保町茜3丁目15－4", "url": "https://www.kaigokensaku.mhlw.go.jp/28/index.php?action_kouhyou_detail_004_kani=true&JigyosyoCd=2892000668-00&ServiceCd=&Type=search", "url2": null }, "geometry": { "type": "Point", "coordinates": [ 134.9342374, 34.6924506 ] } },
{ "type": "Feature", "properties": { "内容": "看護小規模多機能型居宅介護　ミライズ【看護小規模多機能型居宅介護（複合型サービス）】大久保町大窪1375-1", "url": "https://www.kaigokensaku.mhlw.go.jp/28/index.php?action_kouhyou_detail_004_kani=true&JigyosyoCd=2892000627-00&ServiceCd=&Type=search", "url2": "https://www.merise-care.com/merise/" }, "geometry": { "type": "Point", "coordinates": [ 134.946393299999954, 34.6911543 ] } },
{ "type": "Feature", "properties": { "内容": "看護小規模多機能居宅介護さくら【看護小規模多機能型居宅介護（複合型サービス）】伊丹市中野西1-141", "url": "https://www.kaigokensaku.mhlw.go.jp/28/index.php?action_kouhyou_detail_004_kani=true&JigyosyoCd=2893300489-00&ServiceCd=&Type=search", "url2": "http://jigyoudan-itami-hyogo.jp/" }, "geometry": { "type": "Point", "coordinates": [ 135.3852153, 34.7878658 ] } },
{ "type": "Feature", "properties": { "内容": "サテライト型看護小規模多機能居宅介護さくら【看護小規模多機能型居宅介護（複合型サービス）】伊丹市行基町1-98", "url": "https://www.kaigokensaku.mhlw.go.jp/28/index.php?action_kouhyou_detail_004_kani=true&JigyosyoCd=2893300497-00&ServiceCd=&Type=search", "url2": "http://jigyoudan-itami-hyogo.jp/" }, "geometry": { "type": "Point", "coordinates": [ 135.4076249, 34.7815689 ] } },
{ "type": "Feature", "properties": { "内容": "看護小規模多機能型居宅介護ホーム伊丹ゆうあい【看護小規模多機能型居宅介護（複合型サービス）】兵庫県伊丹市荒牧6丁目16番11号", "url": "https://www.kaigokensaku.mhlw.go.jp/28/index.php?action_kouhyou_detail_004_kani=true&JigyosyoCd=2893300471-00&ServiceCd=&Type=search", "url2": "https://seishokai-gr.or.jp/common/pdf/home_itami_yuuai2.pdf" }, "geometry": { "type": "Point", "coordinates": [ 135.3879052, 34.8125061 ] } },
{ "type": "Feature", "properties": { "内容": "さくらホーム　おおの家【看護小規模多機能型居宅介護（複合型サービス）】兵庫県相生市大谷町1-20さくらホーム　おおの家", "url": "https://www.kaigokensaku.mhlw.go.jp/28/index.php?action_kouhyou_detail_004_kani=true&JigyosyoCd=2894200035-00&ServiceCd=&Type=search", "url2": "https://www.tomo-sakurahome.net/" }, "geometry": { "type": "Point", "coordinates": [ 134.4768401, 34.7971502 ] } },
{ "type": "Feature", "properties": { "内容": "看護小規模多機能型居宅介護事業所リガレッセ【看護小規模多機能型居宅介護（複合型サービス）】兵庫県豊岡市日高町荒川310", "url": "https://www.kaigokensaku.mhlw.go.jp/28/index.php?action_kouhyou_detail_004_kani=true&JigyosyoCd=2894400205-00&ServiceCd=&Type=search", "url2": "https://rigaresse.or.jp/kantaki" }, "geometry": { "type": "Point", "coordinates": [ 134.720914799999946, 35.4603472 ] } },
{ "type": "Feature", "properties": { "内容": "順心会看護小規模多機能型居宅介護別府【看護小規模多機能型居宅介護（複合型サービス）】加古川市別府町別府861-5", "url": "https://www.kaigokensaku.mhlw.go.jp/28/index.php?action_kouhyou_detail_004_kani=true&JigyosyoCd=2892200508-00&ServiceCd=&Type=search", "url2": "https://www.junshin.or.jp/" }, "geometry": { "type": "Point", "coordinates": [ 134.85076810000001, 34.7353902 ] } },
{ "type": "Feature", "properties": { "内容": "看護小規模多機能型居宅介護　ゆとり庵　石守【看護小規模多機能型居宅介護（複合型サービス）】兵庫県加古川市神野町石守301-4-1", "url": "https://www.kaigokensaku.mhlw.go.jp/28/index.php?action_kouhyou_detail_004_kani=true&JigyosyoCd=2892200243-00&ServiceCd=&Type=search", "url2": "https://hinode.or.jp/yutorian-ishimori/" }, "geometry": { "type": "Point", "coordinates": [ 134.881928644657904, 34.765220221113694 ] } },
{ "type": "Feature", "properties": { "内容": "看護小規模多機能型居宅介護　ゆとり庵米田【看護小規模多機能型居宅介護（複合型サービス）】兵庫県加古川市米田町平津413-1", "url": "https://www.kaigokensaku.mhlw.go.jp/28/index.php?action_kouhyou_detail_004_kani=true&JigyosyoCd=2892200417-00&ServiceCd=&Type=search", "url2": "https://hinode.or.jp/establishment/yutorian-yoneda/" }, "geometry": { "type": "Point", "coordinates": [ 134.8154798, 34.7855673 ] } },
{ "type": "Feature", "properties": { "内容": "やさしい手看護小規模多機能型居宅介護かえりえ加古川尾上【看護小規模多機能型居宅介護（複合型サービス）】兵庫県加古川市尾上町池田1681－1", "url": "https://www.kaigokensaku.mhlw.go.jp/28/index.php?action_kouhyou_detail_004_kani=true&JigyosyoCd=2892200789-00&ServiceCd=&Type=search", "url2": "https://search.yasashiite.com/detail/kantaki_kakogawa/" }, "geometry": { "type": "Point", "coordinates": [ 134.827147321842943, 34.732143203679186 ] } },
{ "type": "Feature", "properties": { "内容": "看護小規模多機能型居宅介護　みづき【看護小規模多機能型居宅介護（複合型サービス）】兵庫県加古川市野口町古大内67-1", "url": "https://www.kaigokensaku.mhlw.go.jp/28/index.php?action_kouhyou_detail_004_kani=true&JigyosyoCd=2892200763-00&ServiceCd=&Type=search", "url2": "https://group-kirameki.com/" }, "geometry": { "type": "Point", "coordinates": [ 134.852663037573222, 34.745370928968235 ] } },
{ "type": "Feature", "properties": { "内容": "看護小規模多機能型居宅介護　ゆとり庵別府【看護小規模多機能型居宅介護（複合型サービス）】兵庫県加古川市別府町中島町26", "url": "https://www.kaigokensaku.mhlw.go.jp/28/index.php?action_kouhyou_detail_004_kani=true&JigyosyoCd=2892200383-00&ServiceCd=&Type=search", "url2": "https://hinode.or.jp/yutorian-befu/" }, "geometry": { "type": "Point", "coordinates": [ 134.845591399999989, 34.7299389 ] } },
{ "type": "Feature", "properties": { "内容": "看護小規模多機能型居宅介護施設あるふぁ【看護小規模多機能型居宅介護（複合型サービス）】兵庫県加古川市野口町水足2052ｰ1", "url": "https://www.kaigokensaku.mhlw.go.jp/28/index.php?action_kouhyou_detail_004_kani=true&JigyosyoCd=2892200698-00&ServiceCd=&Type=search", "url2": "https://alfa.kantaki.jp/" }, "geometry": { "type": "Point", "coordinates": [ 134.8728432, 34.7641593 ] } },
{ "type": "Feature", "properties": { "内容": "看多機こみなみ日岡の家【看護小規模多機能型居宅介護（複合型サービス）】兵庫県加古川市加古川町大野1416番", "url": "https://www.kaigokensaku.mhlw.go.jp/28/index.php?action_kouhyou_detail_004_kani=true&JigyosyoCd=2892200722-00&ServiceCd=&Type=search", "url2": "https://www.kominami.co.jp/" }, "geometry": { "type": "Point", "coordinates": [ 134.8612015, 34.7736536 ] } },
{ "type": "Feature", "properties": { "内容": "三木すみれ看護小規模多機能型居宅介護【看護小規模多機能型居宅介護（複合型サービス）】兵庫県三木市志染町吉田1241-53", "url": "https://www.kaigokensaku.mhlw.go.jp/28/index.php?action_kouhyou_detail_004_kani=true&JigyosyoCd=2892300167-00&ServiceCd=&Type=search", "url2": "https://miki-sumire-v.jp/" }, "geometry": { "type": "Point", "coordinates": [ 135.0431341, 34.7921232 ] } },
{ "type": "Feature", "properties": { "内容": "ナーシングホーム常寿園【看護小規模多機能型居宅介護（複合型サービス）】兵庫県高砂市中島1丁目6-8", "url": "https://www.kaigokensaku.mhlw.go.jp/28/index.php?action_kouhyou_detail_004_kani=true&JigyosyoCd=2892100153-00&ServiceCd=&Type=search", "url2": "http://www.jyoujyuen.com" }, "geometry": { "type": "Point", "coordinates": [ 134.8000882, 34.7685295 ] } },
{ "type": "Feature", "properties": { "内容": "医療法人協和会看護小規模多機能型居宅介護スミスの母里【看護小規模多機能型居宅介護（複合型サービス）】兵庫県川西市火打1丁目21番14-2号", "url": "https://www.kaigokensaku.mhlw.go.jp/28/index.php?action_kouhyou_detail_004_kani=true&JigyosyoCd=2893100202-00&ServiceCd=&Type=search", "url2": "https://www.kyowakai.com/smis/" }, "geometry": { "type": "Point", "coordinates": [ 135.4196229, 34.8376824 ] } },
{ "type": "Feature", "properties": { "内容": "看護小規模多機能こみなみの家【看護小規模多機能型居宅介護（複合型サービス）】兵庫県小野市天神町1183番地79", "url": "https://www.kaigokensaku.mhlw.go.jp/28/index.php?action_kouhyou_detail_004_kani=true&JigyosyoCd=2891900090-00&ServiceCd=&Type=search", "url2": "tenjin@kominam.co.jp" }, "geometry": { "type": "Point", "coordinates": [ 134.946289100000058, 34.849074200000018 ] } },
{ "type": "Feature", "properties": { "内容": "看護小規模多機能えんじゅ【看護小規模多機能型居宅介護（複合型サービス）】兵庫県加西市三口町1257-2", "url": "https://www.kaigokensaku.mhlw.go.jp/28/index.php?action_kouhyou_detail_004_kani=true&JigyosyoCd=2892600087-00&ServiceCd=&Type=search", "url2": "http://naitomedics.co.jp/" }, "geometry": { "type": "Point", "coordinates": [ 134.843288718019807, 34.872361946630996 ] } },
{ "type": "Feature", "properties": { "内容": "看護小規模多機能型居宅介護事業所　ひまわり【看護小規模多機能型居宅介護（複合型サービス）】兵庫県丹波篠山市東吹980-1", "url": "https://www.kaigokensaku.mhlw.go.jp/28/index.php?action_kouhyou_detail_004_kani=true&JigyosyoCd=2891400208-00&ServiceCd=&Type=search", "url2": "http://www.kiyoukai.com" }, "geometry": { "type": "Point", "coordinates": [ 135.198358665606662, 35.070498797332633 ] } },
{ "type": "Feature", "properties": { "内容": "看護小規模多機能型居宅介護事業所　　庵みつ【看護小規模多機能型居宅介護（複合型サービス）】兵庫県たつの市御津町釜屋字寅浜新田９９－２１", "url": "https://www.kaigokensaku.mhlw.go.jp/28/index.php?action_kouhyou_detail_004_kani=true&JigyosyoCd=2893600151-00&ServiceCd=&Type=search", "url2": "http://www.kuwanomien.jp/" }, "geometry": { "type": "Point", "coordinates": [ 134.558621799999969, 34.7852132 ] } },
{ "type": "Feature", "properties": { "内容": "看護小規模多機能型居宅介護事業所　ひだま里【看護小規模多機能型居宅介護（複合型サービス）】兵庫県たつの市神岡町東觜崎543", "url": "https://www.kaigokensaku.mhlw.go.jp/28/index.php?action_kouhyou_detail_004_kani=true&JigyosyoCd=2893600169-00&ServiceCd=&Type=search", "url2": "http://www.kuwanomien.jp" }, "geometry": { "type": "Point", "coordinates": [ 134.556115458149748, 34.882439100773937 ] } },
{ "type": "Feature", "properties": { "内容": "看護小規模多機能型居宅介護事業所　ゆう【看護小規模多機能型居宅介護（複合型サービス）】新宮町平野30-1", "url": "https://www.kaigokensaku.mhlw.go.jp/28/index.php?action_kouhyou_detail_004_kani=true&JigyosyoCd=2893600136-00&ServiceCd=&Type=search", "url2": "ｗｗｗ.ｋｕｒｉｓｕｎｏｓｏｕ.ｏｒ.ｊｐ" }, "geometry": { "type": "Point", "coordinates": [ 134.542136, 34.9229912 ] } },
{ "type": "Feature", "properties": { "内容": "地域密着複合型サービス安心【看護小規模多機能型居宅介護（複合型サービス）】揖西町中垣内甲267-1", "url": "https://www.kaigokensaku.mhlw.go.jp/28/index.php?action_kouhyou_detail_004_kani=true&JigyosyoCd=2893600235-00&ServiceCd=&Type=search", "url2": "https://mawmec.hp.peraichi.com/" }, "geometry": { "type": "Point", "coordinates": [ 134.5172245, 34.8933403 ] } },
{ "type": "Feature", "properties": { "内容": "たつのケアサービス【看護小規模多機能型居宅介護（複合型サービス）】兵庫県たつの市揖保川町正條448番地1", "url": "https://www.kaigokensaku.mhlw.go.jp/28/index.php?action_kouhyou_detail_004_kani=true&JigyosyoCd=2893600128-00&ServiceCd=&Type=search", "url2": "https://pluss-alpha-group.com/" }, "geometry": { "type": "Point", "coordinates": [ 134.528687, 34.8242054 ] } }
]
}
