{
"type": "FeatureCollection",
"name": "geo_28_特定施設入居者生活介護（軽費老人ホーム）",
"crs": { "type": "name", "properties": { "name": "urn:ogc:def:crs:OGC:1.3:CRS84" } },
"features": [
{ "type": "Feature", "properties": { "内容": "介護型ケアハウス　サンライフ魚崎【特定施設入居者生活介護（軽費老人ホーム）】兵庫県神戸市東灘区魚崎中町4丁目10番50号", "url": "https://www.kaigokensaku.mhlw.go.jp/28/index.php?action_kouhyou_detail_004_kani=true&JigyosyoCd=2870101421-00&ServiceCd=332&Type=search", "url2": "https:///sunlifeuozaki.jp" }, "geometry": { "type": "Point", "coordinates": [ 135.27022420000003, 34.7152533 ] } },
{ "type": "Feature", "properties": { "内容": "ケアハウスこうべ甲南【特定施設入居者生活介護（軽費老人ホーム）】森北町6丁目1-2", "url": "https://www.kaigokensaku.mhlw.go.jp/28/index.php?action_kouhyou_detail_004_kani=true&JigyosyoCd=2870101835-00&ServiceCd=332&Type=search", "url2": "http://www.kobe-fukuseikai.com/" }, "geometry": { "type": "Point", "coordinates": [ 135.289244100000019, 34.735185 ] } },
{ "type": "Feature", "properties": { "内容": "ケアハウスこすもぴあ【特定施設入居者生活介護（軽費老人ホーム）】魚崎南町4-13-11", "url": "https://www.kaigokensaku.mhlw.go.jp/28/index.php?action_kouhyou_detail_004_kani=true&JigyosyoCd=2870101868-00&ServiceCd=332&Type=search", "url2": "http://www.carehouse-cosmopia.jp" }, "geometry": { "type": "Point", "coordinates": [ 135.271613099999968, 34.7111787 ] } },
{ "type": "Feature", "properties": { "内容": "メディカルケアハウス甲南山手【特定施設入居者生活介護（軽費老人ホーム）】兵庫県神戸市東灘区本庄町2-8-36", "url": "https://www.kaigokensaku.mhlw.go.jp/28/index.php?action_kouhyou_detail_004_kani=true&JigyosyoCd=2870102536-00&ServiceCd=332&Type=search", "url2": "http://chikusakai.jp/" }, "geometry": { "type": "Point", "coordinates": [ 135.292513500000041, 34.7269246 ] } },
{ "type": "Feature", "properties": { "内容": "ケアハウス　ゆうあい【特定施設入居者生活介護（軽費老人ホーム）】神戸市東灘区鴨子ヶ原2丁目14番19号", "url": "https://www.kaigokensaku.mhlw.go.jp/28/index.php?action_kouhyou_detail_004_kani=true&JigyosyoCd=2870102049-00&ServiceCd=332&Type=search", "url2": "http://www.krh-sumiyoshi.com" }, "geometry": { "type": "Point", "coordinates": [ 135.2504447, 34.7339203 ] } },
{ "type": "Feature", "properties": { "内容": "ケアハウスきしろ長寿の里【特定施設入居者生活介護（軽費老人ホーム）】神戸市灘区鶴甲５丁目１-５０ケアハウスきしろ長寿の里", "url": "https://www.kaigokensaku.mhlw.go.jp/28/index.php?action_kouhyou_detail_004_kani=true&JigyosyoCd=2870201361-00&ServiceCd=332&Type=search", "url2": "https://rokko-kakujuen.or.jp/" }, "geometry": { "type": "Point", "coordinates": [ 135.235268571688835, 34.738385746817649 ] } },
{ "type": "Feature", "properties": { "内容": "ケアハウス　ロングステージＫＯＢＥ大石【特定施設入居者生活介護（軽費老人ホーム）】神戸市灘区大石南町２－４－２２", "url": "https://www.kaigokensaku.mhlw.go.jp/28/index.php?action_kouhyou_detail_004_kani=true&JigyosyoCd=2870201668-00&ServiceCd=332&Type=search", "url2": "http://www.long-stage.com" }, "geometry": { "type": "Point", "coordinates": [ 135.232041200000026, 34.7033212 ] } },
{ "type": "Feature", "properties": { "内容": "ケアハウスこうべ【特定施設入居者生活介護（軽費老人ホーム）】神戸市兵庫区里山町１番４８", "url": "https://www.kaigokensaku.mhlw.go.jp/28/index.php?action_kouhyou_detail_004_kani=true&JigyosyoCd=2870500655-00&ServiceCd=332&Type=search", "url2": "http://www.kobe-fukuseikai.com/" }, "geometry": { "type": "Point", "coordinates": [ 135.140934900000047, 34.6926209 ] } },
{ "type": "Feature", "properties": { "内容": "介護型ケアハウス　イルマーレ【特定施設入居者生活介護（軽費老人ホーム）】兵庫県神戸市兵庫区菊水町10丁目40番地の1", "url": "https://www.kaigokensaku.mhlw.go.jp/28/index.php?action_kouhyou_detail_004_kani=true&JigyosyoCd=2870502917-00&ServiceCd=332&Type=search", "url2": "http://www.kaikouen.or.jp/" }, "geometry": { "type": "Point", "coordinates": [ 135.153684, 34.679700099999984 ] } },
{ "type": "Feature", "properties": { "内容": "ケアハウス丸山の郷【特定施設入居者生活介護（軽費老人ホーム）】兵庫県神戸市長田区雲雀ヶ丘1丁目14番1号", "url": "https://www.kaigokensaku.mhlw.go.jp/28/index.php?action_kouhyou_detail_004_kani=true&JigyosyoCd=2870601065-00&ServiceCd=332&Type=search", "url2": "http://maruyamano-sato.or.jp" }, "geometry": { "type": "Point", "coordinates": [ 135.136754600000017, 34.6922069 ] } },
{ "type": "Feature", "properties": { "内容": "ケアハウス須磨浦の里【特定施設入居者生活介護（軽費老人ホーム）】一ノ谷町3丁目3-21", "url": "https://www.kaigokensaku.mhlw.go.jp/28/index.php?action_kouhyou_detail_004_kani=true&JigyosyoCd=2870701782-00&ServiceCd=332&Type=search", "url2": "http://www.sumauranosato.com/" }, "geometry": { "type": "Point", "coordinates": [ 135.100996850262391, 34.640767749644965 ] } },
{ "type": "Feature", "properties": { "内容": "ケアハウス須磨浦の里　みち【特定施設入居者生活介護（軽費老人ホーム）】兵庫県神戸市須磨区一の谷町３－３－１６ケアハウス須磨浦の里　みち", "url": "https://www.kaigokensaku.mhlw.go.jp/28/index.php?action_kouhyou_detail_004_kani=true&JigyosyoCd=2870702707-00&ServiceCd=332&Type=search", "url2": "https://www.sumauranosato.jp" }, "geometry": { "type": "Point", "coordinates": [ 135.101089699999989, 34.6398009 ] } },
{ "type": "Feature", "properties": { "内容": "ケアハウスまんてん垂水【特定施設入居者生活介護（軽費老人ホーム）】兵庫県神戸市垂水区名谷町1547番地1", "url": "https://www.kaigokensaku.mhlw.go.jp/28/index.php?action_kouhyou_detail_004_kani=true&JigyosyoCd=2870802606-00&ServiceCd=332&Type=search", "url2": "http://www.sankei-kai.or.jp/manten-tarumi/" }, "geometry": { "type": "Point", "coordinates": [ 135.0735118, 34.6628863 ] } },
{ "type": "Feature", "properties": { "内容": "ケアハウス神戸垂水ちどり【特定施設入居者生活介護（軽費老人ホーム）】兵庫県神戸市垂水区高丸6丁目7番2号", "url": "https://www.kaigokensaku.mhlw.go.jp/28/index.php?action_kouhyou_detail_004_kani=true&JigyosyoCd=2870804180-00&ServiceCd=332&Type=search", "url2": "http://www.chidori.or.jp" }, "geometry": { "type": "Point", "coordinates": [ 135.056132899999966, 34.6400909 ] } },
{ "type": "Feature", "properties": { "内容": "介護型ケアハウス　オービーホーム高丸【特定施設入居者生活介護（軽費老人ホーム）】兵庫県神戸市垂水区上高丸3丁目7-22", "url": "https://www.kaigokensaku.mhlw.go.jp/28/index.php?action_kouhyou_detail_004_kani=true&JigyosyoCd=2870804222-00&ServiceCd=332&Type=search", "url2": "http://obh2525.or.jp" }, "geometry": { "type": "Point", "coordinates": [ 135.054060047223544, 34.645909944026762 ] } },
{ "type": "Feature", "properties": { "内容": "ケアハウスふるさと【特定施設入居者生活介護（軽費老人ホーム）】兵庫県神戸市垂水区塩屋町6丁目32番48号", "url": "https://www.kaigokensaku.mhlw.go.jp/28/index.php?action_kouhyou_detail_004_kani=true&JigyosyoCd=2870800998-00&ServiceCd=332&Type=search", "url2": "http://www.tokuyo-furusato.or.jp/" }, "geometry": { "type": "Point", "coordinates": [ 135.0744922, 34.6362985 ] } },
{ "type": "Feature", "properties": { "内容": "さん舞子神港園【特定施設入居者生活介護（軽費老人ホーム）】神戸市垂水区五色山7丁目12-38", "url": "https://www.kaigokensaku.mhlw.go.jp/28/index.php?action_kouhyou_detail_004_kani=true&JigyosyoCd=2870801806-00&ServiceCd=332&Type=search", "url2": "http://www.shinkouen.or.jp" }, "geometry": { "type": "Point", "coordinates": [ 135.039708799999971, 34.6301236 ] } },
{ "type": "Feature", "properties": { "内容": "ケアハウス南風【特定施設入居者生活介護（軽費老人ホーム）】神戸市北区山田町下谷上字梅木谷３９－１１ケアハウス南風", "url": "https://www.kaigokensaku.mhlw.go.jp/28/index.php?action_kouhyou_detail_004_kani=true&JigyosyoCd=2875002269-00&ServiceCd=332&Type=search", "url2": "http://www.ch-minamikaze.com" }, "geometry": { "type": "Point", "coordinates": [ 135.154744100000016, 34.7533892 ] } },
{ "type": "Feature", "properties": { "内容": "介護型ケアハウス　ストロベリー【特定施設入居者生活介護（軽費老人ホーム）】兵庫県神戸市北区有野町二郎字西浦383番地", "url": "https://www.kaigokensaku.mhlw.go.jp/28/index.php?action_kouhyou_detail_004_kani=true&JigyosyoCd=2875002301-00&ServiceCd=332&Type=search", "url2": "http://www.reimeikai.org" }, "geometry": { "type": "Point", "coordinates": [ 135.230730910936728, 34.842808666964281 ] } },
{ "type": "Feature", "properties": { "内容": "ケアハウス　カトレア神戸【特定施設入居者生活介護（軽費老人ホーム）】神戸市北区松宮台１丁目３７番-2", "url": "https://www.kaigokensaku.mhlw.go.jp/28/index.php?action_kouhyou_detail_004_kani=true&JigyosyoCd=2875002384-00&ServiceCd=332&Type=search", "url2": "https://www.imwg.or.jp/kobe/" }, "geometry": { "type": "Point", "coordinates": [ 135.149727799999937, 34.736591 ] } },
{ "type": "Feature", "properties": { "内容": "ケアハウスカトレアすずらん台【特定施設入居者生活介護（軽費老人ホーム）】兵庫県神戸市北区鈴蘭台北町１丁目２１－１０", "url": "https://www.kaigokensaku.mhlw.go.jp/28/index.php?action_kouhyou_detail_004_kani=true&JigyosyoCd=2875003580-00&ServiceCd=332&Type=search", "url2": "https://www.imwg.or.jp/suzurandai/" }, "geometry": { "type": "Point", "coordinates": [ 135.1480666, 34.7253021 ] } },
{ "type": "Feature", "properties": { "内容": "介護型ケアハウスソラーレ【特定施設入居者生活介護（軽費老人ホーム）】兵庫県神戸市北区ひよどり北町3丁目2番地", "url": "https://www.kaigokensaku.mhlw.go.jp/28/index.php?action_kouhyou_detail_004_kani=true&JigyosyoCd=2875003796-00&ServiceCd=332&Type=search", "url2": "http://www.yasuragi-swc.or.jp/solare/" }, "geometry": { "type": "Point", "coordinates": [ 135.120179868786636, 34.709432751950217 ] } },
{ "type": "Feature", "properties": { "内容": "神戸海岸特養ケアセンター　ケアハウス【特定施設入居者生活介護（軽費老人ホーム）】神戸市中央区磯辺通1丁目1-28", "url": "https://www.kaigokensaku.mhlw.go.jp/28/index.php?action_kouhyou_detail_004_kani=true&JigyosyoCd=2875102762-00&ServiceCd=332&Type=search", "url2": "http://www.kobekaigan-tokuyou.com/index.html" }, "geometry": { "type": "Point", "coordinates": [ 135.200267074204987, 34.69088339191012 ] } },
{ "type": "Feature", "properties": { "内容": "ケアハウス　ラグナケア春日台【特定施設入居者生活介護（軽費老人ホーム）】神戸市西区春日台7丁目45番2号及び3号", "url": "https://www.kaigokensaku.mhlw.go.jp/28/index.php?action_kouhyou_detail_004_kani=true&JigyosyoCd=2875203180-00&ServiceCd=332&Type=search", "url2": "http://www.houonkai.jp/information/kasugadai/introduction.html..." }, "geometry": { "type": "Point", "coordinates": [ 134.991029820901531, 34.708245732420941 ] } },
{ "type": "Feature", "properties": { "内容": "ケアハウスかんで【特定施設入居者生活介護（軽費老人ホーム）】神戸市西区神出町小束野５８－９１", "url": "https://www.kaigokensaku.mhlw.go.jp/28/index.php?action_kouhyou_detail_004_kani=true&JigyosyoCd=2875201085-00&ServiceCd=332&Type=search", "url2": "https://www.kobe-manjuen.or.jp/" }, "geometry": { "type": "Point", "coordinates": [ 134.986655400000018, 34.7726988 ] } },
{ "type": "Feature", "properties": { "内容": "ケアハウス大慈【特定施設入居者生活介護（軽費老人ホーム）】兵庫県神戸市西区櫨谷町長谷８３－６", "url": "https://www.kaigokensaku.mhlw.go.jp/28/index.php?action_kouhyou_detail_004_kani=true&JigyosyoCd=2875202778-00&ServiceCd=332&Type=search", "url2": "http://www.carehouse-daiji.com" }, "geometry": { "type": "Point", "coordinates": [ 135.023103099999958, 34.7052485 ] } },
{ "type": "Feature", "properties": { "内容": "ケアハウス　シェ・モア【特定施設入居者生活介護（軽費老人ホーム）】神戸市西区伊川谷町有瀬556-6", "url": "https://www.kaigokensaku.mhlw.go.jp/28/index.php?action_kouhyou_detail_004_kani=true&JigyosyoCd=2875202802-00&ServiceCd=332&Type=search", "url2": "http://www.chez-moi.jp/" }, "geometry": { "type": "Point", "coordinates": [ 135.024734599999988, 34.6657968 ] } },
{ "type": "Feature", "properties": { "内容": "ケアハウスあけぼの苑【特定施設入居者生活介護（軽費老人ホーム）】兵庫県洲本市由良1丁目６番７号", "url": "https://www.kaigokensaku.mhlw.go.jp/28/index.php?action_kouhyou_detail_004_kani=true&JigyosyoCd=2871500449-00&ServiceCd=332&Type=search", "url2": "http://www.sumoto-tachibana.or.jp" }, "geometry": { "type": "Point", "coordinates": [ 134.945105300000023, 34.287322 ] } },
{ "type": "Feature", "properties": { "内容": "ケアハウス　エイールあしや【特定施設入居者生活介護（軽費老人ホーム）】芦屋市潮見町31-1", "url": "https://www.kaigokensaku.mhlw.go.jp/28/index.php?action_kouhyou_detail_004_kani=true&JigyosyoCd=2871000820-00&ServiceCd=332&Type=search", "url2": "http://www.kirakuen.or.jp" }, "geometry": { "type": "Point", "coordinates": [ 135.306190099999981, 34.7161867 ] } },
{ "type": "Feature", "properties": { "内容": "ナーシングホーム豊泉家芦屋山手【特定施設入居者生活介護（軽費老人ホーム）】兵庫県芦屋市剣谷9番地1", "url": "https://www.kaigokensaku.mhlw.go.jp/28/index.php?action_kouhyou_detail_004_kani=true&JigyosyoCd=2871001919-00&ServiceCd=332&Type=search", "url2": "https://www.housenka.com/" }, "geometry": { "type": "Point", "coordinates": [ 135.299599699999987, 34.7488259 ] } },
{ "type": "Feature", "properties": { "内容": "伸幸苑ケアハウス　しあわせ【特定施設入居者生活介護（軽費老人ホーム）】兵庫県伊丹市寺本６丁目１５０番地", "url": "https://www.kaigokensaku.mhlw.go.jp/28/index.php?action_kouhyou_detail_004_kani=true&JigyosyoCd=2873301846-00&ServiceCd=332&Type=search", "url2": "http://shinkoen.jp/" }, "geometry": { "type": "Point", "coordinates": [ 135.387137700000039, 34.7807649 ] } },
{ "type": "Feature", "properties": { "内容": "高齢者ケアハウス楓の杜【特定施設入居者生活介護（軽費老人ホーム）】兵庫県豊岡市竹野町林600番地社会福祉法人さいか楓の杜", "url": "https://www.kaigokensaku.mhlw.go.jp/28/index.php?action_kouhyou_detail_004_kani=true&JigyosyoCd=2874401777-00&ServiceCd=332&Type=search", "url2": "https://saika-kaedenomori.my.canva.site/" }, "geometry": { "type": "Point", "coordinates": [ 134.747877499999987, 35.598171 ] } },
{ "type": "Feature", "properties": { "内容": "ケアハウス　楽々むら【特定施設入居者生活介護（軽費老人ホーム）】兵庫県豊岡市城崎町楽々浦字深浦４１９－６", "url": "https://www.kaigokensaku.mhlw.go.jp/28/index.php?action_kouhyou_detail_004_kani=true&JigyosyoCd=2874401231-00&ServiceCd=332&Type=search", "url2": "www.amanoho.com" }, "geometry": { "type": "Point", "coordinates": [ 134.820155900000032, 35.6203616 ] } },
{ "type": "Feature", "properties": { "内容": "ケアハウス宝塚【特定施設入居者生活介護（軽費老人ホーム）】兵庫県宝塚市弥生町2-2", "url": "https://www.kaigokensaku.mhlw.go.jp/28/index.php?action_kouhyou_detail_004_kani=true&JigyosyoCd=2871103269-00&ServiceCd=332&Type=search", "url2": "http://www.seirei.or.jp/tss/" }, "geometry": { "type": "Point", "coordinates": [ 135.367822299999943, 34.7975067 ] } },
{ "type": "Feature", "properties": { "内容": "ケアハウス中山ちどり【特定施設入居者生活介護（軽費老人ホーム）】兵庫県宝塚市中山桜台1丁目7番1号", "url": "https://www.kaigokensaku.mhlw.go.jp/28/index.php?action_kouhyou_detail_004_kani=true&JigyosyoCd=2871102535-00&ServiceCd=332&Type=search", "url2": "http://www.chidori.or.jp" }, "geometry": { "type": "Point", "coordinates": [ 135.3680213, 34.8307 ] } },
{ "type": "Feature", "properties": { "内容": "清和苑ゆうハウス【特定施設入居者生活介護（軽費老人ホーム）】兵庫県川西市清和台東2丁目4番地32", "url": "https://www.kaigokensaku.mhlw.go.jp/28/index.php?action_kouhyou_detail_004_kani=true&JigyosyoCd=2873102525-00&ServiceCd=332&Type=search", "url2": "http//ufo-group.jp" }, "geometry": { "type": "Point", "coordinates": [ 135.392024399999968, 34.875857600000039 ] } },
{ "type": "Feature", "properties": { "内容": "ケアハウス　あいな清和苑　あいなハウス【特定施設入居者生活介護（軽費老人ホーム）】川西市久代6丁目1-98", "url": "https://www.kaigokensaku.mhlw.go.jp/28/index.php?action_kouhyou_detail_004_kani=true&JigyosyoCd=2873101758-00&ServiceCd=332&Type=search", "url2": "https://www.ufo-group.com" }, "geometry": { "type": "Point", "coordinates": [ 135.4183481, 34.8028678 ] } },
{ "type": "Feature", "properties": { "内容": "香楽園【特定施設入居者生活介護（軽費老人ホーム）】兵庫県加西市鶉野町字東中条１７５０番地", "url": "https://www.kaigokensaku.mhlw.go.jp/28/index.php?action_kouhyou_detail_004_kani=true&JigyosyoCd=2872600412-00&ServiceCd=332&Type=search", "url2": "https://kenjinkai-swc.or.jp/" }, "geometry": { "type": "Point", "coordinates": [ 134.871469584152919, 34.886861899079925 ] } },
{ "type": "Feature", "properties": { "内容": "ケアハウス　淡路エルベ【特定施設入居者生活介護（軽費老人ホーム）】兵庫県南あわじ市八木養宜中172-13ケアハウス淡路エルベ", "url": "https://www.kaigokensaku.mhlw.go.jp/28/index.php?action_kouhyou_detail_004_kani=true&JigyosyoCd=2871700510-00&ServiceCd=332&Type=search", "url2": "https://awaji.care-house.jp/" }, "geometry": { "type": "Point", "coordinates": [ 134.795951, 34.3029956 ] } },
{ "type": "Feature", "properties": { "内容": "ケアハウス朝来【特定施設入居者生活介護（軽費老人ホーム）】兵庫県朝来市新井１７９番地", "url": "https://www.kaigokensaku.mhlw.go.jp/28/index.php?action_kouhyou_detail_004_kani=true&JigyosyoCd=2874900356-00&ServiceCd=332&Type=search", "url2": "http://himawari-mission.com/" }, "geometry": { "type": "Point", "coordinates": [ 134.79779039999994, 35.2446198 ] } },
{ "type": "Feature", "properties": { "内容": "ケアハウス　東浦エルベ【特定施設入居者生活介護（軽費老人ホーム）】兵庫県淡路市久留麻1875-1", "url": "https://www.kaigokensaku.mhlw.go.jp/28/index.php?action_kouhyou_detail_004_kani=true&JigyosyoCd=2871600819-00&ServiceCd=332&Type=search", "url2": "www.higashiura.care-house.jp" }, "geometry": { "type": "Point", "coordinates": [ 134.98643979325405, 34.5255324392067 ] } },
{ "type": "Feature", "properties": { "内容": "ケアハウス　アゼリア【特定施設入居者生活介護（軽費老人ホーム）】兵庫県たつの市揖保町中臣510番地", "url": "https://www.kaigokensaku.mhlw.go.jp/28/index.php?action_kouhyou_detail_004_kani=true&JigyosyoCd=2873600882-00&ServiceCd=332&Type=search", "url2": "https://www.kounankai.jp/" }, "geometry": { "type": "Point", "coordinates": [ 134.548879299999953, 34.8394347 ] } },
{ "type": "Feature", "properties": { "内容": "ケアハウスしあわせ荘【特定施設入居者生活介護（軽費老人ホーム）】兵庫県多可郡多可町中区鍛冶屋763番地15", "url": "https://www.kaigokensaku.mhlw.go.jp/28/index.php?action_kouhyou_detail_004_kani=true&JigyosyoCd=2872700261-00&ServiceCd=332&Type=search", "url2": "https://siawase-sou.com" }, "geometry": { "type": "Point", "coordinates": [ 134.9319391, 35.07033280000001 ] } }
]
}
