{
"type": "FeatureCollection",
"name": "geo_28_地域密着型介護老人福祉施設入所者生活介護",
"crs": { "type": "name", "properties": { "name": "urn:ogc:def:crs:OGC:1.3:CRS84" } },
"features": [
{ "type": "Feature", "properties": { "内容": "高齢者ケアセンター甲南【地域密着型介護老人福祉施設入所者生活介護】兵庫県神戸市東灘区森北町6丁目1－1", "url": "https://www.kaigokensaku.mhlw.go.jp/28/index.php?action_kouhyou_detail_004_kani=true&JigyosyoCd=2890100056-00&ServiceCd=540&Type=search", "url2": "http://www.kobe-fukuseikai.com" }, "geometry": { "type": "Point", "coordinates": [ 135.288835799999987, 34.7358461 ] } },
{ "type": "Feature", "properties": { "内容": "特別養護老人ホーム協同の苑六甲アイランドにじの家【地域密着型介護老人福祉施設入所者生活介護】神戸市東灘区向洋町中３丁目２－６", "url": "https://www.kaigokensaku.mhlw.go.jp/28/index.php?action_kouhyou_detail_004_kani=true&JigyosyoCd=2890100098-00&ServiceCd=540&Type=search", "url2": "http://kyodo-no-sono.or.jp" }, "geometry": { "type": "Point", "coordinates": [ 135.271355, 34.6871643 ] } },
{ "type": "Feature", "properties": { "内容": "特別養護老人ホームうみのほしルルド【地域密着型介護老人福祉施設入所者生活介護】兵庫県神戸市東灘区魚崎西町1丁目7-14", "url": "https://www.kaigokensaku.mhlw.go.jp/28/index.php?action_kouhyou_detail_004_kani=true&JigyosyoCd=2890100361-00&ServiceCd=540&Type=search", "url2": "https://www.uminohosi.jp/" }, "geometry": { "type": "Point", "coordinates": [ 135.2658136, 34.7080109 ] } },
{ "type": "Feature", "properties": { "内容": "特別養護老人ホーム　ロングステージＫＯＢＥ大石【地域密着型介護老人福祉施設入所者生活介護】神戸市灘区大石南町2-4-22", "url": "https://www.kaigokensaku.mhlw.go.jp/28/index.php?action_kouhyou_detail_004_kani=true&JigyosyoCd=2890200047-00&ServiceCd=540&Type=search", "url2": "http://www.long-stage.com" }, "geometry": { "type": "Point", "coordinates": [ 135.232041200000026, 34.7033212 ] } },
{ "type": "Feature", "properties": { "内容": "特別養護老人ホームうみのほし長峰台【地域密着型介護老人福祉施設入所者生活介護】篠原北町四丁目18番1号特別養護老人ホームうみのほし長峰台", "url": "https://www.kaigokensaku.mhlw.go.jp/28/index.php?action_kouhyou_detail_004_kani=true&JigyosyoCd=2890200088-00&ServiceCd=540&Type=search", "url2": "https://www.uminohosi.jp" }, "geometry": { "type": "Point", "coordinates": [ 135.2243049, 34.724535299999985 ] } },
{ "type": "Feature", "properties": { "内容": "特別養護老人ホーム　ラグナケア千鳥山荘【地域密着型介護老人福祉施設入所者生活介護】兵庫県神戸市兵庫区千鳥町3丁目5-1", "url": "https://www.kaigokensaku.mhlw.go.jp/28/index.php?action_kouhyou_detail_004_kani=true&JigyosyoCd=2890500016-00&ServiceCd=540&Type=search", "url2": "http://www.houonkai.jp/" }, "geometry": { "type": "Point", "coordinates": [ 135.1606492, 34.6910998 ] } },
{ "type": "Feature", "properties": { "内容": "特別養護老人ホーム　花みさき（II）【地域密着型介護老人福祉施設入所者生活介護】神戸市兵庫区浜中町1-17-14", "url": "https://www.kaigokensaku.mhlw.go.jp/28/index.php?action_kouhyou_detail_004_kani=true&JigyosyoCd=2890500032-00&ServiceCd=540&Type=search", "url2": "http://www.hanamisaki.or.jp" }, "geometry": { "type": "Point", "coordinates": [ 135.165033599999987, 34.6561135 ] } },
{ "type": "Feature", "properties": { "内容": "ラグナケア荒田【地域密着型介護老人福祉施設入所者生活介護】兵庫県神戸市兵庫区荒田町3-75-10", "url": "https://www.kaigokensaku.mhlw.go.jp/28/index.php?action_kouhyou_detail_004_kani=true&JigyosyoCd=2890500289-00&ServiceCd=540&Type=search", "url2": "http://www.houonkai.jp/" }, "geometry": { "type": "Point", "coordinates": [ 135.1648365, 34.6860731 ] } },
{ "type": "Feature", "properties": { "内容": "特別養護老人ホーム　花みさき（Ⅲ）【地域密着型介護老人福祉施設入所者生活介護】浜中町1丁目17-3", "url": "https://www.kaigokensaku.mhlw.go.jp/28/index.php?action_kouhyou_detail_004_kani=true&JigyosyoCd=2890500339-00&ServiceCd=540&Type=search", "url2": "https://hanamisaki.or.jp/" }, "geometry": { "type": "Point", "coordinates": [ 145.1290409, 43.0807764 ] } },
{ "type": "Feature", "properties": { "内容": "西部高齢者介護支援センター【地域密着型介護老人福祉施設入所者生活介護】神戸市長田区北町３－３", "url": "https://www.kaigokensaku.mhlw.go.jp/28/index.php?action_kouhyou_detail_004_kani=true&JigyosyoCd=2870600471-00&ServiceCd=540&Type=search", "url2": "http://www.kobe-fukuseikai.com/html/03top.html" }, "geometry": { "type": "Point", "coordinates": [ 135.151717700000063, 34.6654708 ] } },
{ "type": "Feature", "properties": { "内容": "高齢者ケアセンターながたサテライト宮丘【地域密着型介護老人福祉施設入所者生活介護】神戸市長田区宮丘町１丁目３番１１号", "url": "https://www.kaigokensaku.mhlw.go.jp/28/index.php?action_kouhyou_detail_004_kani=true&JigyosyoCd=2890600055-00&ServiceCd=540&Type=search", "url2": "http://www.kobe-fukuseikai.com/" }, "geometry": { "type": "Point", "coordinates": [ 135.140410200000019, 34.6723368 ] } },
{ "type": "Feature", "properties": { "内容": "神港園サニープラザ妙法寺【地域密着型介護老人福祉施設入所者生活介護】神戸市須磨区妙法寺字ぬめり石1番4", "url": "https://www.kaigokensaku.mhlw.go.jp/28/index.php?action_kouhyou_detail_004_kani=true&JigyosyoCd=2890700400-00&ServiceCd=540&Type=search", "url2": "https://www.shinkouen.or.jp/" }, "geometry": { "type": "Point", "coordinates": [ 135.104249, 34.6715338 ] } },
{ "type": "Feature", "properties": { "内容": "特別養護老人ホームふたばサテライトやまもも【地域密着型介護老人福祉施設入所者生活介護】兵庫県神戸市須磨区白川台３丁目63-1白川台会館", "url": "https://www.kaigokensaku.mhlw.go.jp/28/index.php?action_kouhyou_detail_004_kani=true&JigyosyoCd=2890700442-00&ServiceCd=540&Type=search", "url2": "http://komadory.com" }, "geometry": { "type": "Point", "coordinates": [ 135.100498499999986, 34.6899977 ] } },
{ "type": "Feature", "properties": { "内容": "特別養護老人ホーム愛の園シオンの丘【地域密着型介護老人福祉施設入所者生活介護】妙法寺字野路山1053", "url": "https://www.kaigokensaku.mhlw.go.jp/28/index.php?action_kouhyou_detail_004_kani=true&JigyosyoCd=2890700301-00&ServiceCd=540&Type=search", "url2": "http://www.ainosono.jp" }, "geometry": { "type": "Point", "coordinates": [ 135.1216576, 34.6830477 ] } },
{ "type": "Feature", "properties": { "内容": "サテライト型特別養護老人ホームファボール泉が丘【地域密着型介護老人福祉施設入所者生活介護】神戸市垂水区泉が丘5丁目8番34号", "url": "https://www.kaigokensaku.mhlw.go.jp/28/index.php?action_kouhyou_detail_004_kani=true&JigyosyoCd=2890800036-00&ServiceCd=540&Type=search", "url2": "http://kyowakai.main.jp/" }, "geometry": { "type": "Point", "coordinates": [ 135.06567629999995, 34.6345681 ] } },
{ "type": "Feature", "properties": { "内容": "特別養護老人ホーム　舞子すみれ園【地域密着型介護老人福祉施設入所者生活介護】兵庫県神戸市垂水区西舞子６丁目１番１３号", "url": "https://www.kaigokensaku.mhlw.go.jp/28/index.php?action_kouhyou_detail_004_kani=true&JigyosyoCd=2890800093-00&ServiceCd=540&Type=search", "url2": "http://www.sumire.or.jp/" }, "geometry": { "type": "Point", "coordinates": [ 135.024904, 34.642008 ] } },
{ "type": "Feature", "properties": { "内容": "サテライト特養ももやまだい【地域密着型介護老人福祉施設入所者生活介護】桃山台5丁目1140番地", "url": "https://www.kaigokensaku.mhlw.go.jp/28/index.php?action_kouhyou_detail_004_kani=true&JigyosyoCd=2890800143-00&ServiceCd=540&Type=search", "url2": "http://www.momoyamadaihome.jp/" }, "geometry": { "type": "Point", "coordinates": [ 135.085407300000043, 34.6564627 ] } },
{ "type": "Feature", "properties": { "内容": "特別養護老人ホーム　向陽荘【地域密着型介護老人福祉施設入所者生活介護】兵庫県神戸市垂水区福田５丁目2番21号", "url": "https://www.kaigokensaku.mhlw.go.jp/28/index.php?action_kouhyou_detail_004_kani=true&JigyosyoCd=2890800309-00&ServiceCd=540&Type=search", "url2": "http://www.shotokukai-th.or.jp" }, "geometry": { "type": "Point", "coordinates": [ 135.068225799999936, 34.6464223 ] } },
{ "type": "Feature", "properties": { "内容": "小規模特別養護老人ホーム花の森【地域密着型介護老人福祉施設入所者生活介護】兵庫県神戸市垂水区名谷町１９４１－１", "url": "https://www.kaigokensaku.mhlw.go.jp/28/index.php?action_kouhyou_detail_004_kani=true&JigyosyoCd=2890800473-00&ServiceCd=540&Type=search", "url2": "http://www.mikarikai.jp/" }, "geometry": { "type": "Point", "coordinates": [ 135.070049414392429, 34.664872792244068 ] } },
{ "type": "Feature", "properties": { "内容": "特別養護老人ホーム　オービーホーム【地域密着型介護老人福祉施設入所者生活介護】兵庫県神戸市垂水区名谷町字猿倉２７３－７", "url": "https://www.kaigokensaku.mhlw.go.jp/28/index.php?action_kouhyou_detail_004_kani=true&JigyosyoCd=2890800242-00&ServiceCd=540&Type=search", "url2": "http://www.obh2525.or.jp" }, "geometry": { "type": "Point", "coordinates": [ 135.063601100000028, 34.6493302 ] } },
{ "type": "Feature", "properties": { "内容": "特別養護老人ホーム　梅香園【地域密着型介護老人福祉施設入所者生活介護】神戸市北区山田町小部字南山２-３５", "url": "https://www.kaigokensaku.mhlw.go.jp/28/index.php?action_kouhyou_detail_004_kani=true&JigyosyoCd=2895000095-00&ServiceCd=540&Type=search", "url2": "http://www.yasuragi-swc.or.jp" }, "geometry": { "type": "Point", "coordinates": [ 135.147684, 34.7189181 ] } },
{ "type": "Feature", "properties": { "内容": "小規模特別養護老人ホーム八多の里東館【地域密着型介護老人福祉施設入所者生活介護】八多町中681番地", "url": "https://www.kaigokensaku.mhlw.go.jp/28/index.php?action_kouhyou_detail_004_kani=true&JigyosyoCd=2895000194-00&ServiceCd=540&Type=search", "url2": "http://www.hatanosato.or.jp" }, "geometry": { "type": "Point", "coordinates": [ 135.213251899999932, 34.8501266 ] } },
{ "type": "Feature", "properties": { "内容": "特別養護老人ホーム　さつき園「あきの荘」【地域密着型介護老人福祉施設入所者生活介護】兵庫県神戸市北区山田町小部字杉ノ木３番地の２", "url": "https://www.kaigokensaku.mhlw.go.jp/28/index.php?action_kouhyou_detail_004_kani=true&JigyosyoCd=2895000103-00&ServiceCd=540&Type=search", "url2": "http://www.yasuragi-swc.or.jp" }, "geometry": { "type": "Point", "coordinates": [ 135.16113, 34.7285311 ] } },
{ "type": "Feature", "properties": { "内容": "小規模特別養護老人ホームほわいえ【地域密着型介護老人福祉施設入所者生活介護】兵庫県神戸市北区八多町中１３０６番地", "url": "https://www.kaigokensaku.mhlw.go.jp/28/index.php?action_kouhyou_detail_004_kani=true&JigyosyoCd=2895000137-00&ServiceCd=540&Type=search", "url2": "http://www.hatanosato.or.jp/" }, "geometry": { "type": "Point", "coordinates": [ 135.214010199999962, 34.8502072 ] } },
{ "type": "Feature", "properties": { "内容": "小規模特別養護老人ホームなでしこ神戸【地域密着型介護老人福祉施設入所者生活介護】兵庫県神戸市北区藤原台南町3丁目18番4号", "url": "https://www.kaigokensaku.mhlw.go.jp/28/index.php?action_kouhyou_detail_004_kani=true&JigyosyoCd=2895000061-00&ServiceCd=540&Type=search", "url2": "http://fujinosato.info/" }, "geometry": { "type": "Point", "coordinates": [ 135.202897200000052, 34.8118855 ] } },
{ "type": "Feature", "properties": { "内容": "特別養護老人ホームふじの里　西館【地域密着型介護老人福祉施設入所者生活介護】兵庫県神戸市北区藤原台中町5丁目1番2号", "url": "https://www.kaigokensaku.mhlw.go.jp/28/index.php?action_kouhyou_detail_004_kani=true&JigyosyoCd=2895000202-00&ServiceCd=540&Type=search", "url2": "http://fujinosato.info" }, "geometry": { "type": "Point", "coordinates": [ 135.214662800000042, 34.8225235 ] } },
{ "type": "Feature", "properties": { "内容": "特別養護老人ホーム　真愛くもちホーム【地域密着型介護老人福祉施設入所者生活介護】神戸市中央区熊内町５丁目１０番８号", "url": "https://www.kaigokensaku.mhlw.go.jp/28/index.php?action_kouhyou_detail_004_kani=true&JigyosyoCd=2895100077-00&ServiceCd=540&Type=search", "url2": "http://shin-ai.biz" }, "geometry": { "type": "Point", "coordinates": [ 135.201293600000014, 34.7103725 ] } },
{ "type": "Feature", "properties": { "内容": "フェニックス月が丘ケアセンター【地域密着型介護老人福祉施設入所者生活介護】兵庫県神戸市西区月が丘1丁目632番地14", "url": "https://www.kaigokensaku.mhlw.go.jp/28/index.php?action_kouhyou_detail_004_kani=true&JigyosyoCd=2895200182-00&ServiceCd=540&Type=search", "url2": "http://www.kobe-wako.jp/" }, "geometry": { "type": "Point", "coordinates": [ 135.050063899999941, 34.7562346 ] } },
{ "type": "Feature", "properties": { "内容": "社会福祉法人光朔会　特別養護老人ホームオリンピア神戸西【地域密着型介護老人福祉施設入所者生活介護】神戸市西区玉津町上池３１５－１０", "url": "https://www.kaigokensaku.mhlw.go.jp/28/index.php?action_kouhyou_detail_004_kani=true&JigyosyoCd=2895200067-00&ServiceCd=540&Type=search", "url2": "http://www.olympia.or.jp" }, "geometry": { "type": "Point", "coordinates": [ 134.9904765, 34.6596941 ] } },
{ "type": "Feature", "properties": { "内容": "地域密着型特別養護老人ホーム櫻ホーム西神【地域密着型介護老人福祉施設入所者生活介護】兵庫県神戸市西区月が丘1丁目41-12", "url": "https://www.kaigokensaku.mhlw.go.jp/28/index.php?action_kouhyou_detail_004_kani=true&JigyosyoCd=2895200364-00&ServiceCd=540&Type=search", "url2": "https://seishin.sakuradani-fukushikai.com/" }, "geometry": { "type": "Point", "coordinates": [ 135.052428797336091, 34.756120376283157 ] } },
{ "type": "Feature", "properties": { "内容": "ユニット型老人ホーム　サンライフひろみね【地域密着型介護老人福祉施設入所者生活介護】兵庫県姫路市広峰1丁目4番55号", "url": "https://www.kaigokensaku.mhlw.go.jp/28/index.php?action_kouhyou_detail_004_kani=true&JigyosyoCd=2894000120-00&ServiceCd=540&Type=search", "url2": "http://www.mcn2k.co.jp/pub/sasayuri" }, "geometry": { "type": "Point", "coordinates": [ 134.7026942, 34.8534784 ] } },
{ "type": "Feature", "properties": { "内容": "特別養護老人ホームオレンジ姫路【地域密着型介護老人福祉施設入所者生活介護】飾磨区上野田6丁目38番地", "url": "https://www.kaigokensaku.mhlw.go.jp/28/index.php?action_kouhyou_detail_004_kani=true&JigyosyoCd=2894000575-00&ServiceCd=540&Type=search", "url2": "https://orangegroup-swc.com/orange_himeji/" }, "geometry": { "type": "Point", "coordinates": [ 134.68886950000001, 34.8042975 ] } },
{ "type": "Feature", "properties": { "内容": "地域密着型特別養護老人ホームサンライフ西庄【地域密着型介護老人福祉施設入所者生活介護】兵庫県姫路西庄甲87番１", "url": "https://www.kaigokensaku.mhlw.go.jp/28/index.php?action_kouhyou_detail_004_kani=true&JigyosyoCd=2894000849-00&ServiceCd=540&Type=search", "url2": "https://sasayurikai.or.jp" }, "geometry": { "type": "Point", "coordinates": [ 134.671322, 34.8298366 ] } },
{ "type": "Feature", "properties": { "内容": "特別養護老人ホーム　清住園【地域密着型介護老人福祉施設入所者生活介護】兵庫県姫路市飾東町清住555", "url": "https://www.kaigokensaku.mhlw.go.jp/28/index.php?action_kouhyou_detail_004_kani=true&JigyosyoCd=2894000443-00&ServiceCd=540&Type=search", "url2": "http://www.kiyosumien/jp" }, "geometry": { "type": "Point", "coordinates": [ 134.7755846, 34.8493937 ] } },
{ "type": "Feature", "properties": { "内容": "特別養護老人ホーム厚生園【地域密着型介護老人福祉施設入所者生活介護】兵庫県姫路市御立西4丁目1-19", "url": "https://www.kaigokensaku.mhlw.go.jp/28/index.php?action_kouhyou_detail_004_kani=true&JigyosyoCd=2894000104-00&ServiceCd=540&Type=search", "url2": "www.kousei-hp.jp/mitatikai/kouseien.html" }, "geometry": { "type": "Point", "coordinates": [ 134.65996210000003, 34.8609936 ] } },
{ "type": "Feature", "properties": { "内容": "ユニット型特別養護老人ホームネバーランド【地域密着型介護老人福祉施設入所者生活介護】兵庫県姫路市船津町5253-13ユニット型特別養護老人ホームネバーランド", "url": "https://www.kaigokensaku.mhlw.go.jp/28/index.php?action_kouhyou_detail_004_kani=true&JigyosyoCd=2894000633-00&ServiceCd=540&Type=search", "url2": "https://neverland.or.jp" }, "geometry": { "type": "Point", "coordinates": [ 134.764149570916743, 34.909428839183136 ] } },
{ "type": "Feature", "properties": { "内容": "地域密着型小規模特養　第二姫路・勝原ホーム【地域密着型介護老人福祉施設入所者生活介護】兵庫県姫路市勝原区下太田201", "url": "https://www.kaigokensaku.mhlw.go.jp/28/index.php?action_kouhyou_detail_004_kani=true&JigyosyoCd=2894000195-00&ServiceCd=540&Type=search", "url2": "http://www.katuhara.or.jp/" }, "geometry": { "type": "Point", "coordinates": [ 134.602038399999969, 34.8247088 ] } },
{ "type": "Feature", "properties": { "内容": "特別養護老人ホーム　こうろ苑【地域密着型介護老人福祉施設入所者生活介護】兵庫県姫路市香寺町香呂55番地１", "url": "https://www.kaigokensaku.mhlw.go.jp/28/index.php?action_kouhyou_detail_004_kani=true&JigyosyoCd=2894000351-00&ServiceCd=540&Type=search", "url2": "http://www.tokusou.or.jp" }, "geometry": { "type": "Point", "coordinates": [ 134.73885777077794, 34.913680866763677 ] } },
{ "type": "Feature", "properties": { "内容": "地域密着型特別養護老人ホーム　志深の苑【地域密着型介護老人福祉施設入所者生活介護】兵庫県姫路市御国野町深志野1430", "url": "https://www.kaigokensaku.mhlw.go.jp/28/index.php?action_kouhyou_detail_004_kani=true&JigyosyoCd=2894000369-00&ServiceCd=540&Type=search", "url2": "http://www.sankoushi.or.jp/" }, "geometry": { "type": "Point", "coordinates": [ 134.752717399999938, 34.832648 ] } },
{ "type": "Feature", "properties": { "内容": "特別養護老人ホーム　第二志深の苑【地域密着型介護老人福祉施設入所者生活介護】兵庫県姫路市御国野町深志野1430番地", "url": "https://www.kaigokensaku.mhlw.go.jp/28/index.php?action_kouhyou_detail_004_kani=true&JigyosyoCd=2894001169-00&ServiceCd=540&Type=search", "url2": "http://sankoushi.or.jp/" }, "geometry": { "type": "Point", "coordinates": [ 134.752904700000016, 34.8326442 ] } },
{ "type": "Feature", "properties": { "内容": "特別養護老人ホームしらさぎの里【地域密着型介護老人福祉施設入所者生活介護】兵庫県姫路市林田町山田351-3", "url": "https://www.kaigokensaku.mhlw.go.jp/28/index.php?action_kouhyou_detail_004_kani=true&JigyosyoCd=2894000336-00&ServiceCd=540&Type=search", "url2": "https://www.sirasagi.or.jp" }, "geometry": { "type": "Point", "coordinates": [ 134.591703, 34.9300852 ] } },
{ "type": "Feature", "properties": { "内容": "地域密着型特別養護老人ホーム夢の里【地域密着型介護老人福祉施設入所者生活介護】兵庫県姫路市夢前町戸倉1105-38", "url": "https://www.kaigokensaku.mhlw.go.jp/28/index.php?action_kouhyou_detail_004_kani=true&JigyosyoCd=2894000476-00&ServiceCd=540&Type=search", "url2": "http://www.houjyu-kai.or.jp/" }, "geometry": { "type": "Point", "coordinates": [ 134.6339345, 34.9625071 ] } },
{ "type": "Feature", "properties": { "内容": "特別養護老人ホーム　和好苑【地域密着型介護老人福祉施設入所者生活介護】兵庫県姫路市北条宮の町131番地", "url": "https://www.kaigokensaku.mhlw.go.jp/28/index.php?action_kouhyou_detail_004_kani=true&JigyosyoCd=2894000310-00&ServiceCd=540&Type=search", "url2": "info@himeji-fukujyukai.jp" }, "geometry": { "type": "Point", "coordinates": [ 134.693101800000022, 34.81754 ] } },
{ "type": "Feature", "properties": { "内容": "特別養護老人ホーム　いやさか苑【地域密着型介護老人福祉施設入所者生活介護】姫路市白浜町宇佐崎北1丁目29番地", "url": "https://www.kaigokensaku.mhlw.go.jp/28/index.php?action_kouhyou_detail_004_kani=true&JigyosyoCd=2894000252-00&ServiceCd=540&Type=search", "url2": "http://www.iyasakaen.jp/" }, "geometry": { "type": "Point", "coordinates": [ 134.720375713491876, 34.785297784585545 ] } },
{ "type": "Feature", "properties": { "内容": "特別養護老人ホームうさぎ【地域密着型介護老人福祉施設入所者生活介護】東山５７７", "url": "https://www.kaigokensaku.mhlw.go.jp/28/index.php?action_kouhyou_detail_004_kani=true&JigyosyoCd=2894000450-00&ServiceCd=540&Type=search", "url2": "http://www.taishukai.jp" }, "geometry": { "type": "Point", "coordinates": [ 134.725368500000059, 34.7859749 ] } },
{ "type": "Feature", "properties": { "内容": "地域密着型介護老人福祉施設　カラー尼崎【地域密着型介護老人福祉施設入所者生活介護】兵庫県尼崎市口田中1-16-2", "url": "https://www.kaigokensaku.mhlw.go.jp/28/index.php?action_kouhyou_detail_004_kani=true&JigyosyoCd=2893000121-00&ServiceCd=540&Type=search", "url2": "http://www.kouyukai.jp/" }, "geometry": { "type": "Point", "coordinates": [ 135.434258600000021, 34.7561153 ] } },
{ "type": "Feature", "properties": { "内容": "春日苑東館地域密着型特養【地域密着型介護老人福祉施設入所者生活介護】田能５丁目１０番５５号春日苑東館", "url": "https://www.kaigokensaku.mhlw.go.jp/28/index.php?action_kouhyou_detail_004_kani=true&JigyosyoCd=2893000204-00&ServiceCd=540&Type=search", "url2": null }, "geometry": { "type": "Point", "coordinates": [ 135.430758400000059, 34.768175 ] } },
{ "type": "Feature", "properties": { "内容": "地域密着型特別養護老人ホーム立花あまの里【地域密着型介護老人福祉施設入所者生活介護】兵庫県尼崎市水堂町1丁目10番37号特別養護老人ホーム立花あまの里", "url": "https://www.kaigokensaku.mhlw.go.jp/28/index.php?action_kouhyou_detail_004_kani=true&JigyosyoCd=2893000592-00&ServiceCd=540&Type=search", "url2": "http://www.shafuku-nijinokai.or.jp/tachibana_ama.html" }, "geometry": { "type": "Point", "coordinates": [ 135.396376700000019, 34.7423911 ] } },
{ "type": "Feature", "properties": { "内容": "地域密着型介護福祉施設　ロータス・ガーデン別邸杢園【地域密着型介護老人福祉施設入所者生活介護】兵庫県尼崎市三反田町3丁目3-16ヴィラ杢園", "url": "https://www.kaigokensaku.mhlw.go.jp/28/index.php?action_kouhyou_detail_004_kani=true&JigyosyoCd=2893001475-00&ServiceCd=540&Type=search", "url2": "villa-mokuen@e-akane.com" }, "geometry": { "type": "Point", "coordinates": [ 135.411421, 34.7365496 ] } },
{ "type": "Feature", "properties": { "内容": "特別養護老人ホーム錦が丘【地域密着型介護老人福祉施設入所者生活介護】魚住町錦が丘2丁目6番地8", "url": "https://www.kaigokensaku.mhlw.go.jp/28/index.php?action_kouhyou_detail_004_kani=true&JigyosyoCd=2892000437-00&ServiceCd=540&Type=search", "url2": "http://www.airouen.or.jp/" }, "geometry": { "type": "Point", "coordinates": [ 134.912713100000019, 34.6945068 ] } },
{ "type": "Feature", "properties": { "内容": "地域密着型特別養護老人ホームフィジオ大久保ケアホーム【地域密着型介護老人福祉施設入所者生活介護】兵庫県明石市大久保町大窪1533-1", "url": "https://www.kaigokensaku.mhlw.go.jp/28/index.php?action_kouhyou_detail_004_kani=true&JigyosyoCd=2892000577-00&ServiceCd=540&Type=search", "url2": "https://shoujunkai.net/" }, "geometry": { "type": "Point", "coordinates": [ 134.94127665229928, 34.691622987017141 ] } },
{ "type": "Feature", "properties": { "内容": "特別養護老人ホームパール【地域密着型介護老人福祉施設入所者生活介護】兵庫県明石市魚住町西岡616-1", "url": "https://www.kaigokensaku.mhlw.go.jp/28/index.php?action_kouhyou_detail_004_kani=true&JigyosyoCd=2892000593-00&ServiceCd=540&Type=search", "url2": "https://www.shinmeikai-fukushi.com/" }, "geometry": { "type": "Point", "coordinates": [ 134.904114, 34.695418 ] } },
{ "type": "Feature", "properties": { "内容": "地域密着型特別養護老人ホーム　シルバートピア西宮【地域密着型介護老人福祉施設入所者生活介護】西宮市室川町11-8", "url": "https://www.kaigokensaku.mhlw.go.jp/28/index.php?action_kouhyou_detail_004_kani=true&JigyosyoCd=2890900158-00&ServiceCd=540&Type=search", "url2": "http://www.n-watanabe-hosp.jp/koumeikai/silvertopia/index.html" }, "geometry": { "type": "Point", "coordinates": [ 135.343830700000012, 34.744468 ] } },
{ "type": "Feature", "properties": { "内容": "社会福祉法人聖徳園　いまづ聖徳園【地域密着型介護老人福祉施設入所者生活介護】兵庫県西宮市今津港町3-11", "url": "https://www.kaigokensaku.mhlw.go.jp/28/index.php?action_kouhyou_detail_004_kani=true&JigyosyoCd=2890900216-00&ServiceCd=540&Type=search", "url2": "http://www.shotokuen.or.jp/" }, "geometry": { "type": "Point", "coordinates": [ 135.349469499999941, 34.7226116 ] } },
{ "type": "Feature", "properties": { "内容": "サンケア上甲子園【地域密着型介護老人福祉施設入所者生活介護】兵庫県西宮市甲子園春風町1‐20", "url": "https://www.kaigokensaku.mhlw.go.jp/28/index.php?action_kouhyou_detail_004_kani=true&JigyosyoCd=2890900737-00&ServiceCd=540&Type=search", "url2": null }, "geometry": { "type": "Point", "coordinates": [ 135.361742949737533, 34.73140876563582 ] } },
{ "type": "Feature", "properties": { "内容": "特別養護老人ホーム　五色・サルビアホール【地域密着型介護老人福祉施設入所者生活介護】兵庫県洲本市五色町都志大日７０７番地", "url": "https://www.kaigokensaku.mhlw.go.jp/28/index.php?action_kouhyou_detail_004_kani=true&JigyosyoCd=2891500130-00&ServiceCd=540&Type=search", "url2": "http://www.hwc.or.jp/sumoto/index.html" }, "geometry": { "type": "Point", "coordinates": [ 134.789204760049415, 34.405354224799517 ] } },
{ "type": "Feature", "properties": { "内容": "洲本たちばなプラス【地域密着型介護老人福祉施設入所者生活介護】兵庫県洲本市宇原358番地5", "url": "https://www.kaigokensaku.mhlw.go.jp/28/index.php?action_kouhyou_detail_004_kani=true&JigyosyoCd=2891500148-00&ServiceCd=540&Type=search", "url2": "http://sumoto-tactibana.or.jp" }, "geometry": { "type": "Point", "coordinates": [ 134.865405399999986, 34.3319877 ] } },
{ "type": "Feature", "properties": { "内容": "千草たちばなプラス【地域密着型介護老人福祉施設入所者生活介護】兵庫県洲本市千草己2番地1", "url": "https://www.kaigokensaku.mhlw.go.jp/28/index.php?action_kouhyou_detail_004_kani=true&JigyosyoCd=2891500155-00&ServiceCd=540&Type=search", "url2": "http://sumoto-tachibana.or.jp/" }, "geometry": { "type": "Point", "coordinates": [ 134.888903759355088, 34.324019206728082 ] } },
{ "type": "Feature", "properties": { "内容": "特別養護老人ホームLes芦屋【地域密着型介護老人福祉施設入所者生活介護】兵庫県芦屋市川西町14-1", "url": "https://www.kaigokensaku.mhlw.go.jp/28/index.php?action_kouhyou_detail_004_kani=true&JigyosyoCd=2891000099-00&ServiceCd=540&Type=search", "url2": "http://www.chikusakai.jp/" }, "geometry": { "type": "Point", "coordinates": [ 135.302893283853138, 34.728033927563033 ] } },
{ "type": "Feature", "properties": { "内容": "特別養護老人ホーム　芦屋アラベラの家【地域密着型介護老人福祉施設入所者生活介護】兵庫県芦屋市朝日ヶ丘町9-1", "url": "https://www.kaigokensaku.mhlw.go.jp/28/index.php?action_kouhyou_detail_004_kani=true&JigyosyoCd=2891000073-00&ServiceCd=540&Type=search", "url2": "http://www.arabella.jp/" }, "geometry": { "type": "Point", "coordinates": [ 135.30440950000002, 34.746448 ] } },
{ "type": "Feature", "properties": { "内容": "地域密着型特別養護老人ホーム陽光苑【地域密着型介護老人福祉施設入所者生活介護】兵庫県芦屋市陽光町3-75陽光苑", "url": "https://www.kaigokensaku.mhlw.go.jp/28/index.php?action_kouhyou_detail_004_kani=true&JigyosyoCd=2891000065-00&ServiceCd=540&Type=search", "url2": "http://www.well-seikokai.jp" }, "geometry": { "type": "Point", "coordinates": [ 135.3128441, 34.7129277 ] } },
{ "type": "Feature", "properties": { "内容": "特別養護老人ホームあそか苑プンダ館【地域密着型介護老人福祉施設入所者生活介護】兵庫県伊丹市中野西1-108-1", "url": "https://www.kaigokensaku.mhlw.go.jp/28/index.php?action_kouhyou_detail_004_kani=true&JigyosyoCd=2893300042-00&ServiceCd=540&Type=search", "url2": "http://www.asokaen.or.jp" }, "geometry": { "type": "Point", "coordinates": [ 135.388076299999966, 34.7881973 ] } },
{ "type": "Feature", "properties": { "内容": "特別養護老人ホームあそか苑ウパラ館【地域密着型介護老人福祉施設入所者生活介護】伊丹市中野西1-105-10パドマ館", "url": "https://www.kaigokensaku.mhlw.go.jp/28/index.php?action_kouhyou_detail_004_kani=true&JigyosyoCd=2893300067-00&ServiceCd=540&Type=search", "url2": "http://www.asokaen.or.jp" }, "geometry": { "type": "Point", "coordinates": [ 135.388059738098121, 34.788466866381484 ] } },
{ "type": "Feature", "properties": { "内容": "特別養護老人ホームあそか苑ももは【地域密着型介護老人福祉施設入所者生活介護】荒牧７丁目２－２６", "url": "https://www.kaigokensaku.mhlw.go.jp/28/index.php?action_kouhyou_detail_004_kani=true&JigyosyoCd=2893300141-00&ServiceCd=540&Type=search", "url2": "http://www.asokaen.or.jp/" }, "geometry": { "type": "Point", "coordinates": [ 135.38540080000007, 34.812980400000015 ] } },
{ "type": "Feature", "properties": { "内容": "特別養護老人ホーム伸幸苑野間【地域密着型介護老人福祉施設入所者生活介護】兵庫県伊丹市野間北２丁目９番１７号", "url": "https://www.kaigokensaku.mhlw.go.jp/28/index.php?action_kouhyou_detail_004_kani=true&JigyosyoCd=2893300158-00&ServiceCd=540&Type=search", "url2": null }, "geometry": { "type": "Point", "coordinates": [ 135.393923399999949, 34.7704523 ] } },
{ "type": "Feature", "properties": { "内容": "特別養護老人ホームあそか苑みずほ【地域密着型介護老人福祉施設入所者生活介護】兵庫県伊丹市瑞穂町6-46", "url": "https://www.kaigokensaku.mhlw.go.jp/28/index.php?action_kouhyou_detail_004_kani=true&JigyosyoCd=2893300232-00&ServiceCd=540&Type=search", "url2": "http://www.asokaen.or.jp" }, "geometry": { "type": "Point", "coordinates": [ 135.402594200000067, 34.7914525 ] } },
{ "type": "Feature", "properties": { "内容": "特別養護老人ホームぐろ～りあ【地域密着型介護老人福祉施設入所者生活介護】兵庫県伊丹市北園1丁目19番1在宅複合型施設ぐろ～りあ", "url": "https://www.kaigokensaku.mhlw.go.jp/28/index.php?action_kouhyou_detail_004_kani=true&JigyosyoCd=2893300281-00&ServiceCd=540&Type=search", "url2": "http://helkyo.com/" }, "geometry": { "type": "Point", "coordinates": [ 135.416137299999946, 34.792744 ] } },
{ "type": "Feature", "properties": { "内容": "特別養護老人ホームケアハイツなかの【地域密着型介護老人福祉施設入所者生活介護】兵庫県伊丹市中野北4丁目2-11中野ぬくもりの郷", "url": "https://www.kaigokensaku.mhlw.go.jp/28/index.php?action_kouhyou_detail_004_kani=true&JigyosyoCd=2893300513-00&ServiceCd=540&Type=search", "url2": "http://jigyoudan-itami-hyogo.jp/" }, "geometry": { "type": "Point", "coordinates": [ 135.3805642, 34.7936679 ] } },
{ "type": "Feature", "properties": { "内容": "地域密着型特別養護老人ホーム　憩～荻野～【地域密着型介護老人福祉施設入所者生活介護】荻野４丁目７５番地", "url": "https://www.kaigokensaku.mhlw.go.jp/28/index.php?action_kouhyou_detail_004_kani=true&JigyosyoCd=2893300208-00&ServiceCd=540&Type=search", "url2": "http://www.nisitanikai.jp" }, "geometry": { "type": "Point", "coordinates": [ 135.39249719999998, 34.8065543 ] } },
{ "type": "Feature", "properties": { "内容": "特別養護老人ホームやすらぎの里ひだか【地域密着型介護老人福祉施設入所者生活介護】兵庫県豊岡市日高町伊府707", "url": "https://www.kaigokensaku.mhlw.go.jp/28/index.php?action_kouhyou_detail_004_kani=true&JigyosyoCd=2894400213-00&ServiceCd=540&Type=search", "url2": "http://www.tokuwakai.jp/" }, "geometry": { "type": "Point", "coordinates": [ 134.733490499999988, 35.4608736 ] } },
{ "type": "Feature", "properties": { "内容": "特別養護老人ホーム出石愛の園【地域密着型介護老人福祉施設入所者生活介護】豊岡市出石町福住１３３２", "url": "https://www.kaigokensaku.mhlw.go.jp/28/index.php?action_kouhyou_detail_004_kani=true&JigyosyoCd=2894400114-00&ServiceCd=540&Type=search", "url2": "izushiainosono.com" }, "geometry": { "type": "Point", "coordinates": [ 134.864373699999987, 35.4583023 ] } },
{ "type": "Feature", "properties": { "内容": "豊岡市地域密着型特別養護老人ホームここのか【地域密着型介護老人福祉施設入所者生活介護】兵庫県豊岡市九日市上町785番地", "url": "https://www.kaigokensaku.mhlw.go.jp/28/index.php?action_kouhyou_detail_004_kani=true&JigyosyoCd=2894400189-00&ServiceCd=540&Type=search", "url2": "http://www.aso.or.jp/" }, "geometry": { "type": "Point", "coordinates": [ 134.818621200000052, 35.5154614 ] } },
{ "type": "Feature", "properties": { "内容": "地域密着型小規模特別養護老人ホーム　はぎの郷【地域密着型介護老人福祉施設入所者生活介護】平岡町つつじ野8番地の1", "url": "https://www.kaigokensaku.mhlw.go.jp/28/index.php?action_kouhyou_detail_004_kani=true&JigyosyoCd=2892200607-00&ServiceCd=540&Type=search", "url2": "hagino310.com" }, "geometry": { "type": "Point", "coordinates": [ 134.872074200000043, 34.7433828 ] } },
{ "type": "Feature", "properties": { "内容": "特別養護老人ホームれい和こすもす園【地域密着型介護老人福祉施設入所者生活介護】加古川市神野町神野145-2", "url": "https://www.kaigokensaku.mhlw.go.jp/28/index.php?action_kouhyou_detail_004_kani=true&JigyosyoCd=2892200680-00&ServiceCd=540&Type=search", "url2": "https://www.nojigiku.or.jp" }, "geometry": { "type": "Point", "coordinates": [ 134.8821146, 34.7761032 ] } },
{ "type": "Feature", "properties": { "内容": "地域密着型特別養護老人ホーム千鶴園【地域密着型介護老人福祉施設入所者生活介護】兵庫県加古川市野口町水足109-1", "url": "https://www.kaigokensaku.mhlw.go.jp/28/index.php?action_kouhyou_detail_004_kani=true&JigyosyoCd=2892200342-00&ServiceCd=540&Type=search", "url2": "http://www.mankien.com" }, "geometry": { "type": "Point", "coordinates": [ 134.869510566270492, 34.761884946187834 ] } },
{ "type": "Feature", "properties": { "内容": "地域密着型小規模特別養護老人ホーム　第二鹿児の郷【地域密着型介護老人福祉施設入所者生活介護】平荘町山角251-2", "url": "https://www.kaigokensaku.mhlw.go.jp/28/index.php?action_kouhyou_detail_004_kani=true&JigyosyoCd=2892200144-00&ServiceCd=540&Type=search", "url2": "https://ftk1998.or.jp/" }, "geometry": { "type": "Point", "coordinates": [ 134.872067311500558, 34.806711604597815 ] } },
{ "type": "Feature", "properties": { "内容": "陽だまりの家【地域密着型介護老人福祉施設入所者生活介護】加古川市平岡町土山字川池423-－１７", "url": "https://www.kaigokensaku.mhlw.go.jp/28/index.php?action_kouhyou_detail_004_kani=true&JigyosyoCd=2892200177-00&ServiceCd=540&Type=search", "url2": "http://www.hidamarinoie.org" }, "geometry": { "type": "Point", "coordinates": [ 134.896986845330048, 34.729090155615374 ] } },
{ "type": "Feature", "properties": { "内容": "尾上の郷　小規模特養【地域密着型介護老人福祉施設入所者生活介護】加古川市尾上町池田830-1", "url": "https://www.kaigokensaku.mhlw.go.jp/28/index.php?action_kouhyou_detail_004_kani=true&JigyosyoCd=2892200169-00&ServiceCd=540&Type=search", "url2": "http//www.onoenosato.org" }, "geometry": { "type": "Point", "coordinates": [ 134.821251193917846, 34.739690068696035 ] } },
{ "type": "Feature", "properties": { "内容": "地域密着型介護老人福祉施設　らいふあかり【地域密着型介護老人福祉施設入所者生活介護】加古川町中津557-1", "url": "https://www.kaigokensaku.mhlw.go.jp/28/index.php?action_kouhyou_detail_004_kani=true&JigyosyoCd=2892200201-00&ServiceCd=540&Type=search", "url2": "https://akari-fukushikai.or.jp" }, "geometry": { "type": "Point", "coordinates": [ 134.847404200000028, 34.7777012 ] } },
{ "type": "Feature", "properties": { "内容": "小規模特養まんてん加古川【地域密着型介護老人福祉施設入所者生活介護】加古川市西神吉町大国１１６－１", "url": "https://www.kaigokensaku.mhlw.go.jp/28/index.php?action_kouhyou_detail_004_kani=true&JigyosyoCd=2892200193-00&ServiceCd=540&Type=search", "url2": "http://www.manten.org/02_sankeikai/" }, "geometry": { "type": "Point", "coordinates": [ 134.816476700000067, 34.7906387 ] } },
{ "type": "Feature", "properties": { "内容": "特別養護老人ホームせいりょう園【地域密着型介護老人福祉施設入所者生活介護】兵庫県加古川市野口町長砂95-20", "url": "https://www.kaigokensaku.mhlw.go.jp/28/index.php?action_kouhyou_detail_004_kani=true&JigyosyoCd=2892200334-00&ServiceCd=540&Type=search", "url2": "http://www.seiryoen.or.jp" }, "geometry": { "type": "Point", "coordinates": [ 134.849103959524541, 34.749404000290177 ] } },
{ "type": "Feature", "properties": { "内容": "地域密着型特別養護老人ホームしのべの里【地域密着型介護老人福祉施設入所者生活介護】兵庫県加古川市別府町新野辺2528", "url": "https://www.kaigokensaku.mhlw.go.jp/28/index.php?action_kouhyou_detail_004_kani=true&JigyosyoCd=2892200359-00&ServiceCd=540&Type=search", "url2": "https://hinode.or.jp/establishment/shinobenosato/" }, "geometry": { "type": "Point", "coordinates": [ 134.839759745368951, 34.729714417480487 ] } },
{ "type": "Feature", "properties": { "内容": "ユニット型指定地域密着型特別養護老人ホーム　千種の苑【地域密着型介護老人福祉施設入所者生活介護】赤穂市東有年６６４番地１", "url": "https://www.kaigokensaku.mhlw.go.jp/28/index.php?action_kouhyou_detail_004_kani=true&JigyosyoCd=2894300041-00&ServiceCd=540&Type=search", "url2": "http://www.shunjyukai.or.jp/" }, "geometry": { "type": "Point", "coordinates": [ 134.369543519049103, 34.827940366431008 ] } },
{ "type": "Feature", "properties": { "内容": "地域密着型特別養護老人ホーム常寿園【地域密着型介護老人福祉施設入所者生活介護】高砂市北浜町牛谷718-53", "url": "https://www.kaigokensaku.mhlw.go.jp/28/index.php?action_kouhyou_detail_004_kani=true&JigyosyoCd=2892100039-00&ServiceCd=540&Type=search", "url2": "http://www.jyoujyuen.com/" }, "geometry": { "type": "Point", "coordinates": [ 134.760203144982938, 34.793255918112798 ] } },
{ "type": "Feature", "properties": { "内容": "地域密着型特別養護老人ホーム　川西小花の生活【地域密着型介護老人福祉施設入所者生活介護】兵庫県川西市小花2丁目2-2複合介護施設　川西小花の生活", "url": "https://www.kaigokensaku.mhlw.go.jp/28/index.php?action_kouhyou_detail_004_kani=true&JigyosyoCd=2893100178-00&ServiceCd=540&Type=search", "url2": "http://nozomi-care.jp/obana/" }, "geometry": { "type": "Point", "coordinates": [ 135.419699057277597, 34.826618702585378 ] } },
{ "type": "Feature", "properties": { "内容": "特別養護老人ホームぬく森【地域密着型介護老人福祉施設入所者生活介護】兵庫県小野市久保木町1561-24", "url": "https://www.kaigokensaku.mhlw.go.jp/28/index.php?action_kouhyou_detail_004_kani=true&JigyosyoCd=2891900058-00&ServiceCd=540&Type=search", "url2": "http://nukumori-komorebi.com" }, "geometry": { "type": "Point", "coordinates": [ 134.95659610000007, 34.8746663 ] } },
{ "type": "Feature", "properties": { "内容": "特別養護老人ホーム　なごやか【地域密着型介護老人福祉施設入所者生活介護】加西市下宮木町512番地", "url": "https://www.kaigokensaku.mhlw.go.jp/28/index.php?action_kouhyou_detail_004_kani=true&JigyosyoCd=2892600061-00&ServiceCd=540&Type=search", "url2": "http://shinshu-kai.or.jp/" }, "geometry": { "type": "Point", "coordinates": [ 134.878560200000038, 34.8893469 ] } },
{ "type": "Feature", "properties": { "内容": "特別養護老人ホームおがわの里【地域密着型介護老人福祉施設入所者生活介護】兵庫県丹波市山南町岩屋637", "url": "https://www.kaigokensaku.mhlw.go.jp/28/index.php?action_kouhyou_detail_004_kani=true&JigyosyoCd=2891300101-00&ServiceCd=540&Type=search", "url2": "www.mitsumi.or.jp/ogawanosato" }, "geometry": { "type": "Point", "coordinates": [ 135.011144687596925, 35.084558984660177 ] } },
{ "type": "Feature", "properties": { "内容": "地域密着型特別養護老人ホーム太陽の家ウエスト【地域密着型介護老人福祉施設入所者生活介護】南あわじ市神代国衙1259番地1", "url": "https://www.kaigokensaku.mhlw.go.jp/28/index.php?action_kouhyou_detail_004_kani=true&JigyosyoCd=2891700094-00&ServiceCd=540&Type=search", "url2": "tokuyouwest@taiyonoie.jp" }, "geometry": { "type": "Point", "coordinates": [ 134.77985549999994, 34.2944796 ] } },
{ "type": "Feature", "properties": { "内容": "地域密着型　介護老人福祉施設　いちごの家・楽園おのころ【地域密着型介護老人福祉施設入所者生活介護】榎列下幡多804-1いちごの家・楽園おのころ", "url": "https://www.kaigokensaku.mhlw.go.jp/28/index.php?action_kouhyou_detail_004_kani=true&JigyosyoCd=2891700102-00&ServiceCd=540&Type=search", "url2": "http://www.ichie-fukushikai.or.jp" }, "geometry": { "type": "Point", "coordinates": [ 134.7732628, 34.3123977 ] } },
{ "type": "Feature", "properties": { "内容": "特別養護老人ホーム　翁寿園【地域密着型介護老人福祉施設入所者生活介護】兵庫県南あわじ市八木寺内373-1", "url": "https://www.kaigokensaku.mhlw.go.jp/28/index.php?action_kouhyou_detail_004_kani=true&JigyosyoCd=2891700086-00&ServiceCd=540&Type=search", "url2": "https://awajishima-fukushikai.or.jp/" }, "geometry": { "type": "Point", "coordinates": [ 134.797881354764627, 34.279333938851394 ] } },
{ "type": "Feature", "properties": { "内容": "地域密着型特別養護老人ホーム　さくらの苑【地域密着型介護老人福祉施設入所者生活介護】兵庫県朝来市和田山町竹田2486-10", "url": "https://www.kaigokensaku.mhlw.go.jp/28/index.php?action_kouhyou_detail_004_kani=true&JigyosyoCd=2894900162-00&ServiceCd=540&Type=search", "url2": "http://www.kobeseirei.or.jp/" }, "geometry": { "type": "Point", "coordinates": [ 134.8371833, 35.2967673 ] } },
{ "type": "Feature", "properties": { "内容": "地域密着型特別養護老人ホーム　ほほえみ【地域密着型介護老人福祉施設入所者生活介護】久留麻28番地41", "url": "https://www.kaigokensaku.mhlw.go.jp/28/index.php?action_kouhyou_detail_004_kani=true&JigyosyoCd=2891600104-00&ServiceCd=540&Type=search", "url2": "http://www.chidorikai.or.jp" }, "geometry": { "type": "Point", "coordinates": [ 134.993088119712866, 34.531717662624736 ] } },
{ "type": "Feature", "properties": { "内容": "地域密着型介護老人福祉施設　ヴィラ一宮【地域密着型介護老人福祉施設入所者生活介護】兵庫県淡路市高山甲432-3", "url": "https://www.kaigokensaku.mhlw.go.jp/28/index.php?action_kouhyou_detail_004_kani=true&JigyosyoCd=2891600062-00&ServiceCd=540&Type=search", "url2": "https://www.ichinomiya.tokuyou.jp/" }, "geometry": { "type": "Point", "coordinates": [ 134.815926600000012, 34.4366089 ] } },
{ "type": "Feature", "properties": { "内容": "地域密着型特別養護老人ホームフロイデ滝野【地域密着型介護老人福祉施設入所者生活介護】兵庫県加東市下滝野字高倉1283-37", "url": "https://www.kaigokensaku.mhlw.go.jp/28/index.php?action_kouhyou_detail_004_kani=true&JigyosyoCd=2892500055-00&ServiceCd=540&Type=search", "url2": "http://www.furoide-takino.or.jp" }, "geometry": { "type": "Point", "coordinates": [ 134.9545111, 34.9370598 ] } },
{ "type": "Feature", "properties": { "内容": "特別養護老人ホーム　栗栖の荘（ユニット型）【地域密着型介護老人福祉施設入所者生活介護】兵庫県たつの市新宮町平野778-5", "url": "https://www.kaigokensaku.mhlw.go.jp/28/index.php?action_kouhyou_detail_004_kani=true&JigyosyoCd=2893600144-00&ServiceCd=540&Type=search", "url2": "http;//www.kurisunosou.ecnet.jp" }, "geometry": { "type": "Point", "coordinates": [ 134.5340140951065, 34.93179058141498 ] } },
{ "type": "Feature", "properties": { "内容": "特別養護老人ホーム　ゆりの荘【地域密着型介護老人福祉施設入所者生活介護】兵庫県多可郡多可町八千代区俵田１１１－２７", "url": "https://www.kaigokensaku.mhlw.go.jp/28/index.php?action_kouhyou_detail_004_kani=true&JigyosyoCd=2892700044-00&ServiceCd=540&Type=search", "url2": "http://www.rakuenkai.or.jp" }, "geometry": { "type": "Point", "coordinates": [ 134.891776400000026, 35.0149509 ] } },
{ "type": "Feature", "properties": { "内容": "地域密着型特別養護老人ホームあえの里弐番館【地域密着型介護老人福祉施設入所者生活介護】兵庫県加古郡播磨町宮北１丁目６番15号", "url": "https://www.kaigokensaku.mhlw.go.jp/28/index.php?action_kouhyou_detail_004_kani=true&JigyosyoCd=2892800083-00&ServiceCd=540&Type=search", "url2": "https://aenosato.jp" }, "geometry": { "type": "Point", "coordinates": [ 134.8659146, 34.7184911 ] } },
{ "type": "Feature", "properties": { "内容": "特別養護老人ホーム　サルビア荘【地域密着型介護老人福祉施設入所者生活介護】神崎郡福崎町大貫580", "url": "https://www.kaigokensaku.mhlw.go.jp/28/index.php?action_kouhyou_detail_004_kani=true&JigyosyoCd=2893400057-00&ServiceCd=540&Type=search", "url2": "http://www.enyuukai.jp" }, "geometry": { "type": "Point", "coordinates": [ 134.7855624, 34.9446364 ] } },
{ "type": "Feature", "properties": { "内容": "地域密着型特別養護老人ホームうぐいす荘【地域密着型介護老人福祉施設入所者生活介護】兵庫県神埼郡神河町福本字中茶屋山1241-3", "url": "https://www.kaigokensaku.mhlw.go.jp/28/index.php?action_kouhyou_detail_004_kani=true&JigyosyoCd=2893400065-00&ServiceCd=540&Type=search", "url2": "http://www.hujyu-kai.or.jp/" }, "geometry": { "type": "Point", "coordinates": [ 135.183070600000065, 34.6912688 ] } },
{ "type": "Feature", "properties": { "内容": "地域密着型特別養護老人ホーム　太子の郷【地域密着型介護老人福祉施設入所者生活介護】兵庫県揖保郡太子町太田231番地の1", "url": "https://www.kaigokensaku.mhlw.go.jp/28/index.php?action_kouhyou_detail_004_kani=true&JigyosyoCd=2894100029-00&ServiceCd=540&Type=search", "url2": "http://taishinosato.org/" }, "geometry": { "type": "Point", "coordinates": [ 134.598354200000017, 34.8358394 ] } },
{ "type": "Feature", "properties": { "内容": "特別養護老人ホーム　祐あいホーム上月【地域密着型介護老人福祉施設入所者生活介護】兵庫県佐用郡佐用町福吉７２１番地", "url": "https://www.kaigokensaku.mhlw.go.jp/28/index.php?action_kouhyou_detail_004_kani=true&JigyosyoCd=2893700076-00&ServiceCd=540&Type=search", "url2": "http://www.seifukai.or.jp" }, "geometry": { "type": "Point", "coordinates": [ 134.3085304, 35.0117692 ] } }
]
}
