{
"type": "FeatureCollection",
"name": "geo_28_特定施設入居者生活介護（有料老人ホーム）",
"crs": { "type": "name", "properties": { "name": "urn:ogc:def:crs:OGC:1.3:CRS84" } },
"features": [
{ "type": "Feature", "properties": { "内容": "エレガーノ甲南【特定施設入居者生活介護（有料老人ホーム）】兵庫県神戸市東灘区本山南町３丁目３－１", "url": "https://www.kaigokensaku.mhlw.go.jp/28/index.php?action_kouhyou_detail_004_kani=true&JigyosyoCd=2870101579-00&ServiceCd=331&Type=search", "url2": "http://www.s-carelife.co.jp" }, "geometry": { "type": "Point", "coordinates": [ 135.283119427647421, 34.721534600952715 ] } },
{ "type": "Feature", "properties": { "内容": "介護付有料老人ホームアルテ石屋川【特定施設入居者生活介護（有料老人ホーム）】神戸市東灘区御影塚町１－１０－１３", "url": "https://www.kaigokensaku.mhlw.go.jp/28/index.php?action_kouhyou_detail_004_kani=true&JigyosyoCd=2870101892-00&ServiceCd=331&Type=search", "url2": "http://i-souseikai.jp/" }, "geometry": { "type": "Point", "coordinates": [ 135.250939799999969, 34.7102759 ] } },
{ "type": "Feature", "properties": { "内容": "介護付有料老人ホーム　サンライフ住吉川【特定施設入居者生活介護（有料老人ホーム）】住吉東町１丁目３番１７－３号", "url": "https://www.kaigokensaku.mhlw.go.jp/28/index.php?action_kouhyou_detail_004_kani=true&JigyosyoCd=2870101991-00&ServiceCd=331&Type=search", "url2": "http://sunlifesumiyoshigawa.jp" }, "geometry": { "type": "Point", "coordinates": [ 135.267199500000061, 34.7154227 ] } },
{ "type": "Feature", "properties": { "内容": "グランドビュー甲南【特定施設入居者生活介護（有料老人ホーム）】神戸市東灘区森北町６丁目１－３", "url": "https://www.kaigokensaku.mhlw.go.jp/28/index.php?action_kouhyou_detail_004_kani=true&JigyosyoCd=2870102239-00&ServiceCd=331&Type=search", "url2": "http://www.kobe-fukuseikai.com/facility/gvkonan.html" }, "geometry": { "type": "Point", "coordinates": [ 135.289258, 34.735485 ] } },
{ "type": "Feature", "properties": { "内容": "介護付有料老人ホーム　はぴね神戸魚崎【特定施設入居者生活介護（有料老人ホーム）】兵庫県神戸市東灘区魚崎南町5-5-21", "url": "https://www.kaigokensaku.mhlw.go.jp/28/index.php?action_kouhyou_detail_004_kani=true&JigyosyoCd=2870102635-00&ServiceCd=331&Type=search", "url2": "http://www.greenlife-inc.co.jp" }, "geometry": { "type": "Point", "coordinates": [ 135.269810600000028, 34.7073819 ] } },
{ "type": "Feature", "properties": { "内容": "はぴね神戸魚崎弐番館【特定施設入居者生活介護（有料老人ホーム）】兵庫県神戸市東灘区魚崎南町8丁目10－7", "url": "https://www.kaigokensaku.mhlw.go.jp/28/index.php?action_kouhyou_detail_004_kani=true&JigyosyoCd=2870102643-00&ServiceCd=331&Type=search", "url2": "http://www.greenlife-inc.co.jp/" }, "geometry": { "type": "Point", "coordinates": [ 135.271360299999969, 34.7129035 ] } },
{ "type": "Feature", "properties": { "内容": "介護付有料老人ホーム甲南山手【特定施設入居者生活介護（有料老人ホーム）】兵庫県神戸市東灘区本庄町1丁目10-2", "url": "https://www.kaigokensaku.mhlw.go.jp/28/index.php?action_kouhyou_detail_004_kani=true&JigyosyoCd=2870103922-00&ServiceCd=331&Type=search", "url2": "http://www.chikusakai.jp" }, "geometry": { "type": "Point", "coordinates": [ 135.294308, 34.727886 ] } },
{ "type": "Feature", "properties": { "内容": "プレザングラングラン岡本【特定施設入居者生活介護（有料老人ホーム）】兵庫県神戸市東灘区岡本7-3-21", "url": "https://www.kaigokensaku.mhlw.go.jp/28/index.php?action_kouhyou_detail_004_kani=true&JigyosyoCd=2870103799-00&ServiceCd=331&Type=search", "url2": null }, "geometry": { "type": "Point", "coordinates": [ 135.2718178, 34.7290055 ] } },
{ "type": "Feature", "properties": { "内容": "グランダ御影山手【特定施設入居者生活介護（有料老人ホーム）】兵庫県神戸市東灘区御影山手一丁目2番26号", "url": "https://www.kaigokensaku.mhlw.go.jp/28/index.php?action_kouhyou_detail_004_kani=true&JigyosyoCd=2870101181-00&ServiceCd=331&Type=search", "url2": "http://www.benesse-style-care.co.jp/" }, "geometry": { "type": "Point", "coordinates": [ 135.254569700000047, 34.7256519 ] } },
{ "type": "Feature", "properties": { "内容": "グランダ御影山手弐番館【特定施設入居者生活介護（有料老人ホーム）】兵庫県神戸市東灘区御影山手一丁目2番31号", "url": "https://www.kaigokensaku.mhlw.go.jp/28/index.php?action_kouhyou_detail_004_kani=true&JigyosyoCd=2870101850-00&ServiceCd=331&Type=search", "url2": "http://www.benesse-style-care.co.jp/" }, "geometry": { "type": "Point", "coordinates": [ 135.255061399999931, 34.7253963 ] } },
{ "type": "Feature", "properties": { "内容": "グランダ甲南山手【特定施設入居者生活介護（有料老人ホーム）】兵庫県神戸市東灘区深江北町１丁目15番4号", "url": "https://www.kaigokensaku.mhlw.go.jp/28/index.php?action_kouhyou_detail_004_kani=true&JigyosyoCd=2870102577-00&ServiceCd=331&Type=search", "url2": "http://www.benesse-style-care.co.jp/" }, "geometry": { "type": "Point", "coordinates": [ 135.2971186, 34.7272524 ] } },
{ "type": "Feature", "properties": { "内容": "リハビリホームグランダ摂津本山【特定施設入居者生活介護（有料老人ホーム）】兵庫県神戸市東灘区本山南町五丁目2番12号", "url": "https://www.kaigokensaku.mhlw.go.jp/28/index.php?action_kouhyou_detail_004_kani=true&JigyosyoCd=2870102767-00&ServiceCd=331&Type=search", "url2": "http://www.benesse-style-care.co.jp/" }, "geometry": { "type": "Point", "coordinates": [ 135.278074708598325, 34.72035694785454 ] } },
{ "type": "Feature", "properties": { "内容": "メディカル・リハビリホームグランダ神戸東灘【特定施設入居者生活介護（有料老人ホーム）】兵庫県神戸市東灘区深江南町二丁目8番25号", "url": "https://www.kaigokensaku.mhlw.go.jp/28/index.php?action_kouhyou_detail_004_kani=true&JigyosyoCd=2870102056-00&ServiceCd=331&Type=search", "url2": "http://www.benesse-style-care.co.jp/" }, "geometry": { "type": "Point", "coordinates": [ 135.299789499999946, 34.7219231 ] } },
{ "type": "Feature", "properties": { "内容": "グランフォレスト神戸御影【特定施設入居者生活介護（有料老人ホーム）】兵庫県神戸市東灘区鴨子ヶ原３-２-４３", "url": "https://www.kaigokensaku.mhlw.go.jp/28/index.php?action_kouhyou_detail_004_kani=true&JigyosyoCd=2870103237-00&ServiceCd=331&Type=search", "url2": "https://www.fillcare.co.jp/" }, "geometry": { "type": "Point", "coordinates": [ 135.250098, 34.7321415 ] } },
{ "type": "Feature", "properties": { "内容": "チャームプレミア御影【特定施設入居者生活介護（有料老人ホーム）】兵庫県神戸市東灘区住吉本町3丁目13番7号", "url": "https://www.kaigokensaku.mhlw.go.jp/28/index.php?action_kouhyou_detail_004_kani=true&JigyosyoCd=2870103344-00&ServiceCd=331&Type=search", "url2": "https://www.charmcc.jp/home/charmpremier_mikage/" }, "geometry": { "type": "Point", "coordinates": [ 135.25711290000001, 34.7226643 ] } },
{ "type": "Feature", "properties": { "内容": "リアンレーヴ東灘住吉【特定施設入居者生活介護（有料老人ホーム）】住吉宮町１－７－８リアンレーヴ東灘住吉", "url": "https://www.kaigokensaku.mhlw.go.jp/28/index.php?action_kouhyou_detail_004_kani=true&JigyosyoCd=2870103773-00&ServiceCd=331&Type=search", "url2": "https://www.kinoshita-kaigo.co.jp/" }, "geometry": { "type": "Point", "coordinates": [ 135.2628094, 34.7127844 ] } },
{ "type": "Feature", "properties": { "内容": "シニアスタイル神戸住吉【特定施設入居者生活介護（有料老人ホーム）】兵庫県神戸市東灘区住吉東町4丁目2番17号", "url": "https://www.kaigokensaku.mhlw.go.jp/28/index.php?action_kouhyou_detail_004_kani=true&JigyosyoCd=2870103674-00&ServiceCd=331&Type=search", "url2": "https://senior-style.co.jp/kobesumiyoshi/" }, "geometry": { "type": "Point", "coordinates": [ 135.2649343, 34.7184121 ] } },
{ "type": "Feature", "properties": { "内容": "イリーゼ神戸六甲【特定施設入居者生活介護（有料老人ホーム）】兵庫県神戸市灘区篠原本町4丁目6番3号イリーゼ神戸六甲", "url": "https://www.kaigokensaku.mhlw.go.jp/28/index.php?action_kouhyou_detail_004_kani=true&JigyosyoCd=2870202922-00&ServiceCd=331&Type=search", "url2": "http://www.irs.jp" }, "geometry": { "type": "Point", "coordinates": [ 135.226823599999989, 34.7211682 ] } },
{ "type": "Feature", "properties": { "内容": "有料老人ホーム六甲台翠光園【特定施設入居者生活介護（有料老人ホーム）】神戸市灘区鶴甲5町目1番50号有料老人ホーム六甲台翠光園", "url": "https://www.kaigokensaku.mhlw.go.jp/28/index.php?action_kouhyou_detail_004_kani=true&JigyosyoCd=2870201981-00&ServiceCd=331&Type=search", "url2": "http://.kisiro-suikou.org/" }, "geometry": { "type": "Point", "coordinates": [ 135.2358372, 34.7380948 ] } },
{ "type": "Feature", "properties": { "内容": "エレガーノ摩耶【特定施設入居者生活介護（有料老人ホーム）】神戸市灘区摩耶海岸通一丁目3番10号", "url": "https://www.kaigokensaku.mhlw.go.jp/28/index.php?action_kouhyou_detail_004_kani=true&JigyosyoCd=2870201130-00&ServiceCd=331&Type=search", "url2": "https://www.s-carelife.co.jp" }, "geometry": { "type": "Point", "coordinates": [ 135.221057420901474, 34.699609855203363 ] } },
{ "type": "Feature", "properties": { "内容": "コンフォートヒルズ六甲【特定施設入居者生活介護（有料老人ホーム）】神戸市灘区篠原北町3丁目11-14", "url": "https://www.kaigokensaku.mhlw.go.jp/28/index.php?action_kouhyou_detail_004_kani=true&JigyosyoCd=2870201643-00&ServiceCd=331&Type=search", "url2": "http://www.secomfortwest.com" }, "geometry": { "type": "Point", "coordinates": [ 135.225302199336312, 34.724235663230942 ] } },
{ "type": "Feature", "properties": { "内容": "ニチイケアセンター神戸摩耶【特定施設入居者生活介護（有料老人ホーム）】兵庫県神戸市灘区味泥町4-19", "url": "https://www.kaigokensaku.mhlw.go.jp/28/index.php?action_kouhyou_detail_004_kani=true&JigyosyoCd=2870202120-00&ServiceCd=331&Type=search", "url2": "http://www.nichiigakkan.co.jp" }, "geometry": { "type": "Point", "coordinates": [ 135.2258971, 34.7034934 ] } },
{ "type": "Feature", "properties": { "内容": "メディカルホームグランダ御影西【特定施設入居者生活介護（有料老人ホーム）】兵庫県神戸市灘区記田町2-1-11", "url": "https://www.kaigokensaku.mhlw.go.jp/28/index.php?action_kouhyou_detail_004_kani=true&JigyosyoCd=2870201841-00&ServiceCd=331&Type=search", "url2": "http://www.benesse-style-care.co.jp/" }, "geometry": { "type": "Point", "coordinates": [ 135.247903800000017, 34.7133839 ] } },
{ "type": "Feature", "properties": { "内容": "グランフォレスト神戸六甲【特定施設入居者生活介護（有料老人ホーム）】兵庫県神戸市灘区中郷町３丁目３－７グランフォレスト神戸六甲", "url": "https://www.kaigokensaku.mhlw.go.jp/28/index.php?action_kouhyou_detail_004_kani=true&JigyosyoCd=2870201718-00&ServiceCd=331&Type=search", "url2": "https://www.fillcare.co.jp" }, "geometry": { "type": "Point", "coordinates": [ 135.245264200000065, 34.716525 ] } },
{ "type": "Feature", "properties": { "内容": "チャームスイート神戸摩耶【特定施設入居者生活介護（有料老人ホーム）】箕岡通4丁目5－2", "url": "https://www.kaigokensaku.mhlw.go.jp/28/index.php?action_kouhyou_detail_004_kani=true&JigyosyoCd=2870202070-00&ServiceCd=331&Type=search", "url2": "http://www.charmcc.jp" }, "geometry": { "type": "Point", "coordinates": [ 135.215014200000041, 34.7200801 ] } },
{ "type": "Feature", "properties": { "内容": "SOMPOケア　ラヴィーレ六甲【特定施設入居者生活介護（有料老人ホーム）】兵庫県神戸市灘区篠原伯母野山町1丁目2番2号", "url": "https://www.kaigokensaku.mhlw.go.jp/28/index.php?action_kouhyou_detail_004_kani=true&JigyosyoCd=2870202740-00&ServiceCd=331&Type=search", "url2": "https://www.sompocare.com/" }, "geometry": { "type": "Point", "coordinates": [ 135.229629199999977, 34.7279316 ] } },
{ "type": "Feature", "properties": { "内容": "トラストグレイス御影　介護棟【特定施設入居者生活介護（有料老人ホーム）】神戸市灘区土山町１６-２", "url": "https://www.kaigokensaku.mhlw.go.jp/28/index.php?action_kouhyou_detail_004_kani=true&JigyosyoCd=2870203144-00&ServiceCd=331&Type=search", "url2": "https://trustgrace.jp" }, "geometry": { "type": "Point", "coordinates": [ 135.2427001, 34.7318728 ] } },
{ "type": "Feature", "properties": { "内容": "イリーゼ神戸六甲【特定施設入居者生活介護（有料老人ホーム）】兵庫県神戸市灘区篠原本町4-6-3", "url": "https://www.kaigokensaku.mhlw.go.jp/28/index.php?action_kouhyou_detail_004_kani=true&JigyosyoCd=2870203409-00&ServiceCd=331&Type=search", "url2": "https://www.irs.jp" }, "geometry": { "type": "Point", "coordinates": [ 135.2268192, 34.7211746 ] } },
{ "type": "Feature", "properties": { "内容": "そんぽの家兵庫柳原【特定施設入居者生活介護（有料老人ホーム）】神戸市兵庫区三川口町三丁目5-15そんぽの家兵庫柳原", "url": "https://www.kaigokensaku.mhlw.go.jp/28/index.php?action_kouhyou_detail_004_kani=true&JigyosyoCd=2870501463-00&ServiceCd=331&Type=search", "url2": "https://www.sompocare.com/service/home/kaigo/H000205" }, "geometry": { "type": "Point", "coordinates": [ 135.1693775, 34.6717873 ] } },
{ "type": "Feature", "properties": { "内容": "エクセレント神戸【特定施設入居者生活介護（有料老人ホーム）】神戸市兵庫区菊水町１０丁目９－１８エクセレント神戸", "url": "https://www.kaigokensaku.mhlw.go.jp/28/index.php?action_kouhyou_detail_004_kani=true&JigyosyoCd=2870502339-00&ServiceCd=331&Type=search", "url2": "https://www.excare.co.jp/" }, "geometry": { "type": "Point", "coordinates": [ 135.154667300000028, 34.680086785530314 ] } },
{ "type": "Feature", "properties": { "内容": "神戸長田ケアパークそよ風【特定施設入居者生活介護（有料老人ホーム）】兵庫県神戸市長田区六番町5丁目2－1", "url": "https://www.kaigokensaku.mhlw.go.jp/28/index.php?action_kouhyou_detail_004_kani=true&JigyosyoCd=2870602956-00&ServiceCd=331&Type=search", "url2": "https://www.unimat-rc.co.jp" }, "geometry": { "type": "Point", "coordinates": [ 135.1524474, 34.6706526 ] } },
{ "type": "Feature", "properties": { "内容": "長田すみれビレッジ【特定施設入居者生活介護（有料老人ホーム）】兵庫県神戸市長田区房王寺町２丁目３－２５", "url": "https://www.kaigokensaku.mhlw.go.jp/28/index.php?action_kouhyou_detail_004_kani=true&JigyosyoCd=2870601453-00&ServiceCd=331&Type=search", "url2": "info@nagatasumire.jp" }, "geometry": { "type": "Point", "coordinates": [ 135.15228419999994, 34.677417 ] } },
{ "type": "Feature", "properties": { "内容": "有料老人ホーム　エリーネス須磨【特定施設入居者生活介護（有料老人ホーム）】神戸市須磨区友が丘7丁目1番地21", "url": "https://www.kaigokensaku.mhlw.go.jp/28/index.php?action_kouhyou_detail_004_kani=true&JigyosyoCd=2870700305-00&ServiceCd=331&Type=search", "url2": "http://www.elines-suma.com/" }, "geometry": { "type": "Point", "coordinates": [ 135.1004944, 34.6714557 ] } },
{ "type": "Feature", "properties": { "内容": "エリーネス須磨　介護の家【特定施設入居者生活介護（有料老人ホーム）】兵庫県神戸市須磨区磯馴町3丁目1番地27", "url": "https://www.kaigokensaku.mhlw.go.jp/28/index.php?action_kouhyou_detail_004_kani=true&JigyosyoCd=2870701055-00&ServiceCd=331&Type=search", "url2": "http://www.kaigo-no-ie.com" }, "geometry": { "type": "Point", "coordinates": [ 135.1295536, 34.6471919 ] } },
{ "type": "Feature", "properties": { "内容": "ゼフィール白川【特定施設入居者生活介護（有料老人ホーム）】兵庫県神戸市須磨区白川台5-7-57", "url": "https://www.kaigokensaku.mhlw.go.jp/28/index.php?action_kouhyou_detail_004_kani=true&JigyosyoCd=2870701311-00&ServiceCd=331&Type=search", "url2": "http://www.ksmedical.co.jp" }, "geometry": { "type": "Point", "coordinates": [ 135.09662789999993, 34.6947784 ] } },
{ "type": "Feature", "properties": { "内容": "ゼフィール白川II【特定施設入居者生活介護（有料老人ホーム）】兵庫県神戸市須磨区白川台5-7-57", "url": "https://www.kaigokensaku.mhlw.go.jp/28/index.php?action_kouhyou_detail_004_kani=true&JigyosyoCd=2870701683-00&ServiceCd=331&Type=search", "url2": "http://www.ksmedical.co.jp" }, "geometry": { "type": "Point", "coordinates": [ 135.09662789999993, 34.6947784 ] } },
{ "type": "Feature", "properties": { "内容": "有料老人ホーム　なのはな高倉台【特定施設入居者生活介護（有料老人ホーム）】兵庫県　神戸市　須磨区　高倉台　6-14-16", "url": "https://www.kaigokensaku.mhlw.go.jp/28/index.php?action_kouhyou_detail_004_kani=true&JigyosyoCd=2870701709-00&ServiceCd=331&Type=search", "url2": null }, "geometry": { "type": "Point", "coordinates": [ 135.101669600000037, 34.6602125 ] } },
{ "type": "Feature", "properties": { "内容": "あいハート離宮前【特定施設入居者生活介護（有料老人ホーム）】離宮前町２丁目５－３８", "url": "https://www.kaigokensaku.mhlw.go.jp/28/index.php?action_kouhyou_detail_004_kani=true&JigyosyoCd=2870702517-00&ServiceCd=331&Type=search", "url2": "www.ai-heart-rikyumae.jp" }, "geometry": { "type": "Point", "coordinates": [ 135.119266880287114, 34.651512961927374 ] } },
{ "type": "Feature", "properties": { "内容": "介護付有料老人ホーム　ソラスト須磨ノ森【特定施設入居者生活介護（有料老人ホーム）】兵庫県神戸市須磨区多井畑字出口19番地の1", "url": "https://www.kaigokensaku.mhlw.go.jp/28/index.php?action_kouhyou_detail_004_kani=true&JigyosyoCd=2870703176-00&ServiceCd=331&Type=search", "url2": "https://solasto-kaigo.com/home/area/sumanomori.html" }, "geometry": { "type": "Point", "coordinates": [ 135.094676635582005, 34.662653965294005 ] } },
{ "type": "Feature", "properties": { "内容": "エトワール須磨離宮【特定施設入居者生活介護（有料老人ホーム）】千守町１丁目5-23", "url": "https://www.kaigokensaku.mhlw.go.jp/28/index.php?action_kouhyou_detail_004_kani=true&JigyosyoCd=2870703457-00&ServiceCd=331&Type=search", "url2": "http://alphabetta.co.jp/" }, "geometry": { "type": "Point", "coordinates": [ 135.113531, 34.6475419 ] } },
{ "type": "Feature", "properties": { "内容": "Charm（チャーム）須磨海浜公園【特定施設入居者生活介護（有料老人ホーム）】兵庫県神戸市須磨区松風町4丁目1番11号", "url": "https://www.kaigokensaku.mhlw.go.jp/28/index.php?action_kouhyou_detail_004_kani=true&JigyosyoCd=2870702764-00&ServiceCd=331&Type=search", "url2": "http://www.charmcc.jp" }, "geometry": { "type": "Point", "coordinates": [ 135.127126200000021, 34.6477537 ] } },
{ "type": "Feature", "properties": { "内容": "SOMPOケアラヴィーレ神戸垂水【特定施設入居者生活介護（有料老人ホーム）】兵庫県神戸市垂水区名谷町猿倉285SOMPOケアラヴィーレ神戸垂水", "url": "https://www.kaigokensaku.mhlw.go.jp/28/index.php?action_kouhyou_detail_004_kani=true&JigyosyoCd=2870803968-00&ServiceCd=331&Type=search", "url2": "https://www.sompocare.com/service/home/kaigo/H00044" }, "geometry": { "type": "Point", "coordinates": [ 135.063601100000028, 34.6493302 ] } },
{ "type": "Feature", "properties": { "内容": "ザ・レジデンス神戸舞子【特定施設入居者生活介護（有料老人ホーム）】垂水区海岸通１１番９７", "url": "https://www.kaigokensaku.mhlw.go.jp/28/index.php?action_kouhyou_detail_004_kani=true&JigyosyoCd=2870802721-00&ServiceCd=331&Type=search", "url2": "http://www.ci-hos.com/" }, "geometry": { "type": "Point", "coordinates": [ 135.043455799999947, 34.6268296 ] } },
{ "type": "Feature", "properties": { "内容": "ドマーニ神戸【特定施設入居者生活介護（有料老人ホーム）】神戸市垂水区本多聞3丁目1-37", "url": "https://www.kaigokensaku.mhlw.go.jp/28/index.php?action_kouhyou_detail_004_kani=true&JigyosyoCd=2870800188-00&ServiceCd=331&Type=search", "url2": "https://www.s-carelife.co.jp" }, "geometry": { "type": "Point", "coordinates": [ 135.052610100000038, 34.6596011 ] } },
{ "type": "Feature", "properties": { "内容": "ソルケア　神戸名谷【特定施設入居者生活介護（有料老人ホーム）】兵庫県神戸市垂水区福田５丁目２ー３０", "url": "https://www.kaigokensaku.mhlw.go.jp/28/index.php?action_kouhyou_detail_004_kani=true&JigyosyoCd=2870801202-00&ServiceCd=331&Type=search", "url2": "http://alpha-life.jp/index.html" }, "geometry": { "type": "Point", "coordinates": [ 135.068922799999967, 34.6461936 ] } },
{ "type": "Feature", "properties": { "内容": "コミュニティホーム・シーズンフィール垂水【特定施設入居者生活介護（有料老人ホーム）】神戸市垂水区本多聞２－２－２０", "url": "https://www.kaigokensaku.mhlw.go.jp/28/index.php?action_kouhyou_detail_004_kani=true&JigyosyoCd=2870801657-00&ServiceCd=331&Type=search", "url2": "http://www.bestwell.co.jp" }, "geometry": { "type": "Point", "coordinates": [ 135.043541499999947, 34.6557374 ] } },
{ "type": "Feature", "properties": { "内容": "ハートランド舞子台【特定施設入居者生活介護（有料老人ホーム）】兵庫県神戸市垂水区舞子台７丁目３番８号", "url": "https://www.kaigokensaku.mhlw.go.jp/28/index.php?action_kouhyou_detail_004_kani=true&JigyosyoCd=2870801673-00&ServiceCd=331&Type=search", "url2": "https://www.m2-corporation.co.jp/" }, "geometry": { "type": "Point", "coordinates": [ 135.03800320000002, 34.6395753 ] } },
{ "type": "Feature", "properties": { "内容": "そんぽの家　南多聞台【特定施設入居者生活介護（有料老人ホーム）】兵庫県神戸市垂水区南多聞台4丁目7番1号", "url": "https://www.kaigokensaku.mhlw.go.jp/28/index.php?action_kouhyou_detail_004_kani=true&JigyosyoCd=2870801889-00&ServiceCd=331&Type=search", "url2": "https://www.sompocare.com/service/home/kaigo/H000201" }, "geometry": { "type": "Point", "coordinates": [ 135.034217200000057, 34.6518848 ] } },
{ "type": "Feature", "properties": { "内容": "レイシエスタ　しらゆり【特定施設入居者生活介護（有料老人ホーム）】兵庫県神戸市垂水区海岸通5番67号", "url": "https://www.kaigokensaku.mhlw.go.jp/28/index.php?action_kouhyou_detail_004_kani=true&JigyosyoCd=2870801962-00&ServiceCd=331&Type=search", "url2": "http://care-net.biz/28/shirayuri-r/" }, "geometry": { "type": "Point", "coordinates": [ 135.047244399999954, 34.6280601 ] } },
{ "type": "Feature", "properties": { "内容": "介護付有料老人ホーム　美波ホール【特定施設入居者生活介護（有料老人ホーム）】兵庫県神戸市垂水区塩屋町6丁目36-19", "url": "https://www.kaigokensaku.mhlw.go.jp/28/index.php?action_kouhyou_detail_004_kani=true&JigyosyoCd=2870802325-00&ServiceCd=331&Type=search", "url2": "http://www.chousei.or.jp/info/" }, "geometry": { "type": "Point", "coordinates": [ 135.073320100000046, 34.6356124 ] } },
{ "type": "Feature", "properties": { "内容": "介護付有料老人ホーム　Ｍボヌール【特定施設入居者生活介護（有料老人ホーム）】名谷町字平ノ垣内８５２－１", "url": "https://www.kaigokensaku.mhlw.go.jp/28/index.php?action_kouhyou_detail_004_kani=true&JigyosyoCd=2870802333-00&ServiceCd=331&Type=search", "url2": "http://m-bonh.jp" }, "geometry": { "type": "Point", "coordinates": [ 135.070006, 34.6526354 ] } },
{ "type": "Feature", "properties": { "内容": "ユトリーム朝霧【特定施設入居者生活介護（有料老人ホーム）】神戸市垂水区狩口台6丁目12番1", "url": "https://www.kaigokensaku.mhlw.go.jp/28/index.php?action_kouhyou_detail_004_kani=true&JigyosyoCd=2870802713-00&ServiceCd=331&Type=search", "url2": "http://www.kjl.co.jp" }, "geometry": { "type": "Point", "coordinates": [ 135.019132300000024, 34.6438186 ] } },
{ "type": "Feature", "properties": { "内容": "ニチイケアセンター神戸西舞子【特定施設入居者生活介護（有料老人ホーム）】兵庫県神戸市垂水区西舞子２丁目１０番３７号", "url": "https://www.kaigokensaku.mhlw.go.jp/28/index.php?action_kouhyou_detail_004_kani=true&JigyosyoCd=2870802788-00&ServiceCd=331&Type=search", "url2": "http://www.nichiigakkan.co.jp" }, "geometry": { "type": "Point", "coordinates": [ 135.0300648, 34.639664 ] } },
{ "type": "Feature", "properties": { "内容": "塩屋すみれビレッジ【特定施設入居者生活介護（有料老人ホーム）】塩屋町3丁目12-48", "url": "https://www.kaigokensaku.mhlw.go.jp/28/index.php?action_kouhyou_detail_004_kani=true&JigyosyoCd=2870804388-00&ServiceCd=331&Type=search", "url2": "http://shioya-sumire.jp/" }, "geometry": { "type": "Point", "coordinates": [ 135.0836016, 34.6350182 ] } },
{ "type": "Feature", "properties": { "内容": "介護付有料老人ホーム　プレザンメゾン神戸ジェームス山【特定施設入居者生活介護（有料老人ホーム）】神戸市垂水区青山台1丁目26番14号", "url": "https://www.kaigokensaku.mhlw.go.jp/28/index.php?action_kouhyou_detail_004_kani=true&JigyosyoCd=2870804719-00&ServiceCd=331&Type=search", "url2": "https://www.tanoshii-ie.jp/single146/" }, "geometry": { "type": "Point", "coordinates": [ 135.072548399999988, 34.6377179 ] } },
{ "type": "Feature", "properties": { "内容": "ディアージュ神戸【特定施設入居者生活介護（有料老人ホーム）】兵庫県神戸市垂水区学が丘５丁目１番４号", "url": "https://www.kaigokensaku.mhlw.go.jp/28/index.php?action_kouhyou_detail_004_kani=true&JigyosyoCd=2870804859-00&ServiceCd=331&Type=search", "url2": "https://nnps.jp" }, "geometry": { "type": "Point", "coordinates": [ 135.0635101, 34.6563691 ] } },
{ "type": "Feature", "properties": { "内容": "ロングライフ・クイーンズ塩屋【特定施設入居者生活介護（有料老人ホーム）】神戸市垂水区塩屋町1丁目６－３０", "url": "https://www.kaigokensaku.mhlw.go.jp/28/index.php?action_kouhyou_detail_004_kani=true&JigyosyoCd=2870802283-00&ServiceCd=331&Type=search", "url2": "https://www.j-longlife.co.jp/shioya/" }, "geometry": { "type": "Point", "coordinates": [ 135.076769159524474, 34.631722553578165 ] } },
{ "type": "Feature", "properties": { "内容": "そんぽの家　神戸垂水【特定施設入居者生活介護（有料老人ホーム）】神戸市垂水区仲田2丁目1番8号そんぽの家　神戸垂水", "url": "https://www.kaigokensaku.mhlw.go.jp/28/index.php?action_kouhyou_detail_004_kani=true&JigyosyoCd=2870800865-00&ServiceCd=331&Type=search", "url2": "https://www.sompocare.com/service/home/kaigo/H000142/" }, "geometry": { "type": "Point", "coordinates": [ 135.048966973016377, 34.635327218244655 ] } },
{ "type": "Feature", "properties": { "内容": "フォレスト垂水【特定施設入居者生活介護（有料老人ホーム）】兵庫県神戸市垂水区旭が丘１丁目９番６０号", "url": "https://www.kaigokensaku.mhlw.go.jp/28/index.php?action_kouhyou_detail_004_kani=true&JigyosyoCd=2870801749-00&ServiceCd=331&Type=search", "url2": "http://www.fineforest.co.jp" }, "geometry": { "type": "Point", "coordinates": [ 135.05244689999995, 34.6334736 ] } },
{ "type": "Feature", "properties": { "内容": "チャームスイート神戸垂水【特定施設入居者生活介護（有料老人ホーム）】兵庫県神戸市垂水区宮本町１番２９号", "url": "https://www.kaigokensaku.mhlw.go.jp/28/index.php?action_kouhyou_detail_004_kani=true&JigyosyoCd=2870804818-00&ServiceCd=331&Type=search", "url2": "http://www.charmcc.jp" }, "geometry": { "type": "Point", "coordinates": [ 135.0538872, 34.6281166 ] } },
{ "type": "Feature", "properties": { "内容": "リバティーベル六甲【特定施設入居者生活介護（有料老人ホーム）】神戸市北区山田町小部字向井谷1-1", "url": "https://www.kaigokensaku.mhlw.go.jp/28/index.php?action_kouhyou_detail_004_kani=true&JigyosyoCd=2875002483-00&ServiceCd=331&Type=search", "url2": "http://www.libertybell-r.jp" }, "geometry": { "type": "Point", "coordinates": [ 135.152722199999971, 34.7306779 ] } },
{ "type": "Feature", "properties": { "内容": "介護付有料老人ホーム　きずなホームふなせ【特定施設入居者生活介護（有料老人ホーム）】兵庫県神戸市北区有野台７－１９－１", "url": "https://www.kaigokensaku.mhlw.go.jp/28/index.php?action_kouhyou_detail_004_kani=true&JigyosyoCd=2875002756-00&ServiceCd=331&Type=search", "url2": "www.kizunahome.jp" }, "geometry": { "type": "Point", "coordinates": [ 135.225131199999964, 34.8091947 ] } },
{ "type": "Feature", "properties": { "内容": "介護付有料老人ホーム　スーパー・コート神戸北【特定施設入居者生活介護（有料老人ホーム）】兵庫県神戸市北区谷上南町15-10", "url": "https://www.kaigokensaku.mhlw.go.jp/28/index.php?action_kouhyou_detail_004_kani=true&JigyosyoCd=2875001279-00&ServiceCd=331&Type=search", "url2": "http://www.supercourt.jp" }, "geometry": { "type": "Point", "coordinates": [ 135.180530800000042, 34.763812900000019 ] } },
{ "type": "Feature", "properties": { "内容": "神戸〈ゆうゆうの里〉【特定施設入居者生活介護（有料老人ホーム）】兵庫県神戸市北区鳴子3丁目1番地の2", "url": "https://www.kaigokensaku.mhlw.go.jp/28/index.php?action_kouhyou_detail_004_kani=true&JigyosyoCd=2875000446-00&ServiceCd=331&Type=search", "url2": "http://www.yuyunosato.or.jp/place/kobe/" }, "geometry": { "type": "Point", "coordinates": [ 135.1256995, 34.7256833 ] } },
{ "type": "Feature", "properties": { "内容": "ソーシャルコート神戸北【特定施設入居者生活介護（有料老人ホーム）】兵庫県神戸市北区小倉台1丁目16-5ソーシャルコート神戸北", "url": "https://www.kaigokensaku.mhlw.go.jp/28/index.php?action_kouhyou_detail_004_kani=true&JigyosyoCd=2875003754-00&ServiceCd=331&Type=search", "url2": "https://www.social-l.com" }, "geometry": { "type": "Point", "coordinates": [ 135.1636349, 34.7549988 ] } },
{ "type": "Feature", "properties": { "内容": "介護付き有料老人ホームおもいやり【特定施設入居者生活介護（有料老人ホーム）】有野町唐櫃29-6", "url": "https://www.kaigokensaku.mhlw.go.jp/28/index.php?action_kouhyou_detail_004_kani=true&JigyosyoCd=2875004513-00&ServiceCd=331&Type=search", "url2": "https://www.ikeikai.or.jp/omoiyari" }, "geometry": { "type": "Point", "coordinates": [ 135.2219436, 34.7989689 ] } },
{ "type": "Feature", "properties": { "内容": "エレガリオ神戸【特定施設入居者生活介護（有料老人ホーム）】兵庫県神戸市中央区海岸通6丁目2番14号", "url": "https://www.kaigokensaku.mhlw.go.jp/28/index.php?action_kouhyou_detail_004_kani=true&JigyosyoCd=2875102911-00&ServiceCd=331&Type=search", "url2": "https://www.elegario.com" }, "geometry": { "type": "Point", "coordinates": [ 135.182529199999976, 34.682892 ] } },
{ "type": "Feature", "properties": { "内容": "チャームスイート神戸北野【特定施設入居者生活介護（有料老人ホーム）】兵庫県神戸市中央区北野町1丁目2番13号", "url": "https://www.kaigokensaku.mhlw.go.jp/28/index.php?action_kouhyou_detail_004_kani=true&JigyosyoCd=2875103836-00&ServiceCd=331&Type=search", "url2": "https://www.charmcc.jp/home/charmsuite_kobekitano/" }, "geometry": { "type": "Point", "coordinates": [ 135.192981799999984, 34.7016102 ] } },
{ "type": "Feature", "properties": { "内容": "ロングライフ神戸青谷【特定施設入居者生活介護（有料老人ホーム）】神戸市中央区神仙寺通３丁目１－２", "url": "https://www.kaigokensaku.mhlw.go.jp/28/index.php?action_kouhyou_detail_004_kani=true&JigyosyoCd=2875102200-00&ServiceCd=331&Type=search", "url2": "https://www.j-longlife.co.jp/aotani/" }, "geometry": { "type": "Point", "coordinates": [ 135.206529100000012, 34.7138195 ] } },
{ "type": "Feature", "properties": { "内容": "ブランシエール神戸北野【特定施設入居者生活介護（有料老人ホーム）】兵庫県神戸市中央区加納町二丁目７番11号ブランシエール神戸北野", "url": "https://www.kaigokensaku.mhlw.go.jp/28/index.php?action_kouhyou_detail_004_kani=true&JigyosyoCd=2875103679-00&ServiceCd=331&Type=search", "url2": "https://www.haseko-senior.co.jp/home/kitano/" }, "geometry": { "type": "Point", "coordinates": [ 135.193786100000011, 34.7011012 ] } },
{ "type": "Feature", "properties": { "内容": "サンシティタワー神戸【特定施設入居者生活介護（有料老人ホーム）】兵庫県神戸市中央区脇浜海岸通2-3-5サンシティタワー神戸", "url": "https://www.kaigokensaku.mhlw.go.jp/28/index.php?action_kouhyou_detail_004_kani=true&JigyosyoCd=2875103687-00&ServiceCd=331&Type=search", "url2": "https://www.hcm-suncity.jp/" }, "geometry": { "type": "Point", "coordinates": [ 135.2114013, 34.6986186 ] } },
{ "type": "Feature", "properties": { "内容": "メディカル・リハビリホームグランダ神戸北野【特定施設入居者生活介護（有料老人ホーム）】兵庫県神戸市中央区北野町４丁目１２－１メディカル・リハビリホームグランダ神戸北野", "url": "https://www.kaigokensaku.mhlw.go.jp/28/index.php?action_kouhyou_detail_004_kani=true&JigyosyoCd=2875103497-00&ServiceCd=331&Type=search", "url2": "https://www.benesse-style-care.co.jp" }, "geometry": { "type": "Point", "coordinates": [ 135.187653299999965, 34.6996151 ] } },
{ "type": "Feature", "properties": { "内容": "モア・アビタシオン新神戸【特定施設入居者生活介護（有料老人ホーム）】兵庫県神戸市加納町2丁目13-7", "url": "https://www.kaigokensaku.mhlw.go.jp/28/index.php?action_kouhyou_detail_004_kani=true&JigyosyoCd=2875104214-00&ServiceCd=331&Type=search", "url2": "http://www.alphabetta.co.jp" }, "geometry": { "type": "Point", "coordinates": [ 135.194534, 34.7029333 ] } },
{ "type": "Feature", "properties": { "内容": "有料老人ホーム　サニーライフ神戸【特定施設入居者生活介護（有料老人ホーム）】兵庫県神戸市西区糀台４丁目２０－１", "url": "https://www.kaigokensaku.mhlw.go.jp/28/index.php?action_kouhyou_detail_004_kani=true&JigyosyoCd=2875201762-00&ServiceCd=331&Type=search", "url2": "http://www.sunnylife-group.com.jp" }, "geometry": { "type": "Point", "coordinates": [ 135.021958199999972, 34.721791 ] } },
{ "type": "Feature", "properties": { "内容": "ほっと倶楽部【特定施設入居者生活介護（有料老人ホーム）】神戸市西区伊川谷町別府７１９番１", "url": "https://www.kaigokensaku.mhlw.go.jp/28/index.php?action_kouhyou_detail_004_kani=true&JigyosyoCd=2875201804-00&ServiceCd=331&Type=search", "url2": "http//www.kouei-medical.jp" }, "geometry": { "type": "Point", "coordinates": [ 135.018210100000033, 34.6675048 ] } },
{ "type": "Feature", "properties": { "内容": "コミュニティホームハートケア神戸二ツ屋【特定施設入居者生活介護（有料老人ホーム）】神戸市西区二ツ屋2丁目17-14", "url": "https://www.kaigokensaku.mhlw.go.jp/28/index.php?action_kouhyou_detail_004_kani=true&JigyosyoCd=2875202646-00&ServiceCd=331&Type=search", "url2": "https://www.heartcaregroup.co.jp" }, "geometry": { "type": "Point", "coordinates": [ 134.989448399999986, 34.6825614 ] } },
{ "type": "Feature", "properties": { "内容": "コミュニティホーム　ホームハートピア神戸白水【特定施設入居者生活介護（有料老人ホーム）】神戸市西区白水2丁目12番20号", "url": "https://www.kaigokensaku.mhlw.go.jp/28/index.php?action_kouhyou_detail_004_kani=true&JigyosyoCd=2875202679-00&ServiceCd=331&Type=search", "url2": "https://www.heartcaregroup.co.jp" }, "geometry": { "type": "Point", "coordinates": [ 135.002298577909869, 34.671406818489558 ] } },
{ "type": "Feature", "properties": { "内容": "はぴね神戸学園都市【特定施設入居者生活介護（有料老人ホーム）】兵庫県神戸市西区学園西町1丁目1番2号神戸学園都市ビル", "url": "https://www.kaigokensaku.mhlw.go.jp/28/index.php?action_kouhyou_detail_004_kani=true&JigyosyoCd=2875203743-00&ServiceCd=331&Type=search", "url2": "http://www.greenlife-inc.co.jp/" }, "geometry": { "type": "Point", "coordinates": [ 135.0582035, 34.6806737 ] } },
{ "type": "Feature", "properties": { "内容": "SOMPOケア　ラヴィーレ神戸伊川谷【特定施設入居者生活介護（有料老人ホーム）】兵庫県神戸市西区伊川谷町有瀬1745-1SOMPOケア　ラヴィーレ神戸伊川谷", "url": "https://www.kaigokensaku.mhlw.go.jp/28/index.php?action_kouhyou_detail_004_kani=true&JigyosyoCd=2875204659-00&ServiceCd=331&Type=search", "url2": "https://www.sompocare.com/service/home/kaigo/H000036" }, "geometry": { "type": "Point", "coordinates": [ 135.026612976057436, 34.663305119986397 ] } },
{ "type": "Feature", "properties": { "内容": "介護付き有料老人ホーム　プレザンメゾン神戸白水【特定施設入居者生活介護（有料老人ホーム）】白水1-17-20", "url": "https://www.kaigokensaku.mhlw.go.jp/28/index.php?action_kouhyou_detail_004_kani=true&JigyosyoCd=2875204782-00&ServiceCd=331&Type=search", "url2": "https://www.tanoshii-ie.jp/single114/" }, "geometry": { "type": "Point", "coordinates": [ 135.005927561376922, 34.672109504814635 ] } },
{ "type": "Feature", "properties": { "内容": "ハートライフ神戸西【特定施設入居者生活介護（有料老人ホーム）】兵庫県神戸市西区玉津町水谷8-1", "url": "https://www.kaigokensaku.mhlw.go.jp/28/index.php?action_kouhyou_detail_004_kani=true&JigyosyoCd=2875204840-00&ServiceCd=331&Type=search", "url2": "https://www.heartcaregroup.co.jp" }, "geometry": { "type": "Point", "coordinates": [ 135.005828799999989, 34.6861464 ] } },
{ "type": "Feature", "properties": { "内容": "有料老人ホーム　さわやかこうべにし館【特定施設入居者生活介護（有料老人ホーム）】玉津町新方549", "url": "https://www.kaigokensaku.mhlw.go.jp/28/index.php?action_kouhyou_detail_004_kani=true&JigyosyoCd=2875204881-00&ServiceCd=331&Type=search", "url2": "kobenishi@sawayakaclub.jp" }, "geometry": { "type": "Point", "coordinates": [ 134.984734300000014, 34.6619079 ] } },
{ "type": "Feature", "properties": { "内容": "介護付有料老人ホーム　アーバンリビング今宿【特定施設入居者生活介護（有料老人ホーム）】兵庫県姫路市西今宿2丁目2番38号", "url": "https://www.kaigokensaku.mhlw.go.jp/28/index.php?action_kouhyou_detail_004_kani=true&JigyosyoCd=2874009000-00&ServiceCd=331&Type=search", "url2": "http://lifeassist-corp" }, "geometry": { "type": "Point", "coordinates": [ 134.658465500000034, 34.8431457 ] } },
{ "type": "Feature", "properties": { "内容": "介護付有料老人ホーム東姫路【特定施設入居者生活介護（有料老人ホーム）】兵庫県姫路市花田町一本松345-1", "url": "https://www.kaigokensaku.mhlw.go.jp/28/index.php?action_kouhyou_detail_004_kani=true&JigyosyoCd=2874008119-00&ServiceCd=331&Type=search", "url2": "http://jikou-kaigo.com" }, "geometry": { "type": "Point", "coordinates": [ 134.721662199999969, 34.8257651 ] } },
{ "type": "Feature", "properties": { "内容": "老人健康管理センターひめじ保養所太陽【特定施設入居者生活介護（有料老人ホーム）】姫路市打越１３３９", "url": "https://www.kaigokensaku.mhlw.go.jp/28/index.php?action_kouhyou_detail_004_kani=true&JigyosyoCd=2874005107-00&ServiceCd=331&Type=search", "url2": "http://himeji-taiyo.com/" }, "geometry": { "type": "Point", "coordinates": [ 134.627725199999986, 34.8923508 ] } },
{ "type": "Feature", "properties": { "内容": "介護付き有料老人ホームかつはら【特定施設入居者生活介護（有料老人ホーム）】兵庫県姫路市勝原区丁15-1介護付き有料老人ホームかつはら", "url": "https://www.kaigokensaku.mhlw.go.jp/28/index.php?action_kouhyou_detail_004_kani=true&JigyosyoCd=2874010131-00&ServiceCd=331&Type=search", "url2": null }, "geometry": { "type": "Point", "coordinates": [ 134.601529333556925, 34.820469742118803 ] } },
{ "type": "Feature", "properties": { "内容": "ニチイケアセンターひめじ的形【特定施設入居者生活介護（有料老人ホーム）】的形町的形216-1", "url": "https://www.kaigokensaku.mhlw.go.jp/28/index.php?action_kouhyou_detail_004_kani=true&JigyosyoCd=2874005826-00&ServiceCd=331&Type=search", "url2": "www.nichiigakkan.co.jp" }, "geometry": { "type": "Point", "coordinates": [ 134.742562822090122, 34.780675785663817 ] } },
{ "type": "Feature", "properties": { "内容": "あっぷる介護付有料老人ホーム【特定施設入居者生活介護（有料老人ホーム）】兵庫県姫路市宮西町3丁目34あっぷる介護付有料老人ホーム", "url": "https://www.kaigokensaku.mhlw.go.jp/28/index.php?action_kouhyou_detail_004_kani=true&JigyosyoCd=2874006279-00&ServiceCd=331&Type=search", "url2": "http://www.apple-117.jp" }, "geometry": { "type": "Point", "coordinates": [ 134.705954452778627, 34.827637529840715 ] } },
{ "type": "Feature", "properties": { "内容": "介護付有料老人ホーム　プレザンメゾン姫路広畑【特定施設入居者生活介護（有料老人ホーム）】兵庫県姫路市広畑区夢前町三丁目1-21", "url": "https://www.kaigokensaku.mhlw.go.jp/28/index.php?action_kouhyou_detail_004_kani=true&JigyosyoCd=2874011204-00&ServiceCd=331&Type=search", "url2": null }, "geometry": { "type": "Point", "coordinates": [ 134.639229699999987, 34.7975572 ] } },
{ "type": "Feature", "properties": { "内容": "介護付有料老人ホームサンライフさくらひめじ【特定施設入居者生活介護（有料老人ホーム）】兵庫県姫路市福沢町115番地", "url": "https://www.kaigokensaku.mhlw.go.jp/28/index.php?action_kouhyou_detail_004_kani=true&JigyosyoCd=2874005834-00&ServiceCd=331&Type=search", "url2": "http://www.sunlifesakurahimeji.jp" }, "geometry": { "type": "Point", "coordinates": [ 134.682294299999967, 34.8308193 ] } },
{ "type": "Feature", "properties": { "内容": "介護付有料老人ホームシャングリラ青山姫路【特定施設入居者生活介護（有料老人ホーム）】兵庫県姫路市青山西2丁目17‐25介護付有料老人ホームシャングリラ青山姫路", "url": "https://www.kaigokensaku.mhlw.go.jp/28/index.php?action_kouhyou_detail_004_kani=true&JigyosyoCd=2874007483-00&ServiceCd=331&Type=search", "url2": "http://www.shangrila-care.com/" }, "geometry": { "type": "Point", "coordinates": [ 134.6306419, 34.8440794 ] } },
{ "type": "Feature", "properties": { "内容": "介護付有料老人ホームシャングリラ姫路東【特定施設入居者生活介護（有料老人ホーム）】兵庫県姫路市四郷町見野８１３番１", "url": "https://www.kaigokensaku.mhlw.go.jp/28/index.php?action_kouhyou_detail_004_kani=true&JigyosyoCd=2874008226-00&ServiceCd=331&Type=search", "url2": "http://www.shangrila-care.com/higashi.html" }, "geometry": { "type": "Point", "coordinates": [ 134.729531299999962, 34.8065894 ] } },
{ "type": "Feature", "properties": { "内容": "株式会社ニチイ学館　ニチイケアセンターひめじ広畑【特定施設入居者生活介護（有料老人ホーム）】広畑区東新町２丁目１８番１", "url": "https://www.kaigokensaku.mhlw.go.jp/28/index.php?action_kouhyou_detail_004_kani=true&JigyosyoCd=2874006352-00&ServiceCd=331&Type=search", "url2": "http://www.nichiigakkan.co.jp" }, "geometry": { "type": "Point", "coordinates": [ 134.63552720000007, 34.7995197 ] } },
{ "type": "Feature", "properties": { "内容": "パストラール尼崎【特定施設入居者生活介護（有料老人ホーム）】兵庫県尼崎市潮江１丁目１０番２号", "url": "https://www.kaigokensaku.mhlw.go.jp/28/index.php?action_kouhyou_detail_004_kani=true&JigyosyoCd=2873000893-00&ServiceCd=331&Type=search", "url2": "https://hyogo-jk.or.jp/pastrale/amagasaki/" }, "geometry": { "type": "Point", "coordinates": [ 135.434231400000044, 34.7333511 ] } },
{ "type": "Feature", "properties": { "内容": "そんぽの家尼崎田能【特定施設入居者生活介護（有料老人ホーム）】尼崎市田能5丁目1番28号", "url": "https://www.kaigokensaku.mhlw.go.jp/28/index.php?action_kouhyou_detail_004_kani=true&JigyosyoCd=2873002477-00&ServiceCd=331&Type=search", "url2": "https://www.sompocare.com/service/home/kaigo/H000146/" }, "geometry": { "type": "Point", "coordinates": [ 135.433483300000034, 34.7671613 ] } },
{ "type": "Feature", "properties": { "内容": "そんぽの家武庫之荘【特定施設入居者生活介護（有料老人ホーム）】尼崎市常松1丁目22番3号", "url": "https://www.kaigokensaku.mhlw.go.jp/28/index.php?action_kouhyou_detail_004_kani=true&JigyosyoCd=2873004572-00&ServiceCd=331&Type=search", "url2": "https://www.sompocare.com/service/home/kaigo/H000216" }, "geometry": { "type": "Point", "coordinates": [ 135.377555700000016, 34.7646303 ] } },
{ "type": "Feature", "properties": { "内容": "介護付有料老人ホーム　プレザンメゾン立花【特定施設入居者生活介護（有料老人ホーム）】兵庫県尼崎市立花町一丁目24-42プレザンメゾン立花", "url": "https://www.kaigokensaku.mhlw.go.jp/28/index.php?action_kouhyou_detail_004_kani=true&JigyosyoCd=2873012427-00&ServiceCd=331&Type=search", "url2": "https://www.tanoshii-ie.jp/single111/" }, "geometry": { "type": "Point", "coordinates": [ 135.404403291471112, 34.737375695849593 ] } },
{ "type": "Feature", "properties": { "内容": "チャーム尼崎東園田【特定施設入居者生活介護（有料老人ホーム）】兵庫県尼崎市東園田町5丁目61番地１", "url": "https://www.kaigokensaku.mhlw.go.jp/28/index.php?action_kouhyou_detail_004_kani=true&JigyosyoCd=2873010496-00&ServiceCd=331&Type=search", "url2": "http://www.charmcc.jp" }, "geometry": { "type": "Point", "coordinates": [ 135.450082699999939, 34.7535686 ] } },
{ "type": "Feature", "properties": { "内容": "介護付有料老人ホーム　アットホームふじた【特定施設入居者生活介護（有料老人ホーム）】兵庫県尼崎市東園田町1丁目77", "url": "https://www.kaigokensaku.mhlw.go.jp/28/index.php?action_kouhyou_detail_004_kani=true&JigyosyoCd=2873005587-00&ServiceCd=331&Type=search", "url2": "http://www.athome-fujita.co.jp" }, "geometry": { "type": "Point", "coordinates": [ 135.455337800000052, 34.7576155 ] } },
{ "type": "Feature", "properties": { "内容": "プレザンメゾン明石魚住【特定施設入居者生活介護（有料老人ホーム）】兵庫県明石市魚住町西岡1312-1プレザンメゾン明石魚住", "url": "https://www.kaigokensaku.mhlw.go.jp/28/index.php?action_kouhyou_detail_004_kani=true&JigyosyoCd=2872004870-00&ServiceCd=331&Type=search", "url2": null }, "geometry": { "type": "Point", "coordinates": [ 134.8996414, 34.7004336 ] } },
{ "type": "Feature", "properties": { "内容": "チャーム明石大久保駅前【特定施設入居者生活介護（有料老人ホーム）】大久保町ゆりのき通1丁目4番地の1", "url": "https://www.kaigokensaku.mhlw.go.jp/28/index.php?action_kouhyou_detail_004_kani=true&JigyosyoCd=2872005042-00&ServiceCd=331&Type=search", "url2": "https://recruit.charmcc.jp/career/home-show/akashiookuboekimae" }, "geometry": { "type": "Point", "coordinates": [ 134.9377758, 34.682257799999981 ] } },
{ "type": "Feature", "properties": { "内容": "チャーム明石西二見【特定施設入居者生活介護（有料老人ホーム）】兵庫県明石市二見町西二見駅前4丁目38番地ﾉ2", "url": "https://www.kaigokensaku.mhlw.go.jp/28/index.php?action_kouhyou_detail_004_kani=true&JigyosyoCd=2872005646-00&ServiceCd=331&Type=search", "url2": "https://www.charmcc.jp/home/charm_akashinishifutami/?utm_source=yahoo&utm_medium=cpc&utm_campaign=DAS&yclid=YSS.1001173261.EAIaIQobChMI9qjv-MXkkQMVBtAWBR2zFCTFEAAYASAAEgJPGvD_BwE&sa_p=YSA&sa_cc=1001173261&sa_t=1767071414279&sa_ra=B7" }, "geometry": { "type": "Point", "coordinates": [ 134.876142499999986, 34.707177 ] } },
{ "type": "Feature", "properties": { "内容": "有料老人ホーム　フリージア【特定施設入居者生活介護（有料老人ホーム）】大蔵八幡町4-35", "url": "https://www.kaigokensaku.mhlw.go.jp/28/index.php?action_kouhyou_detail_004_kani=true&JigyosyoCd=2872002932-00&ServiceCd=331&Type=search", "url2": null }, "geometry": { "type": "Point", "coordinates": [ 135.0103858, 34.6445459 ] } },
{ "type": "Feature", "properties": { "内容": "介護付き有料老人ホーム　はるかの郷【特定施設入居者生活介護（有料老人ホーム）】兵庫県明石市魚住町清水2183", "url": "https://www.kaigokensaku.mhlw.go.jp/28/index.php?action_kouhyou_detail_004_kani=true&JigyosyoCd=2872003195-00&ServiceCd=331&Type=search", "url2": "http://www.akashidoujin.jp" }, "geometry": { "type": "Point", "coordinates": [ 134.891620500000016, 34.7205601 ] } },
{ "type": "Feature", "properties": { "内容": "エトワール明石【特定施設入居者生活介護（有料老人ホーム）】兵庫県明石市大久保町八木486エトワール明石", "url": "https://www.kaigokensaku.mhlw.go.jp/28/index.php?action_kouhyou_detail_004_kani=true&JigyosyoCd=2872005448-00&ServiceCd=331&Type=search", "url2": "https://etoile-care.co.jp/" }, "geometry": { "type": "Point", "coordinates": [ 134.9289292, 34.6717417 ] } },
{ "type": "Feature", "properties": { "内容": "有料老人ホームサンライズ朝霧【特定施設入居者生活介護（有料老人ホーム）】兵庫県明石市大蔵谷奥１－５", "url": "https://www.kaigokensaku.mhlw.go.jp/28/index.php?action_kouhyou_detail_004_kani=true&JigyosyoCd=2872001173-00&ServiceCd=331&Type=search", "url2": "http://www.kobe-hinode.or.jp" }, "geometry": { "type": "Point", "coordinates": [ 135.026806099999988, 34.658771 ] } },
{ "type": "Feature", "properties": { "内容": "介護付有料老人ホームLeMONDO【特定施設入居者生活介護（有料老人ホーム）】兵庫県西宮市若山町8-17", "url": "https://www.kaigokensaku.mhlw.go.jp/28/index.php?action_kouhyou_detail_004_kani=true&JigyosyoCd=2870905870-00&ServiceCd=331&Type=search", "url2": "https://www.chikusakai.jp/" }, "geometry": { "type": "Point", "coordinates": [ 135.3663877, 34.7602011 ] } },
{ "type": "Feature", "properties": { "内容": "プレザングラン門戸厄神【特定施設入居者生活介護（有料老人ホーム）】樋ノ口町2丁目1番35号", "url": "https://www.kaigokensaku.mhlw.go.jp/28/index.php?action_kouhyou_detail_004_kani=true&JigyosyoCd=2870908825-00&ServiceCd=331&Type=search", "url2": "https://www.care21.co.jp/" }, "geometry": { "type": "Point", "coordinates": [ 135.3674586, 34.759897 ] } },
{ "type": "Feature", "properties": { "内容": "西宮すみれビレッジ【特定施設入居者生活介護（有料老人ホーム）】兵庫県西宮市中前田町３－１０", "url": "https://www.kaigokensaku.mhlw.go.jp/28/index.php?action_kouhyou_detail_004_kani=true&JigyosyoCd=2870902695-00&ServiceCd=331&Type=search", "url2": "http://www.sumire.or.jp/nishinomiya-v/index.html" }, "geometry": { "type": "Point", "coordinates": [ 135.34216420000007, 34.7435792 ] } },
{ "type": "Feature", "properties": { "内容": "エクセレント西宮【特定施設入居者生活介護（有料老人ホーム）】西宮市すみれ台２丁目４－３", "url": "https://www.kaigokensaku.mhlw.go.jp/28/index.php?action_kouhyou_detail_004_kani=true&JigyosyoCd=2870904188-00&ServiceCd=331&Type=search", "url2": "http://excare.co.jp" }, "geometry": { "type": "Point", "coordinates": [ 135.239698, 34.818204200000018 ] } },
{ "type": "Feature", "properties": { "内容": "介護付有料老人ホームやすらぎ【特定施設入居者生活介護（有料老人ホーム）】兵庫県西宮市津門呉羽町９－１０介護付有料老人ホームやすらぎ", "url": "https://www.kaigokensaku.mhlw.go.jp/28/index.php?action_kouhyou_detail_004_kani=true&JigyosyoCd=2870909260-00&ServiceCd=331&Type=search", "url2": "https://www.nk-hospital.or.jp/yasuragi/" }, "geometry": { "type": "Point", "coordinates": [ 135.356685474096707, 34.731655964995994 ] } },
{ "type": "Feature", "properties": { "内容": "アイビーメディカル(株)山口すみれビレッジ【特定施設入居者生活介護（有料老人ホーム）】兵庫県西宮市山口町下山口4丁目18-7", "url": "https://www.kaigokensaku.mhlw.go.jp/28/index.php?action_kouhyou_detail_004_kani=true&JigyosyoCd=2870903529-00&ServiceCd=331&Type=search", "url2": "http://www.sumire.or.jp/yamaguchi-sumire/" }, "geometry": { "type": "Point", "coordinates": [ 135.238054599999941, 34.8308203 ] } },
{ "type": "Feature", "properties": { "内容": "ＳＯＭＰＯケア　ラヴィーレ西宮【特定施設入居者生活介護（有料老人ホーム）】兵庫県西宮市上甲子園5丁目8-23", "url": "https://www.kaigokensaku.mhlw.go.jp/28/index.php?action_kouhyou_detail_004_kani=true&JigyosyoCd=2870907942-00&ServiceCd=331&Type=search", "url2": "https://www.sompocare.com/service/home/kaigo/H000105" }, "geometry": { "type": "Point", "coordinates": [ 135.360553100000061, 34.733366 ] } },
{ "type": "Feature", "properties": { "内容": "介護付有料老人ホーム　プレザングラン西宮香櫨園【特定施設入居者生活介護（有料老人ホーム）】兵庫県西宮市川添町10番27号", "url": "https://www.kaigokensaku.mhlw.go.jp/28/index.php?action_kouhyou_detail_004_kani=true&JigyosyoCd=2870909906-00&ServiceCd=331&Type=search", "url2": null }, "geometry": { "type": "Point", "coordinates": [ 135.329912900000011, 34.7288274 ] } },
{ "type": "Feature", "properties": { "内容": "チャームスイート苦楽園【特定施設入居者生活介護（有料老人ホーム）】兵庫県西宮市西平町10番5号", "url": "https://www.kaigokensaku.mhlw.go.jp/28/index.php?action_kouhyou_detail_004_kani=true&JigyosyoCd=2870910136-00&ServiceCd=331&Type=search", "url2": "https://www.charmcc.jp/home/charmsuite_kurakuen/" }, "geometry": { "type": "Point", "coordinates": [ 135.3257236, 34.7562189 ] } },
{ "type": "Feature", "properties": { "内容": "ベルパージュ西宮北口【特定施設入居者生活介護（有料老人ホーム）】兵庫県西宮市高木東町３－４１", "url": "https://www.kaigokensaku.mhlw.go.jp/28/index.php?action_kouhyou_detail_004_kani=true&JigyosyoCd=2870901812-00&ServiceCd=331&Type=search", "url2": "http://joylife.alsok.co.jp/" }, "geometry": { "type": "Point", "coordinates": [ 135.36517630000003, 34.748704 ] } },
{ "type": "Feature", "properties": { "内容": "チャームスイート西宮浜【特定施設入居者生活介護（有料老人ホーム）】西宮浜4-10-8", "url": "https://www.kaigokensaku.mhlw.go.jp/28/index.php?action_kouhyou_detail_004_kani=true&JigyosyoCd=2870904204-00&ServiceCd=331&Type=search", "url2": "http://www.charmcc.jp" }, "geometry": { "type": "Point", "coordinates": [ 135.328271200000017, 34.712776 ] } },
{ "type": "Feature", "properties": { "内容": "ベストライフ西宮【特定施設入居者生活介護（有料老人ホーム）】兵庫県西宮市日野町4-73", "url": "https://www.kaigokensaku.mhlw.go.jp/28/index.php?action_kouhyou_detail_004_kani=true&JigyosyoCd=2870908700-00&ServiceCd=331&Type=search", "url2": null }, "geometry": { "type": "Point", "coordinates": [ 136.2459972, 35.0180299 ] } },
{ "type": "Feature", "properties": { "内容": "チャームスイート仁川弐番館【特定施設入居者生活介護（有料老人ホーム）】兵庫県西宮市仁川町３丁目５番９号", "url": "https://www.kaigokensaku.mhlw.go.jp/28/index.php?action_kouhyou_detail_004_kani=true&JigyosyoCd=2870909864-00&ServiceCd=331&Type=search", "url2": "http://www.charmcc.jp" }, "geometry": { "type": "Point", "coordinates": [ 135.357213699999988, 34.7717667 ] } },
{ "type": "Feature", "properties": { "内容": "メディカルホームくらら甲子園【特定施設入居者生活介護（有料老人ホーム）】兵庫県西宮市甲子園四番町8番22号", "url": "https://www.kaigokensaku.mhlw.go.jp/28/index.php?action_kouhyou_detail_004_kani=true&JigyosyoCd=2870901267-00&ServiceCd=331&Type=search", "url2": "http://www.benesse-style-care.co.jp/" }, "geometry": { "type": "Point", "coordinates": [ 135.368459799999982, 34.7281948 ] } },
{ "type": "Feature", "properties": { "内容": "グランダ夙川【特定施設入居者生活介護（有料老人ホーム）】兵庫県西宮市雲井町8番26号", "url": "https://www.kaigokensaku.mhlw.go.jp/28/index.php?action_kouhyou_detail_004_kani=true&JigyosyoCd=2870902497-00&ServiceCd=331&Type=search", "url2": "http://www.benesse-style-care.co.jp/" }, "geometry": { "type": "Point", "coordinates": [ 135.32465179999997, 34.7449592 ] } },
{ "type": "Feature", "properties": { "内容": "グランダ甲子園【特定施設入居者生活介護（有料老人ホーム）】兵庫県西宮市若草町二丁目８番３１号", "url": "https://www.kaigokensaku.mhlw.go.jp/28/index.php?action_kouhyou_detail_004_kani=true&JigyosyoCd=2870903552-00&ServiceCd=331&Type=search", "url2": "http://www.benesse-style-care.co.jp" }, "geometry": { "type": "Point", "coordinates": [ 135.372823499999981, 34.7267033 ] } },
{ "type": "Feature", "properties": { "内容": "まどか武庫川【特定施設入居者生活介護（有料老人ホーム）】兵庫県西宮市小松北町一丁目2番23号", "url": "https://www.kaigokensaku.mhlw.go.jp/28/index.php?action_kouhyou_detail_004_kani=true&JigyosyoCd=2870904329-00&ServiceCd=331&Type=search", "url2": "http://www.benesse-style-care.co.jp/" }, "geometry": { "type": "Point", "coordinates": [ 135.377698199999941, 34.7262923 ] } },
{ "type": "Feature", "properties": { "内容": "メディカル・リハビリホームグランダ香櫨園【特定施設入居者生活介護（有料老人ホーム）】兵庫県西宮市川添町9番８号", "url": "https://www.kaigokensaku.mhlw.go.jp/28/index.php?action_kouhyou_detail_004_kani=true&JigyosyoCd=2870904451-00&ServiceCd=331&Type=search", "url2": "http://www.benesse-style-care.co.jp/" }, "geometry": { "type": "Point", "coordinates": [ 135.32995440000002, 34.728008 ] } },
{ "type": "Feature", "properties": { "内容": "メディカルホームグランダ苦楽園【特定施設入居者生活介護（有料老人ホーム）】兵庫県西宮市奥畑6番6号", "url": "https://www.kaigokensaku.mhlw.go.jp/28/index.php?action_kouhyou_detail_004_kani=true&JigyosyoCd=2870908866-00&ServiceCd=331&Type=search", "url2": "http://www.benesse-style-care.co.jp/" }, "geometry": { "type": "Point", "coordinates": [ 135.3366523, 34.7534451 ] } },
{ "type": "Feature", "properties": { "内容": "エルケアホームガーデン甲子園口【特定施設入居者生活介護（有料老人ホーム）】甲子園口2-7-5エルケアホームガーデン甲子園口", "url": "https://www.kaigokensaku.mhlw.go.jp/28/index.php?action_kouhyou_detail_004_kani=true&JigyosyoCd=2870909690-00&ServiceCd=331&Type=search", "url2": "https://www.l-care.jp/koushien/" }, "geometry": { "type": "Point", "coordinates": [ 135.3760979, 34.7373036 ] } },
{ "type": "Feature", "properties": { "内容": "アルファリビング西宮北口【特定施設入居者生活介護（有料老人ホーム）】兵庫県西宮市丸橋町4番5号アルファリビング西宮北口", "url": "https://www.kaigokensaku.mhlw.go.jp/28/index.php?action_kouhyou_detail_004_kani=true&JigyosyoCd=2870909674-00&ServiceCd=331&Type=search", "url2": "https://www.a-living.jp/hyogo/nishinomiya/" }, "geometry": { "type": "Point", "coordinates": [ 135.3532018, 34.7499761 ] } },
{ "type": "Feature", "properties": { "内容": "介護付有料老人ホームLes芦屋【特定施設入居者生活介護（有料老人ホーム）】兵庫県芦屋市川西町14-1", "url": "https://www.kaigokensaku.mhlw.go.jp/28/index.php?action_kouhyou_detail_004_kani=true&JigyosyoCd=2871001463-00&ServiceCd=331&Type=search", "url2": "http://www.chikusakai.jp/" }, "geometry": { "type": "Point", "coordinates": [ 135.302914741525257, 34.728135573321048 ] } },
{ "type": "Feature", "properties": { "内容": "ザ・レジデンス芦屋スイートケア【特定施設入居者生活介護（有料老人ホーム）】兵庫県芦屋市海洋町12番3号", "url": "https://www.kaigokensaku.mhlw.go.jp/28/index.php?action_kouhyou_detail_004_kani=true&JigyosyoCd=2871001091-00&ServiceCd=331&Type=search", "url2": "http://www.ashiyasuitecare.com" }, "geometry": { "type": "Point", "coordinates": [ 135.321541199999956, 34.7136036 ] } },
{ "type": "Feature", "properties": { "内容": "リハビリホームくらら芦屋【特定施設入居者生活介護（有料老人ホーム）】兵庫県芦屋市川西町7番15号", "url": "https://www.kaigokensaku.mhlw.go.jp/28/index.php?action_kouhyou_detail_004_kani=true&JigyosyoCd=2871000390-00&ServiceCd=331&Type=search", "url2": "http://www.benesse-style-care.co.jp/" }, "geometry": { "type": "Point", "coordinates": [ 135.2997322, 34.729055 ] } },
{ "type": "Feature", "properties": { "内容": "そんぽの家伊丹荒牧【特定施設入居者生活介護（有料老人ホーム）】兵庫県伊丹市荒牧南4-6-1そんぽの家伊丹荒牧", "url": "https://www.kaigokensaku.mhlw.go.jp/28/index.php?action_kouhyou_detail_004_kani=true&JigyosyoCd=2873300970-00&ServiceCd=331&Type=search", "url2": "https://www.sompocare.com/service/home/kaigo/H000167" }, "geometry": { "type": "Point", "coordinates": [ 135.3853858, 34.8077566 ] } },
{ "type": "Feature", "properties": { "内容": "介護付有料老人ホーム　ライフェール【特定施設入居者生活介護（有料老人ホーム）】兵庫県伊丹市春日丘3丁目27-2", "url": "https://www.kaigokensaku.mhlw.go.jp/28/index.php?action_kouhyou_detail_004_kani=true&JigyosyoCd=2873301481-00&ServiceCd=331&Type=search", "url2": "https://www.lifeel.co/jp" }, "geometry": { "type": "Point", "coordinates": [ 135.4135279, 34.791293 ] } },
{ "type": "Feature", "properties": { "内容": "介護付有料老人ホーム　サニーガーデン伊丹【特定施設入居者生活介護（有料老人ホーム）】西台1丁目6番1号", "url": "https://www.kaigokensaku.mhlw.go.jp/28/index.php?action_kouhyou_detail_004_kani=true&JigyosyoCd=2873302851-00&ServiceCd=331&Type=search", "url2": "http://tsuneoka-h.or.jp/sunny/" }, "geometry": { "type": "Point", "coordinates": [ 135.412050722090157, 34.779892642424109 ] } },
{ "type": "Feature", "properties": { "内容": "介護付有料老人ホームプレザンメゾン伊丹西野【特定施設入居者生活介護（有料老人ホーム）】兵庫県伊丹市西野2-413-2", "url": "https://www.kaigokensaku.mhlw.go.jp/28/index.php?action_kouhyou_detail_004_kani=true&JigyosyoCd=2873303388-00&ServiceCd=331&Type=search", "url2": "https://www.tanoshii-ie.jp/single091/" }, "geometry": { "type": "Point", "coordinates": [ 135.3787333, 34.7905883 ] } },
{ "type": "Feature", "properties": { "内容": "サンシティパレス塚口【特定施設入居者生活介護（有料老人ホーム）】兵庫県伊丹市車塚1-32-7", "url": "https://www.kaigokensaku.mhlw.go.jp/28/index.php?action_kouhyou_detail_004_kani=true&JigyosyoCd=2873302000-00&ServiceCd=331&Type=search", "url2": "http://www.hcm-suncity.jp" }, "geometry": { "type": "Point", "coordinates": [ 135.401114300000017, 34.7646417 ] } },
{ "type": "Feature", "properties": { "内容": "やすらぎの館【特定施設入居者生活介護（有料老人ホーム）】兵庫県伊丹市中央2-5-22", "url": "https://www.kaigokensaku.mhlw.go.jp/28/index.php?action_kouhyou_detail_004_kani=true&JigyosyoCd=2873302547-00&ServiceCd=331&Type=search", "url2": "http://www.benesse-style-care.co.jp/" }, "geometry": { "type": "Point", "coordinates": [ 135.415626299999985, 34.78042330000001 ] } },
{ "type": "Feature", "properties": { "内容": "ポポロの杜　出石別館【特定施設入居者生活介護（有料老人ホーム）】兵庫県豊岡市出石町片間54", "url": "https://www.kaigokensaku.mhlw.go.jp/28/index.php?action_kouhyou_detail_004_kani=true&JigyosyoCd=2874401850-00&ServiceCd=331&Type=search", "url2": "http://www.shohousen.jp" }, "geometry": { "type": "Point", "coordinates": [ 134.8327874, 35.4932726 ] } },
{ "type": "Feature", "properties": { "内容": "ニッケあすも加古川弐番館【特定施設入居者生活介護（有料老人ホーム）】兵庫県加古川市加古川町本町239-1", "url": "https://www.kaigokensaku.mhlw.go.jp/28/index.php?action_kouhyou_detail_004_kani=true&JigyosyoCd=2872204314-00&ServiceCd=331&Type=search", "url2": "https://nikkecare.com" }, "geometry": { "type": "Point", "coordinates": [ 134.829110899999989, 34.7700866 ] } },
{ "type": "Feature", "properties": { "内容": "ニッケあすも加古川【特定施設入居者生活介護（有料老人ホーム）】兵庫県加古川市加古川町本町239-1", "url": "https://www.kaigokensaku.mhlw.go.jp/28/index.php?action_kouhyou_detail_004_kani=true&JigyosyoCd=2872203811-00&ServiceCd=331&Type=search", "url2": "http://nikkecare.com" }, "geometry": { "type": "Point", "coordinates": [ 134.8289565, 34.7698186 ] } },
{ "type": "Feature", "properties": { "内容": "チャーム加古川駅前【特定施設入居者生活介護（有料老人ホーム）】加古川市加古川町篠原町300リトハ加古川B棟", "url": "https://www.kaigokensaku.mhlw.go.jp/28/index.php?action_kouhyou_detail_004_kani=true&JigyosyoCd=2872203761-00&ServiceCd=331&Type=search", "url2": "http://www.charmcc.jp/" }, "geometry": { "type": "Point", "coordinates": [ 134.837263, 34.7663944 ] } },
{ "type": "Feature", "properties": { "内容": "パストラール加古川【特定施設入居者生活介護（有料老人ホーム）】兵庫県加古川市平岡町新在家1224-16", "url": "https://www.kaigokensaku.mhlw.go.jp/28/index.php?action_kouhyou_detail_004_kani=true&JigyosyoCd=2872200577-00&ServiceCd=331&Type=search", "url2": "https://pastoral-hyogo-jk.jp/" }, "geometry": { "type": "Point", "coordinates": [ 134.8748716, 34.7493291 ] } },
{ "type": "Feature", "properties": { "内容": "エクセレント加古川【特定施設入居者生活介護（有料老人ホーム）】兵庫県加古川市別府町新野辺2264エクセレント加古川", "url": "https://www.kaigokensaku.mhlw.go.jp/28/index.php?action_kouhyou_detail_004_kani=true&JigyosyoCd=2872204579-00&ServiceCd=331&Type=search", "url2": "https://www.excare.co.jp/" }, "geometry": { "type": "Point", "coordinates": [ 134.8371431, 34.7325688 ] } },
{ "type": "Feature", "properties": { "内容": "介護付有料老人ホーム　ライフ加古川【特定施設入居者生活介護（有料老人ホーム）】兵庫県加古川市別府町石町80", "url": "https://www.kaigokensaku.mhlw.go.jp/28/index.php?action_kouhyou_detail_004_kani=true&JigyosyoCd=2872202219-00&ServiceCd=331&Type=search", "url2": "http://www.lifesupporter.net" }, "geometry": { "type": "Point", "coordinates": [ 134.845722, 34.7276809 ] } },
{ "type": "Feature", "properties": { "内容": "チャームスイート宝塚売布【特定施設入居者生活介護（有料老人ホーム）】兵庫県宝塚市売布4丁目1-25", "url": "https://www.kaigokensaku.mhlw.go.jp/28/index.php?action_kouhyou_detail_004_kani=true&JigyosyoCd=2871102907-00&ServiceCd=331&Type=search", "url2": "http://www.charmcc.jp" }, "geometry": { "type": "Point", "coordinates": [ 135.361684299999979, 34.8165219 ] } },
{ "type": "Feature", "properties": { "内容": "リアンレーヴ宝塚【特定施設入居者生活介護（有料老人ホーム）】南ひばりガ丘２－９－２２", "url": "https://www.kaigokensaku.mhlw.go.jp/28/index.php?action_kouhyou_detail_004_kani=true&JigyosyoCd=2871104549-00&ServiceCd=331&Type=search", "url2": "http://kinoshita-group.co.jp" }, "geometry": { "type": "Point", "coordinates": [ 135.3969059, 34.8218313 ] } },
{ "type": "Feature", "properties": { "内容": "サンシティ宝塚【特定施設入居者生活介護（有料老人ホーム）】兵庫県宝塚市宝梅2-6-26", "url": "https://www.kaigokensaku.mhlw.go.jp/28/index.php?action_kouhyou_detail_004_kani=true&JigyosyoCd=2871101446-00&ServiceCd=331&Type=search", "url2": "http://www.hcm-suncity.jp" }, "geometry": { "type": "Point", "coordinates": [ 135.340018800000053, 34.7967314 ] } },
{ "type": "Feature", "properties": { "内容": "ウェル・エイジング・コミュニティ　宝塚エデンの園【特定施設入居者生活介護（有料老人ホーム）】兵庫県宝塚市ゆずり葉台３丁目１番１号", "url": "https://www.kaigokensaku.mhlw.go.jp/28/index.php?action_kouhyou_detail_004_kani=true&JigyosyoCd=2871100281-00&ServiceCd=331&Type=search", "url2": "http://www.seirei.or.jp/eden/takarazuka/" }, "geometry": { "type": "Point", "coordinates": [ 135.315670700000027, 34.7942343 ] } },
{ "type": "Feature", "properties": { "内容": "くらら仁川【特定施設入居者生活介護（有料老人ホーム）】兵庫県宝塚市仁川北二丁目9番59号", "url": "https://www.kaigokensaku.mhlw.go.jp/28/index.php?action_kouhyou_detail_004_kani=true&JigyosyoCd=2871100687-00&ServiceCd=331&Type=search", "url2": "http://www.benesse-style-care.co.jp" }, "geometry": { "type": "Point", "coordinates": [ 135.359245900000019, 34.7757757 ] } },
{ "type": "Feature", "properties": { "内容": "結いホーム宝塚【特定施設入居者生活介護（有料老人ホーム）】兵庫県宝塚市弥生町2-1", "url": "https://www.kaigokensaku.mhlw.go.jp/28/index.php?action_kouhyou_detail_004_kani=true&JigyosyoCd=2871103137-00&ServiceCd=331&Type=search", "url2": "http://www.seirei.or.jp/yuihome/takarazuka/" }, "geometry": { "type": "Point", "coordinates": [ 135.367612247885063, 34.797851584222855 ] } },
{ "type": "Feature", "properties": { "内容": "メディカル・リハビリホームグランダ宝塚逆瀬川【特定施設入居者生活介護（有料老人ホーム）】兵庫県宝塚市伊孑志2丁目8番2号", "url": "https://www.kaigokensaku.mhlw.go.jp/28/index.php?action_kouhyou_detail_004_kani=true&JigyosyoCd=2871104259-00&ServiceCd=331&Type=search", "url2": "http://www.benesse-style-care.co.jp/" }, "geometry": { "type": "Point", "coordinates": [ 135.3561042, 34.8002195 ] } },
{ "type": "Feature", "properties": { "内容": "トラストガーデン宝塚【特定施設入居者生活介護（有料老人ホーム）】花屋敷つつじガ丘4-11", "url": "https://www.kaigokensaku.mhlw.go.jp/28/index.php?action_kouhyou_detail_004_kani=true&JigyosyoCd=2871104689-00&ServiceCd=331&Type=search", "url2": "https://www.trustgarden-takarazuka.com/" }, "geometry": { "type": "Point", "coordinates": [ 135.403305100000011, 34.834685200000017 ] } },
{ "type": "Feature", "properties": { "内容": "かえでシニアアルヴァンタウンⅠ【特定施設入居者生活介護（有料老人ホーム）】兵庫県川西市火打1丁目14番6号", "url": "https://www.kaigokensaku.mhlw.go.jp/28/index.php?action_kouhyou_detail_004_kani=true&JigyosyoCd=2873102491-00&ServiceCd=331&Type=search", "url2": "https://kaede-senior.jp/arbventtown1/" }, "geometry": { "type": "Point", "coordinates": [ 135.420306900000014, 34.8355657 ] } },
{ "type": "Feature", "properties": { "内容": "そんぽの家川西鶴之荘【特定施設入居者生活介護（有料老人ホーム）】兵庫県川西市小戸2丁目１８－５", "url": "https://www.kaigokensaku.mhlw.go.jp/28/index.php?action_kouhyou_detail_004_kani=true&JigyosyoCd=2873100735-00&ServiceCd=331&Type=search", "url2": "https://www.sompocare.com/" }, "geometry": { "type": "Point", "coordinates": [ 135.422122, 34.8291904 ] } },
{ "type": "Feature", "properties": { "内容": "小花【特定施設入居者生活介護（有料老人ホーム）】川西市小花２丁目26-4", "url": "https://www.kaigokensaku.mhlw.go.jp/28/index.php?action_kouhyou_detail_004_kani=true&JigyosyoCd=2873101923-00&ServiceCd=331&Type=search", "url2": "http://www.koto-1011.jp/" }, "geometry": { "type": "Point", "coordinates": [ 135.415917199999967, 34.823152 ] } },
{ "type": "Feature", "properties": { "内容": "ニチイケアセンター川西多田【特定施設入居者生活介護（有料老人ホーム）】兵庫県川西市新田2-13-16", "url": "https://www.kaigokensaku.mhlw.go.jp/28/index.php?action_kouhyou_detail_004_kani=true&JigyosyoCd=2873102152-00&ServiceCd=331&Type=search", "url2": "http://www.nichiigakkan.co.jp" }, "geometry": { "type": "Point", "coordinates": [ 139.914252799999986, 35.7252248 ] } },
{ "type": "Feature", "properties": { "内容": "スーパー・コート川西加茂【特定施設入居者生活介護（有料老人ホーム）】兵庫県川西市加茂2丁目6番23号", "url": "https://www.kaigokensaku.mhlw.go.jp/28/index.php?action_kouhyou_detail_004_kani=true&JigyosyoCd=2873101980-00&ServiceCd=331&Type=search", "url2": "http://www.supercourt.jp" }, "geometry": { "type": "Point", "coordinates": [ 135.404204533729512, 34.818546747973457 ] } },
{ "type": "Feature", "properties": { "内容": "スーパー・コート川西【特定施設入居者生活介護（有料老人ホーム）】兵庫県川西市東久代２丁目１６番１４号", "url": "https://www.kaigokensaku.mhlw.go.jp/28/index.php?action_kouhyou_detail_004_kani=true&JigyosyoCd=2873101972-00&ServiceCd=331&Type=search", "url2": "http://www.supercourt.jp/hyougo/kawanishi.html" }, "geometry": { "type": "Point", "coordinates": [ 135.416456400000015, 34.8048005 ] } },
{ "type": "Feature", "properties": { "内容": "介護付き有料老人ホーム　陽だまりの郷【特定施設入居者生活介護（有料老人ホーム）】鶯の森町9-17", "url": "https://www.kaigokensaku.mhlw.go.jp/28/index.php?action_kouhyou_detail_004_kani=true&JigyosyoCd=2873103267-00&ServiceCd=331&Type=search", "url2": "https://www.tukumo-kinenhp.jp" }, "geometry": { "type": "Point", "coordinates": [ 135.4183678, 34.8485959 ] } },
{ "type": "Feature", "properties": { "内容": "サービス付き高齢者向け住宅　くつろぎの杜【特定施設入居者生活介護（有料老人ホーム）】市場町926-462", "url": "https://www.kaigokensaku.mhlw.go.jp/28/index.php?action_kouhyou_detail_004_kani=true&JigyosyoCd=2871900805-00&ServiceCd=331&Type=search", "url2": "http://www.yasuragi-swc.or.jp" }, "geometry": { "type": "Point", "coordinates": [ 134.953322508412157, 34.83057401964308 ] } },
{ "type": "Feature", "properties": { "内容": "篠山ふく健康支援【特定施設入居者生活介護（有料老人ホーム）】兵庫県丹波篠山市乾新町７０－２", "url": "https://www.kaigokensaku.mhlw.go.jp/28/index.php?action_kouhyou_detail_004_kani=true&JigyosyoCd=2871400798-00&ServiceCd=331&Type=search", "url2": "http://news10.biz/" }, "geometry": { "type": "Point", "coordinates": [ 135.210266800000028, 35.0768448 ] } },
{ "type": "Feature", "properties": { "内容": "介護付き有料老人ホーム　グリーンリーフ【特定施設入居者生活介護（有料老人ホーム）】春日町野村1996番地介護付き有料老人ホーム　グリーンリーフ", "url": "https://www.kaigokensaku.mhlw.go.jp/28/index.php?action_kouhyou_detail_004_kani=true&JigyosyoCd=2871301996-00&ServiceCd=331&Type=search", "url2": "https://kiyoukai.com/kaigo/serviced-housing/" }, "geometry": { "type": "Point", "coordinates": [ 135.1073685, 35.1608381 ] } },
{ "type": "Feature", "properties": { "内容": "介護付有料老人ホーム　アムール新宮【特定施設入居者生活介護（有料老人ホーム）】兵庫県たつの市新宮町新宮５５５番地", "url": "https://www.kaigokensaku.mhlw.go.jp/28/index.php?action_kouhyou_detail_004_kani=true&JigyosyoCd=2873600619-00&ServiceCd=331&Type=search", "url2": "http://www.a-shingu.com" }, "geometry": { "type": "Point", "coordinates": [ 134.5502907, 34.9212333 ] } },
{ "type": "Feature", "properties": { "内容": "介護付有料老人ホーム　レインボーハイツ【特定施設入居者生活介護（有料老人ホーム）】兵庫県川辺郡猪名川町伏見台1丁目1番地24介護付有料老人ホームレインボーハイツ", "url": "https://www.kaigokensaku.mhlw.go.jp/28/index.php?action_kouhyou_detail_004_kani=true&JigyosyoCd=2873200329-00&ServiceCd=331&Type=search", "url2": "http://www.rainbow-h.com" }, "geometry": { "type": "Point", "coordinates": [ 135.39387970000007, 34.9084611 ] } }
]
}
