{
"type": "FeatureCollection",
"name": "geo_28_地域密着型特定施設入居者生活介護（有料老人ホーム）",
"crs": { "type": "name", "properties": { "name": "urn:ogc:def:crs:OGC:1.3:CRS84" } },
"features": [
{ "type": "Feature", "properties": { "内容": "介護付有料老人ホーム　ラウレート【地域密着型特定施設入居者生活介護（有料老人ホーム）】兵庫県尼崎市武庫川町1-8", "url": "https://www.kaigokensaku.mhlw.go.jp/28/index.php?action_kouhyou_detail_004_kani=true&JigyosyoCd=2893000279-00&ServiceCd=361&Type=search", "url2": "http://www.seisyu-kai.com/nursing-home.html#tabs-1" }, "geometry": { "type": "Point", "coordinates": [ 135.390465481614683, 34.716092611525497 ] } },
{ "type": "Feature", "properties": { "内容": "介護付有料老人ホーム　うさぎの里【地域密着型特定施設入居者生活介護（有料老人ホーム）】尼崎市稲葉元町2丁目1番12号", "url": "https://www.kaigokensaku.mhlw.go.jp/28/index.php?action_kouhyou_detail_004_kani=true&JigyosyoCd=2893000493-00&ServiceCd=361&Type=search", "url2": "https://oudai-care.co.jp/" }, "geometry": { "type": "Point", "coordinates": [ 135.3887972, 34.737658 ] } },
{ "type": "Feature", "properties": { "内容": "芦屋アラベラの家地域密着型【地域密着型特定施設入居者生活介護（有料老人ホーム）】芦屋市朝日ヶ丘町９－１", "url": "https://www.kaigokensaku.mhlw.go.jp/28/index.php?action_kouhyou_detail_004_kani=true&JigyosyoCd=2891000073-00&ServiceCd=361&Type=search", "url2": "http://www.arabella.jp" }, "geometry": { "type": "Point", "coordinates": [ 135.30440950000002, 34.746448 ] } },
{ "type": "Feature", "properties": { "内容": "シニアライフコート潮芦屋　やすらぎ【地域密着型特定施設入居者生活介護（有料老人ホーム）】芦屋市陽光町4-55", "url": "https://www.kaigokensaku.mhlw.go.jp/28/index.php?action_kouhyou_detail_004_kani=true&JigyosyoCd=2891000040-00&ServiceCd=361&Type=search", "url2": "http://medicare-planning.jp/seniorlifecourt/pc/index.php" }, "geometry": { "type": "Point", "coordinates": [ 135.3151669, 34.7137925 ] } }
]
}
