{
"type": "FeatureCollection",
"name": "geo_28_特定施設入居者生活介護（軽費老人ホーム（外部サービス利用型））",
"crs": { "type": "name", "properties": { "name": "urn:ogc:def:crs:OGC:1.3:CRS84" } },
"features": [
{ "type": "Feature", "properties": { "内容": "志染愛真ホーム【特定施設入居者生活介護（軽費老人ホーム（外部サービス利用型））】兵庫県三木市志染町御坂764-16", "url": "https://www.kaigokensaku.mhlw.go.jp/28/index.php?action_kouhyou_detail_004_kani=true&JigyosyoCd=2872301268-00&ServiceCd=&Type=search", "url2": "https://sites.google.com/view/shijimiaishin" }, "geometry": { "type": "Point", "coordinates": [ 135.05764350000004, 34.7959359 ] } }
]
}
