{
"type": "FeatureCollection",
"name": "geo_28_義務教育学校",
"crs": { "type": "name", "properties": { "name": "urn:ogc:def:crs:EPSG::6668" } },
"features": [
{ "type": "Feature", "properties": { "P29_001": "28201", "P29_002": "C228210000041", "P29_003": "16014", "P29_004": "姫路市立豊富小中学校", "P29_005": "兵庫県姫路市豊富町御蔭925", "P29_006": "3", "P29_007": "1", "P29_008": "00", "P29_009": null }, "geometry": { "type": "Point", "coordinates": [ 134.748439672909257, 34.882149402376157 ] } },
{ "type": "Feature", "properties": { "P29_001": "28204", "P29_002": "C228210000050", "P29_003": "16014", "P29_004": "西宮市立総合教育センター付属西宮浜義務教育学校", "P29_005": "兵庫県西宮市西宮浜4-2-31", "P29_006": "3", "P29_007": "1", "P29_008": "00", "P29_009": null }, "geometry": { "type": "Point", "coordinates": [ 135.328990234308691, 34.715932191850186 ] } },
{ "type": "Feature", "properties": { "P29_001": "28222", "P29_002": "C228210000069", "P29_003": "16014", "P29_004": "養父市立関宮学園", "P29_005": "兵庫県養父市吉井180", "P29_006": "3", "P29_007": "1", "P29_008": "00", "P29_009": null }, "geometry": { "type": "Point", "coordinates": [ 134.637932357536613, 35.372067570174629 ] } },
{ "type": "Feature", "properties": { "P29_001": "28228", "P29_002": "C228210000078", "P29_003": "16014", "P29_004": "加東市立東条学園小中学校", "P29_005": "兵庫県加東市天神56", "P29_006": "3", "P29_007": "1", "P29_008": "00", "P29_009": null }, "geometry": { "type": "Point", "coordinates": [ 135.059828846455332, 34.905422424930507 ] } },
{ "type": "Feature", "properties": { "P29_001": "28110", "P29_002": "C228210000014", "P29_003": "16014", "P29_004": "神戸市立義務教育学校港島学園", "P29_005": "兵庫県神戸市中央区港島中町3-2-2", "P29_006": "3", "P29_007": "1", "P29_008": "00", "P29_009": null }, "geometry": { "type": "Point", "coordinates": [ 135.2124229312426, 34.669119032986373 ] } },
{ "type": "Feature", "properties": { "P29_001": "28201", "P29_002": "C228210000023", "P29_003": "16014", "P29_004": "姫路市立白鷺小中学校", "P29_005": "兵庫県姫路市本町68-52", "P29_006": "3", "P29_007": "1", "P29_008": "00", "P29_009": null }, "geometry": { "type": "Point", "coordinates": [ 134.689709679285386, 34.835595943039984 ] } },
{ "type": "Feature", "properties": { "P29_001": "28201", "P29_002": "C228210000032", "P29_003": "16014", "P29_004": "姫路市立四郷学院", "P29_005": "兵庫県姫路市四郷町坂元345-2", "P29_006": "3", "P29_007": "1", "P29_008": "00", "P29_009": null }, "geometry": { "type": "Point", "coordinates": [ 134.720468687694819, 34.811823491129388 ] } },
{ "type": "Feature", "properties": { "P29_001": "28109", "P29_002": "C228210000087", "P29_003": "16014", "P29_004": "神戸市立義務教育学校八多学園", "P29_005": "兵庫県神戸市北区八多町附物876", "P29_006": "3", "P29_007": "1", "P29_008": "00", "P29_009": null }, "geometry": { "type": "Point", "coordinates": [ 135.195314906332442, 34.822458284822659 ] } }
]
}
