{
"type": "FeatureCollection",
"name": "geo_28_夜間対応型訪問介護",
"crs": { "type": "name", "properties": { "name": "urn:ogc:def:crs:OGC:1.3:CRS84" } },
"features": [
{ "type": "Feature", "properties": { "内容": "住吉夜間対応型訪問介護センター【夜間対応型訪問介護】兵庫県神戸市東灘区住吉本町3-7-41", "url": "https://www.kaigokensaku.mhlw.go.jp/28/index.php?action_kouhyou_detail_004_kani=true&JigyosyoCd=2890100221-00&ServiceCd=710&Type=search", "url2": "http://www.krh-sumiyoshi.com/" }, "geometry": { "type": "Point", "coordinates": [ 135.259292499999987, 34.7240393 ] } },
{ "type": "Feature", "properties": { "内容": "ぷらすてっぷ夜間対応型訪問介護【夜間対応型訪問介護】熊内橋通6-1-17", "url": "https://www.kaigokensaku.mhlw.go.jp/28/index.php?action_kouhyou_detail_004_kani=true&JigyosyoCd=2895100135-00&ServiceCd=710&Type=search", "url2": "https://www.positive-plustep.com/" }, "geometry": { "type": "Point", "coordinates": [ 135.199165450926216, 34.704383193715358 ] } },
{ "type": "Feature", "properties": { "内容": "エイプレイス兵庫西宮【夜間対応型訪問介護】兵庫県西宮市段上町1丁目10-28", "url": "https://www.kaigokensaku.mhlw.go.jp/28/index.php?action_kouhyou_detail_004_kani=true&JigyosyoCd=2890900596-00&ServiceCd=710&Type=search", "url2": "https://isla-grande.com/" }, "geometry": { "type": "Point", "coordinates": [ 135.3634725, 34.7680639 ] } },
{ "type": "Feature", "properties": { "内容": "エイプレイス兵庫西宮【夜間対応型訪問介護】兵庫県西宮市段上町１-10-28", "url": "https://www.kaigokensaku.mhlw.go.jp/28/index.php?action_kouhyou_detail_004_kani=true&JigyosyoCd=2890900844-00&ServiceCd=710&Type=search", "url2": "https://www.isla-grande.com/" }, "geometry": { "type": "Point", "coordinates": [ 135.3634725, 34.7680639 ] } }
]
}
