{
"type": "FeatureCollection",
"name": "geo_28_短期入所療養介護（介護医療院）",
"crs": { "type": "name", "properties": { "name": "urn:ogc:def:crs:OGC:1.3:CRS84" } },
"features": [
{ "type": "Feature", "properties": { "内容": "介護医療院よしだ【短期入所療養介護（介護医療院）】兵庫県神戸市長田区東尻池町1丁目10番23号", "url": "https://www.kaigokensaku.mhlw.go.jp/28/index.php?action_kouhyou_detail_004_kani=true&JigyosyoCd=28B0600019-00&ServiceCd=551&Type=search", "url2": "https://www.yoshida-hp.or.jp/" }, "geometry": { "type": "Point", "coordinates": [ 135.1560256, 34.6622731 ] } },
{ "type": "Feature", "properties": { "内容": "まほし介護医療院【短期入所療養介護（介護医療院）】兵庫県神戸市北区山田町上谷上字古々谷12番地の3", "url": "https://www.kaigokensaku.mhlw.go.jp/28/index.php?action_kouhyou_detail_004_kani=true&JigyosyoCd=28B5000017-00&ServiceCd=551&Type=search", "url2": "http://www.mahoshi.com/" }, "geometry": { "type": "Point", "coordinates": [ 135.1897866, 34.7710635 ] } },
{ "type": "Feature", "properties": { "内容": "医療法人社団　尚仁会　福山診療所　介護医療院【短期入所療養介護（介護医療院）】菖蒲が丘１丁目１４-1", "url": "https://www.kaigokensaku.mhlw.go.jp/28/index.php?action_kouhyou_detail_004_kani=true&JigyosyoCd=28B5000025-00&ServiceCd=551&Type=search", "url2": null }, "geometry": { "type": "Point", "coordinates": [ 135.2181644, 34.839445 ] } },
{ "type": "Feature", "properties": { "内容": "ポートアイランド介護医療院（短期入所医療院）【短期入所療養介護（介護医療院）】港島中町4-6メディケアセンタービル", "url": "https://www.kaigokensaku.mhlw.go.jp/28/index.php?action_kouhyou_detail_004_kani=true&JigyosyoCd=28B5100015-00&ServiceCd=551&Type=search", "url2": "http://www.pi.kobe-mariners.or.jp/" }, "geometry": { "type": "Point", "coordinates": [ 135.2090473, 34.6686904 ] } },
{ "type": "Feature", "properties": { "内容": "厚生病院介護医療院【短期入所療養介護（介護医療院）】兵庫県姫路市御立西4丁目1番25号", "url": "https://www.kaigokensaku.mhlw.go.jp/28/index.php?action_kouhyou_detail_004_kani=true&JigyosyoCd=28B4000018-00&ServiceCd=551&Type=search", "url2": "http://Kousei-hp.jp" }, "geometry": { "type": "Point", "coordinates": [ 134.6598884, 34.8616636 ] } },
{ "type": "Feature", "properties": { "内容": "日並内科外科医院　介護医療院【短期入所療養介護（介護医療院）】兵庫県姫路市香寺町犬飼502", "url": "https://www.kaigokensaku.mhlw.go.jp/28/index.php?action_kouhyou_detail_004_kani=true&JigyosyoCd=28B4000034-00&ServiceCd=551&Type=search", "url2": "http://hinami-naikageka.or.jp" }, "geometry": { "type": "Point", "coordinates": [ 134.7344043, 34.9001973 ] } },
{ "type": "Feature", "properties": { "内容": "社会医療法人　恵風会　介護医療院　ヴェルデ【短期入所療養介護（介護医療院）】兵庫県姫路市西今宿５丁目３番8号", "url": "https://www.kaigokensaku.mhlw.go.jp/28/index.php?action_kouhyou_detail_004_kani=true&JigyosyoCd=28B4000026-00&ServiceCd=551&Type=search", "url2": "https://www.keifukai.or.jp" }, "geometry": { "type": "Point", "coordinates": [ 134.6614686, 34.8456511 ] } },
{ "type": "Feature", "properties": { "内容": "國富胃腸病院介護医療院【短期入所療養介護（介護医療院）】兵庫県姫路市青山３丁目３３番１号", "url": "https://www.kaigokensaku.mhlw.go.jp/28/index.php?action_kouhyou_detail_004_kani=true&JigyosyoCd=2814020067-00&ServiceCd=551&Type=search", "url2": "www.kunitomi-icho-hp.com" }, "geometry": { "type": "Point", "coordinates": [ 134.642142132175451, 34.844376630239502 ] } },
{ "type": "Feature", "properties": { "内容": "介護医療院　ケアヴィラ伊丹【短期入所療養介護（介護医療院）】兵庫県伊丹市大野1丁目3-2", "url": "https://www.kaigokensaku.mhlw.go.jp/28/index.php?action_kouhyou_detail_004_kani=true&JigyosyoCd=28B3300013-00&ServiceCd=551&Type=search", "url2": "https://carevilla.com/itami/index.html" }, "geometry": { "type": "Point", "coordinates": [ 135.40120490000001, 34.8044443 ] } },
{ "type": "Feature", "properties": { "内容": "医療法人社団　尚仁会　平島病院介護医療院【短期入所療養介護（介護医療院）】兵庫県三田市天神1丁目2番15号", "url": "https://www.kaigokensaku.mhlw.go.jp/28/index.php?action_kouhyou_detail_004_kani=true&JigyosyoCd=28B1200017-00&ServiceCd=551&Type=search", "url2": "https://www.mc-shojin.or.jp/" }, "geometry": { "type": "Point", "coordinates": [ 135.2222791, 34.8896978 ] } },
{ "type": "Feature", "properties": { "内容": "米田病院介護医療院【短期入所療養介護（介護医療院）】兵庫県加西市尾崎町字野田１０番1", "url": "https://www.kaigokensaku.mhlw.go.jp/28/index.php?action_kouhyou_detail_004_kani=true&JigyosyoCd=28B2600017-00&ServiceCd=551&Type=search", "url2": "http:/www.yoneda-hospital.com" }, "geometry": { "type": "Point", "coordinates": [ 134.844116899999989, 34.9016338 ] } },
{ "type": "Feature", "properties": { "内容": "介護医療院　ふきの郷【短期入所療養介護（介護医療院）】兵庫県丹波篠山市東吹1015番1", "url": "https://www.kaigokensaku.mhlw.go.jp/28/index.php?action_kouhyou_detail_004_kani=true&JigyosyoCd=28B1400013-00&ServiceCd=551&Type=search", "url2": "http://www.kiyoukai.com" }, "geometry": { "type": "Point", "coordinates": [ 135.197780012303156, 35.070299380220085 ] } },
{ "type": "Feature", "properties": { "内容": "医療法人社団　衿正会　生駒病院介護医療院【短期入所療養介護（介護医療院）】兵庫県川辺郡猪名川町広根字九十九8", "url": "https://www.kaigokensaku.mhlw.go.jp/28/index.php?action_kouhyou_detail_004_kani=true&JigyosyoCd=28B3200015-00&ServiceCd=551&Type=search", "url2": "https://www.ikoma-hp.com" }, "geometry": { "type": "Point", "coordinates": [ 135.3727364, 34.8905916 ] } },
{ "type": "Feature", "properties": { "内容": "多可赤十字介護医療院【短期入所療養介護（介護医療院）】兵庫県多可郡多可町中区岸上280-19", "url": "https://www.kaigokensaku.mhlw.go.jp/28/index.php?action_kouhyou_detail_004_kani=true&JigyosyoCd=28B2700015-00&ServiceCd=551&Type=search", "url2": "http://www.taka.jrc.or.jp" }, "geometry": { "type": "Point", "coordinates": [ 134.923365100000012, 35.0542034 ] } },
{ "type": "Feature", "properties": { "内容": "医療法人社団一葉会　きねん介護医療院【短期入所療養介護（介護医療院）】兵庫県佐用郡佐用町佐用1132-25", "url": "https://www.kaigokensaku.mhlw.go.jp/28/index.php?action_kouhyou_detail_004_kani=true&JigyosyoCd=28B3700014-00&ServiceCd=551&Type=search", "url2": "http://sayohp.jp/" }, "geometry": { "type": "Point", "coordinates": [ 134.35182180000001, 35.0062843 ] } }
]
}
