{
"type": "FeatureCollection",
"name": "geo_28_各種学校",
"crs": { "type": "name", "properties": { "name": "urn:ogc:def:crs:EPSG::6668" } },
"features": [
{ "type": "Feature", "properties": { "P29_001": "28110", "P29_002": "H228310000048", "P29_003": "16015", "P29_004": "神戸文化服装学院", "P29_005": "兵庫県神戸市灘区青谷2", "P29_006": "4", "P29_007": "0", "P29_008": "00", "P29_009": null }, "geometry": { "type": "Point", "coordinates": [ 135.17498320514602, 34.685521016636564 ] } },
{ "type": "Feature", "properties": { "P29_001": "28110", "P29_002": "H228310000075", "P29_003": "16015", "P29_004": "駿台予備学校神戸校", "P29_005": "兵庫県神戸市中央区琴ノ緒町5-5-10", "P29_006": "4", "P29_007": "0", "P29_008": "00", "P29_009": null }, "geometry": { "type": "Point", "coordinates": [ 135.19467218905362, 34.696240505811154 ] } },
{ "type": "Feature", "properties": { "P29_001": "28107", "P29_002": "H228310000271", "P29_003": "16015", "P29_004": "マリスト・ブラザース・インターナショナル・スクール", "P29_005": "兵庫県神戸市須磨区知守町1-2-1", "P29_006": "4", "P29_007": "0", "P29_008": "00", "P29_009": null }, "geometry": { "type": "Point", "coordinates": [ 135.114281833532317, 34.644622364695486 ] } },
{ "type": "Feature", "properties": { "P29_001": "28201", "P29_002": "H228310000333", "P29_003": "16015", "P29_004": "西播朝鮮初中級学校", "P29_005": "兵庫県姫路市苫編町60", "P29_006": "4", "P29_007": "0", "P29_008": "00", "P29_009": null }, "geometry": { "type": "Point", "coordinates": [ 134.655303088422528, 34.816900287407314 ] } },
{ "type": "Feature", "properties": { "P29_001": "28202", "P29_002": "H228310000413", "P29_003": "16015", "P29_004": "パロマ服装女学院", "P29_005": "兵庫県尼崎市汐江前田1", "P29_006": "4", "P29_007": "0", "P29_008": "00", "P29_009": null }, "geometry": { "type": "Point", "coordinates": [ 135.410119607516862, 34.721444796533973 ] } },
{ "type": "Feature", "properties": { "P29_001": "28202", "P29_002": "H228310000422", "P29_003": "16015", "P29_004": "高岡編物学院", "P29_005": "兵庫県尼崎市神田北通5-143", "P29_006": "4", "P29_007": "0", "P29_008": "00", "P29_009": null }, "geometry": { "type": "Point", "coordinates": [ 135.409873664944143, 34.72164952601775 ] } },
{ "type": "Feature", "properties": { "P29_001": "28209", "P29_002": "H228310000583", "P29_003": "16015", "P29_004": "吉田綜合技芸学院", "P29_005": "兵庫県豊岡市戸牧字松崎73-1", "P29_006": "4", "P29_007": "0", "P29_008": "00", "P29_009": null }, "geometry": { "type": "Point", "coordinates": [ 134.807419024065325, 35.538996621776782 ] } },
{ "type": "Feature", "properties": { "P29_001": "28210", "P29_002": "H228310000609", "P29_003": "16015", "P29_004": "加古川ファッションカレッジ", "P29_005": "兵庫県加古川市加古川栗津419-1", "P29_006": "4", "P29_007": "0", "P29_008": "00", "P29_009": null }, "geometry": { "type": "Point", "coordinates": [ 134.835143972654095, 34.762484439916648 ] } },
{ "type": "Feature", "properties": { "P29_001": "28210", "P29_002": "H228310000618", "P29_003": "16015", "P29_004": "加古川文化女学院", "P29_005": "兵庫県加古川市加古川町寺家町165", "P29_006": "4", "P29_007": "0", "P29_008": "00", "P29_009": null }, "geometry": { "type": "Point", "coordinates": [ 134.837069993634231, 34.768140242501623 ] } },
{ "type": "Feature", "properties": { "P29_001": "28212", "P29_002": "H228310000636", "P29_003": "16015", "P29_004": "赤穂洋裁女学院", "P29_005": "兵庫県赤穂市加里屋2174", "P29_006": "4", "P29_007": "0", "P29_008": "00", "P29_009": null }, "geometry": { "type": "Point", "coordinates": [ 134.393097290472582, 34.752018626535104 ] } },
{ "type": "Feature", "properties": { "P29_001": "28214", "P29_002": "H228310000663", "P29_003": "16015", "P29_004": "宝塚音楽学校", "P29_005": "兵庫県宝塚市武庫川町1-1", "P29_006": "4", "P29_007": "0", "P29_008": "00", "P29_009": null }, "geometry": { "type": "Point", "coordinates": [ 135.347301178980217, 34.806602940017605 ] } },
{ "type": "Feature", "properties": { "P29_001": "28214", "P29_002": "H228310000672", "P29_003": "16015", "P29_004": "宝塚学院書道美術学校", "P29_005": "兵庫県宝塚市清荒神3-3-23", "P29_006": "4", "P29_007": "0", "P29_008": "00", "P29_009": null }, "geometry": { "type": "Point", "coordinates": [ 135.352103147975583, 34.813677071123841 ] } },
{ "type": "Feature", "properties": { "P29_001": "28221", "P29_002": "H228310000734", "P29_003": "16015", "P29_004": "茜洋裁学院", "P29_005": "兵庫県丹波篠山市二階町55-1", "P29_006": "4", "P29_007": "0", "P29_008": "00", "P29_009": null }, "geometry": { "type": "Point", "coordinates": [ 135.217028337807733, 35.076614967029421 ] } },
{ "type": "Feature", "properties": { "P29_001": "28226", "P29_002": "H228310000743", "P29_003": "16015", "P29_004": "郡家ドレスメーカー女学院", "P29_005": "兵庫県淡路市郡家237", "P29_006": "4", "P29_007": "0", "P29_008": "00", "P29_009": null }, "geometry": { "type": "Point", "coordinates": [ 134.844808139303893, 34.472901464732288 ] } },
{ "type": "Feature", "properties": { "P29_001": "28221", "P29_002": "H228310000752", "P29_003": "16015", "P29_004": "篠山学園", "P29_005": "兵庫県丹波篠山市南矢代602", "P29_006": "4", "P29_007": "0", "P29_008": "00", "P29_009": null }, "geometry": { "type": "Point", "coordinates": [ 135.173000428719689, 35.029497685033554 ] } },
{ "type": "Feature", "properties": { "P29_001": "28101", "P29_002": "H228310000011", "P29_003": "16015", "P29_004": "大学予備校芦屋学院", "P29_005": "兵庫県神戸市東灘区住吉町中島", "P29_006": "4", "P29_007": "0", "P29_008": "00", "P29_009": null }, "geometry": { "type": "Point", "coordinates": [ 135.256495176010162, 34.723029483556537 ] } },
{ "type": "Feature", "properties": { "P29_001": "28101", "P29_002": "H228310000020", "P29_003": "16015", "P29_004": "甲南高等文化学院", "P29_005": "兵庫県神戸市東灘区岡本1-8-6", "P29_006": "4", "P29_007": "0", "P29_008": "00", "P29_009": null }, "geometry": { "type": "Point", "coordinates": [ 135.275726052950347, 34.727702146761473 ] } },
{ "type": "Feature", "properties": { "P29_001": "28101", "P29_002": "H228310000039", "P29_003": "16015", "P29_004": "神戸ドイツ学院インターナショナル", "P29_005": "兵庫県神戸市東灘区向洋町中3-2-8", "P29_006": "4", "P29_007": "0", "P29_008": "00", "P29_009": null }, "geometry": { "type": "Point", "coordinates": [ 135.270046997663144, 34.687136675166258 ] } },
{ "type": "Feature", "properties": { "P29_001": "28101", "P29_002": "H228310000057", "P29_003": "16015", "P29_004": "カネディアン・アカデミイ", "P29_005": "兵庫県神戸市東灘区向洋町中4-1", "P29_006": "4", "P29_007": "0", "P29_008": "00", "P29_009": null }, "geometry": { "type": "Point", "coordinates": [ 135.273983658399999, 34.684912002952331 ] } },
{ "type": "Feature", "properties": { "P29_001": "28110", "P29_002": "H228310000066", "P29_003": "16015", "P29_004": "神戸朝鮮初中級学校", "P29_005": "兵庫県神戸市中央区脇浜町1-6-1", "P29_006": "4", "P29_007": "0", "P29_008": "00", "P29_009": null }, "geometry": { "type": "Point", "coordinates": [ 135.214678299659056, 34.705090100405123 ] } },
{ "type": "Feature", "properties": { "P29_001": "28110", "P29_002": "H228310000084", "P29_003": "16015", "P29_004": "河合塾神戸三宮校", "P29_005": "兵庫県神戸市中央区琴ノ緒町5-7-1", "P29_006": "4", "P29_007": "0", "P29_008": "00", "P29_009": null }, "geometry": { "type": "Point", "coordinates": [ 135.194778741739043, 34.696769833103659 ] } },
{ "type": "Feature", "properties": { "P29_001": "28110", "P29_002": "H228310000093", "P29_003": "16015", "P29_004": "布引珠算学院", "P29_005": "兵庫県神戸市中央区二宮町1-13-19", "P29_006": "4", "P29_007": "0", "P29_008": "00", "P29_009": null }, "geometry": { "type": "Point", "coordinates": [ 135.198007878614447, 34.70061037061059 ] } },
{ "type": "Feature", "properties": { "P29_001": "28110", "P29_002": "H228310000100", "P29_003": "16015", "P29_004": "東川崎珠算専修学院", "P29_005": "兵庫県神戸市中央区東川崎町7-21-5", "P29_006": "4", "P29_007": "0", "P29_008": "00", "P29_009": null }, "geometry": { "type": "Point", "coordinates": [ 135.179392197288166, 34.675150109540766 ] } },
{ "type": "Feature", "properties": { "P29_001": "28110", "P29_002": "H228310000119", "P29_003": "16015", "P29_004": "神戸タイピスト専門学院", "P29_005": "兵庫県神戸市中央区多聞通2-6-5", "P29_006": "4", "P29_007": "0", "P29_008": "00", "P29_009": null }, "geometry": { "type": "Point", "coordinates": [ 135.176624452718301, 34.681552137760846 ] } },
{ "type": "Feature", "properties": { "P29_001": "28110", "P29_002": "H228310000128", "P29_003": "16015", "P29_004": "日本タイピスト学校", "P29_005": "兵庫県神戸市中央区下山手通3-1-21", "P29_006": "4", "P29_007": "0", "P29_008": "00", "P29_009": null }, "geometry": { "type": "Point", "coordinates": [ 135.189173202680877, 34.69228274893343 ] } },
{ "type": "Feature", "properties": { "P29_001": "28111", "P29_002": "H228310000137", "P29_003": "16015", "P29_004": "神戸ＹＭＣＡ高等学院", "P29_005": "兵庫県神戸市西区学園東町2-1-3", "P29_006": "4", "P29_007": "0", "P29_008": "00", "P29_009": null }, "geometry": { "type": "Point", "coordinates": [ 135.059084905017158, 34.683922101114881 ] } },
{ "type": "Feature", "properties": { "P29_001": "28110", "P29_002": "H228310000146", "P29_003": "16015", "P29_004": "神戸中華同文学校", "P29_005": "兵庫県神戸市中央区中山手通6-9-1", "P29_006": "4", "P29_007": "0", "P29_008": "00", "P29_009": null }, "geometry": { "type": "Point", "coordinates": [ 135.179480906985276, 34.692023857129101 ] } },
{ "type": "Feature", "properties": { "P29_001": "28110", "P29_002": "H228310000155", "P29_003": "16015", "P29_004": "聖ミカエル国際学校", "P29_005": "兵庫県神戸市中央区中山手通3-17-2", "P29_006": "4", "P29_007": "0", "P29_008": "00", "P29_009": null }, "geometry": { "type": "Point", "coordinates": [ 135.1871556193, 34.695247524898534 ] } },
{ "type": "Feature", "properties": { "P29_001": "28110", "P29_002": "H228310000164", "P29_003": "16015", "P29_004": "学校法人神戸セミナー", "P29_005": "兵庫県神戸市中央区下山手通8-4-26", "P29_006": "4", "P29_007": "0", "P29_008": "00", "P29_009": null }, "geometry": { "type": "Point", "coordinates": [ 135.179037233101297, 34.685960570404916 ] } },
{ "type": "Feature", "properties": { "P29_001": "28106", "P29_002": "H228310000173", "P29_003": "16015", "P29_004": "兵庫韓国学園", "P29_005": "兵庫県神戸市長田区西尻池町2-4-30", "P29_006": "4", "P29_007": "0", "P29_008": "00", "P29_009": null }, "geometry": { "type": "Point", "coordinates": [ 135.150706199583112, 34.658592850357891 ] } },
{ "type": "Feature", "properties": { "P29_001": "28110", "P29_002": "H228310000182", "P29_003": "16015", "P29_004": "神戸湊川珠算専修学院", "P29_005": "兵庫県神戸市兵庫区荒太町4-43-4", "P29_006": "4", "P29_007": "0", "P29_008": "00", "P29_009": null }, "geometry": { "type": "Point", "coordinates": [ 135.20607285572305, 34.700992209879281 ] } },
{ "type": "Feature", "properties": { "P29_001": "28105", "P29_002": "H228310000191", "P29_003": "16015", "P29_004": "神戸親交珠算学院", "P29_005": "兵庫県神戸市兵庫区中道通7-4-17", "P29_006": "4", "P29_007": "0", "P29_008": "00", "P29_009": null }, "geometry": { "type": "Point", "coordinates": [ 135.160495713668524, 34.672869556447147 ] } },
{ "type": "Feature", "properties": { "P29_001": "28106", "P29_002": "H228310000208", "P29_003": "16015", "P29_004": "兵庫珠算学院", "P29_005": "兵庫県神戸市長田区久保町9-8-12", "P29_006": "4", "P29_007": "0", "P29_008": "00", "P29_009": null }, "geometry": { "type": "Point", "coordinates": [ 135.143551785440593, 34.651728032104614 ] } },
{ "type": "Feature", "properties": { "P29_001": "28107", "P29_002": "H228310000217", "P29_003": "16015", "P29_004": "本田珠算専修学院", "P29_005": "兵庫県神戸市須磨区平田町1-3-12", "P29_006": "4", "P29_007": "0", "P29_008": "00", "P29_009": null }, "geometry": { "type": "Point", "coordinates": [ 135.135109287323104, 34.661427510349299 ] } },
{ "type": "Feature", "properties": { "P29_001": "28106", "P29_002": "H228310000226", "P29_003": "16015", "P29_004": "西神戸朝鮮初級学校", "P29_005": "兵庫県神戸市長田区浜添通1-2-6", "P29_006": "4", "P29_007": "0", "P29_008": "00", "P29_009": null }, "geometry": { "type": "Point", "coordinates": [ 135.155147558825377, 34.658172001368968 ] } },
{ "type": "Feature", "properties": { "P29_001": "28106", "P29_002": "H228310000235", "P29_003": "16015", "P29_004": "神戸韓国学園", "P29_005": "兵庫県神戸市長田区神楽町4-2-13", "P29_006": "4", "P29_007": "0", "P29_008": "00", "P29_009": null }, "geometry": { "type": "Point", "coordinates": [ 135.147396811949193, 34.659332875598253 ] } },
{ "type": "Feature", "properties": { "P29_001": "28107", "P29_002": "H228310000244", "P29_003": "16015", "P29_004": "神戸常盤珠算学院", "P29_005": "兵庫県神戸市須磨区常盤町4-1-1", "P29_006": "4", "P29_007": "0", "P29_008": "00", "P29_009": null }, "geometry": { "type": "Point", "coordinates": [ 135.138296883592176, 34.654269929554054 ] } },
{ "type": "Feature", "properties": { "P29_001": "28107", "P29_002": "H228310000253", "P29_003": "16015", "P29_004": "西須磨珠算学院", "P29_005": "兵庫県神戸市須磨区千守町1-23", "P29_006": "4", "P29_007": "0", "P29_008": "00", "P29_009": null }, "geometry": { "type": "Point", "coordinates": [ 135.113488605043358, 34.647549984386437 ] } },
{ "type": "Feature", "properties": { "P29_001": "28107", "P29_002": "H228310000262", "P29_003": "16015", "P29_004": "グレスホーム洋裁学院", "P29_005": "兵庫県神戸市須磨区大黒町2-1", "P29_006": "4", "P29_007": "0", "P29_008": "00", "P29_009": null }, "geometry": { "type": "Point", "coordinates": [ 135.135634344865849, 34.659761175171994 ] } },
{ "type": "Feature", "properties": { "P29_001": "28108", "P29_002": "H228310000280", "P29_003": "16015", "P29_004": "関西聖書神学校", "P29_005": "兵庫県神戸市垂水区塩屋町6-32-15", "P29_006": "4", "P29_007": "0", "P29_008": "00", "P29_009": null }, "geometry": { "type": "Point", "coordinates": [ 135.074777275911543, 34.635516469249801 ] } },
{ "type": "Feature", "properties": { "P29_001": "28108", "P29_002": "H228310000299", "P29_003": "16015", "P29_004": "神戸朝鮮高級学校", "P29_005": "兵庫県神戸市垂水区上高丸1-5-1", "P29_006": "4", "P29_007": "0", "P29_008": "00", "P29_009": null }, "geometry": { "type": "Point", "coordinates": [ 135.053544790888708, 34.642476468582409 ] } },
{ "type": "Feature", "properties": { "P29_001": "28108", "P29_002": "H228310000306", "P29_003": "16015", "P29_004": "予備校創学ゼミナール", "P29_005": "兵庫県神戸市垂水区神田町3-17", "P29_006": "4", "P29_007": "0", "P29_008": "00", "P29_009": null }, "geometry": { "type": "Point", "coordinates": [ 135.054778587172336, 34.630067494319462 ] } },
{ "type": "Feature", "properties": { "P29_001": "28201", "P29_002": "H228310000315", "P29_003": "16015", "P29_004": "編物友の会女学院", "P29_005": "兵庫県姫路市香寺町溝口", "P29_006": "4", "P29_007": "0", "P29_008": "00", "P29_009": null }, "geometry": { "type": "Point", "coordinates": [ 134.744038429837161, 34.928726354625212 ] } },
{ "type": "Feature", "properties": { "P29_001": "28201", "P29_002": "H228310000324", "P29_003": "16015", "P29_004": "兵庫県自動車学校姫路校", "P29_005": "兵庫県姫路市花田町一本松25", "P29_006": "4", "P29_007": "0", "P29_008": "00", "P29_009": null }, "geometry": { "type": "Point", "coordinates": [ 134.72685185706635, 34.823896218398254 ] } },
{ "type": "Feature", "properties": { "P29_001": "28201", "P29_002": "H228310000342", "P29_003": "16015", "P29_004": "姫路予備校", "P29_005": "兵庫県姫路市東延末1-108", "P29_006": "4", "P29_007": "0", "P29_008": "00", "P29_009": null }, "geometry": { "type": "Point", "coordinates": [ 134.685076473710495, 34.824349712523585 ] } },
{ "type": "Feature", "properties": { "P29_001": "28202", "P29_002": "H228310000351", "P29_003": "16015", "P29_004": "島之内洋裁学院", "P29_005": "兵庫県尼崎市南塚口町3-1-4", "P29_006": "4", "P29_007": "0", "P29_008": "00", "P29_009": null }, "geometry": { "type": "Point", "coordinates": [ 135.419177720359755, 34.752797095511454 ] } },
{ "type": "Feature", "properties": { "P29_001": "28202", "P29_002": "H228310000360", "P29_003": "16015", "P29_004": "尼崎珠算専攻学院", "P29_005": "兵庫県尼崎市杭瀬北新町3-2-54", "P29_006": "4", "P29_007": "0", "P29_008": "00", "P29_009": null }, "geometry": { "type": "Point", "coordinates": [ 135.436227662192834, 34.720627037777547 ] } },
{ "type": "Feature", "properties": { "P29_001": "28202", "P29_002": "H228310000379", "P29_003": "16015", "P29_004": "難波珠算学院", "P29_005": "兵庫県尼崎市東難波町3-2-9", "P29_006": "4", "P29_007": "0", "P29_008": "00", "P29_009": null }, "geometry": { "type": "Point", "coordinates": [ 135.409892131016477, 34.72863603061959 ] } },
{ "type": "Feature", "properties": { "P29_001": "28202", "P29_002": "H228310000388", "P29_003": "16015", "P29_004": "琴城珠算学院", "P29_005": "兵庫県尼崎市築地本町3-67", "P29_006": "4", "P29_007": "0", "P29_008": "00", "P29_009": null }, "geometry": { "type": "Point", "coordinates": [ 135.419543446373268, 34.712322231253751 ] } },
{ "type": "Feature", "properties": { "P29_001": "28202", "P29_002": "H228310000397", "P29_003": "16015", "P29_004": "立石珠算学校", "P29_005": "兵庫県尼崎市神田中通7-246", "P29_006": "4", "P29_007": "0", "P29_008": "00", "P29_009": null }, "geometry": { "type": "Point", "coordinates": [ 135.406815117225904, 34.721833543494022 ] } },
{ "type": "Feature", "properties": { "P29_001": "28202", "P29_002": "H228310000404", "P29_003": "16015", "P29_004": "伊東衣服研究所", "P29_005": "兵庫県尼崎市東園田町9-33-6", "P29_006": "4", "P29_007": "0", "P29_008": "00", "P29_009": null }, "geometry": { "type": "Point", "coordinates": [ 135.444786788300547, 34.752404694143806 ] } },
{ "type": "Feature", "properties": { "P29_001": "28202", "P29_002": "H228310000431", "P29_003": "16015", "P29_004": "尼崎朝鮮初中級学校", "P29_005": "兵庫県尼崎市西立花町4-5-17", "P29_006": "4", "P29_007": "0", "P29_008": "00", "P29_009": null }, "geometry": { "type": "Point", "coordinates": [ 135.391710677813023, 34.736116031629237 ] } },
{ "type": "Feature", "properties": { "P29_001": "28202", "P29_002": "H228310000440", "P29_003": "16015", "P29_004": "尼崎韓国学園", "P29_005": "兵庫県尼崎市東七松町1-14-10", "P29_006": "4", "P29_007": "0", "P29_008": "00", "P29_009": null }, "geometry": { "type": "Point", "coordinates": [ 135.406315170259631, 34.734600857404828 ] } },
{ "type": "Feature", "properties": { "P29_001": "28202", "P29_002": "H228310000459", "P29_003": "16015", "P29_004": "尼崎文化服装学院", "P29_005": "兵庫県尼崎市御園町35", "P29_006": "4", "P29_007": "0", "P29_008": "00", "P29_009": null }, "geometry": { "type": "Point", "coordinates": [ 135.414926922331546, 34.718271745861472 ] } },
{ "type": "Feature", "properties": { "P29_001": "28203", "P29_002": "H228310000468", "P29_003": "16015", "P29_004": "兵庫県自動車学校明石校", "P29_005": "兵庫県明石市荷山町1649-4", "P29_006": "4", "P29_007": "0", "P29_008": "00", "P29_009": null }, "geometry": { "type": "Point", "coordinates": [ 135.013457072914861, 34.660418567203131 ] } },
{ "type": "Feature", "properties": { "P29_001": "28203", "P29_002": "H228310000477", "P29_003": "16015", "P29_004": "西藤珠算学院二見教場", "P29_005": "兵庫県明石市二見町東二見416", "P29_006": "4", "P29_007": "0", "P29_008": "00", "P29_009": null }, "geometry": { "type": "Point", "coordinates": [ 134.888939665890547, 34.698491182505116 ] } },
{ "type": "Feature", "properties": { "P29_001": "28204", "P29_002": "H228310000486", "P29_003": "16015", "P29_004": "甲子園ドレスメーカー女学院", "P29_005": "兵庫県西宮市北名次町2-35", "P29_006": "4", "P29_007": "0", "P29_008": "00", "P29_009": null }, "geometry": { "type": "Point", "coordinates": [ 135.330585484032497, 34.750516875600169 ] } },
{ "type": "Feature", "properties": { "P29_001": "28204", "P29_002": "H228310000495", "P29_003": "16015", "P29_004": "西宮蛍光珠算学院", "P29_005": "兵庫県西宮市中殿町3-18", "P29_006": "4", "P29_007": "0", "P29_008": "00", "P29_009": null }, "geometry": { "type": "Point", "coordinates": [ 135.349007610126165, 34.742542933159356 ] } },
{ "type": "Feature", "properties": { "P29_001": "28204", "P29_002": "H228310000501", "P29_003": "16015", "P29_004": "兵庫県自動車学校西宮本校", "P29_005": "兵庫県西宮市深津町4-30", "P29_006": "4", "P29_007": "0", "P29_008": "00", "P29_009": null }, "geometry": { "type": "Point", "coordinates": [ 135.358060962444057, 34.742221712316272 ] } },
{ "type": "Feature", "properties": { "P29_001": "28204", "P29_002": "H228310000510", "P29_003": "16015", "P29_004": "江川バレエスクール", "P29_005": "兵庫県西宮市仁川町3-13-16", "P29_006": "4", "P29_007": "0", "P29_008": "00", "P29_009": null }, "geometry": { "type": "Point", "coordinates": [ 135.357599551900989, 34.773293613103576 ] } },
{ "type": "Feature", "properties": { "P29_001": "28204", "P29_002": "H228310000529", "P29_003": "16015", "P29_004": "立聖館学院", "P29_005": "兵庫県西宮市北口町4-25", "P29_006": "4", "P29_007": "0", "P29_008": "00", "P29_009": null }, "geometry": { "type": "Point", "coordinates": [ 135.358548765917163, 34.748466231575286 ] } },
{ "type": "Feature", "properties": { "P29_001": "28204", "P29_002": "H228310000538", "P29_003": "16015", "P29_004": "甲陽ドレスメーカー女学院", "P29_005": "兵庫県西宮市馬場町3-11", "P29_006": "4", "P29_007": "0", "P29_008": "00", "P29_009": null }, "geometry": { "type": "Point", "coordinates": [ 135.337485302608542, 34.734794952621094 ] } },
{ "type": "Feature", "properties": { "P29_001": "28204", "P29_002": "H228310000547", "P29_003": "16015", "P29_004": "山口学園芦屋デザイナースクール", "P29_005": "兵庫県西宮市苦楽園四番町15-9", "P29_006": "4", "P29_007": "0", "P29_008": "00", "P29_009": null }, "geometry": { "type": "Point", "coordinates": [ 135.307446204967476, 34.759862675209362 ] } },
{ "type": "Feature", "properties": { "P29_001": "28206", "P29_002": "H228310000556", "P29_003": "16015", "P29_004": "芦屋インターナショナルスクール", "P29_005": "兵庫県芦屋市陽光町4-1", "P29_006": "4", "P29_007": "0", "P29_008": "00", "P29_009": null }, "geometry": { "type": "Point", "coordinates": [ 135.317361305984406, 34.714062305824896 ] } },
{ "type": "Feature", "properties": { "P29_001": "28207", "P29_002": "H228310000565", "P29_003": "16015", "P29_004": "伊丹朝鮮初級学校", "P29_005": "兵庫県伊丹市桑津1-4-7", "P29_006": "4", "P29_007": "0", "P29_008": "00", "P29_009": null }, "geometry": { "type": "Point", "coordinates": [ 135.427836175279737, 34.78419373464947 ] } },
{ "type": "Feature", "properties": { "P29_001": "28207", "P29_002": "H228310000574", "P29_003": "16015", "P29_004": "浜ゼミナール", "P29_005": "兵庫県伊丹市西台2-7-1", "P29_006": "4", "P29_007": "0", "P29_008": "00", "P29_009": null }, "geometry": { "type": "Point", "coordinates": [ 135.410685974048761, 34.780660609279003 ] } },
{ "type": "Feature", "properties": { "P29_001": "28209", "P29_002": "H228310000592", "P29_003": "16015", "P29_004": "書窓学院", "P29_005": "兵庫県豊岡市立野町9-5", "P29_006": "4", "P29_007": "0", "P29_008": "00", "P29_009": null }, "geometry": { "type": "Point", "coordinates": [ 134.825997579555491, 35.542389533530461 ] } },
{ "type": "Feature", "properties": { "P29_001": "28212", "P29_002": "H228310000645", "P29_003": "16015", "P29_004": "鍋谷鈴子デザインルーム", "P29_005": "兵庫県赤穂市加里屋1878", "P29_006": "4", "P29_007": "0", "P29_008": "00", "P29_009": null }, "geometry": { "type": "Point", "coordinates": [ 134.389339673519856, 34.753725502541016 ] } },
{ "type": "Feature", "properties": { "P29_001": "28213", "P29_002": "H228310000654", "P29_003": "16015", "P29_004": "西脇珠算簿記学院", "P29_005": "兵庫県西脇市西脇61-6", "P29_006": "4", "P29_007": "0", "P29_008": "00", "P29_009": null }, "geometry": { "type": "Point", "coordinates": [ 134.974352983365378, 34.983100520721145 ] } },
{ "type": "Feature", "properties": { "P29_001": "28215", "P29_002": "H228310000681", "P29_003": "16015", "P29_004": "三木文化服装学園", "P29_005": "兵庫県三木市上の丸町9-4", "P29_006": "4", "P29_007": "0", "P29_008": "00", "P29_009": null }, "geometry": { "type": "Point", "coordinates": [ 134.987069120810133, 34.796867657172058 ] } },
{ "type": "Feature", "properties": { "P29_001": "28218", "P29_002": "H228310000690", "P29_003": "16015", "P29_004": "すずらん洋裁学院", "P29_005": "兵庫県小野市本町587-1", "P29_006": "4", "P29_007": "0", "P29_008": "00", "P29_009": null }, "geometry": { "type": "Point", "coordinates": [ 134.938917984309398, 34.848326269212656 ] } },
{ "type": "Feature", "properties": { "P29_001": "28215", "P29_002": "H228310000707", "P29_003": "16015", "P29_004": "山城技芸学院", "P29_005": "兵庫県三木市吉川町長谷212", "P29_006": "4", "P29_007": "0", "P29_008": "00", "P29_009": null }, "geometry": { "type": "Point", "coordinates": [ 135.088996148102524, 34.878112711765567 ] } },
{ "type": "Feature", "properties": { "P29_001": "28381", "P29_002": "H228310000716", "P29_003": "16015", "P29_004": "稲美服装女学院", "P29_005": "兵庫県加古郡稲美町国安1292-30", "P29_006": "4", "P29_007": "0", "P29_008": "00", "P29_009": null }, "geometry": { "type": "Point", "coordinates": [ 134.921283999782247, 34.747492188005644 ] } },
{ "type": "Feature", "properties": { "P29_001": "28227", "P29_002": "H228310000725", "P29_003": "16015", "P29_004": "山崎ドレス女学院", "P29_005": "兵庫県宍粟市山崎町山田113", "P29_006": "4", "P29_007": "0", "P29_008": "00", "P29_009": null }, "geometry": { "type": "Point", "coordinates": [ 134.547804556225969, 35.002300366230983 ] } }
]
}
