{
"type": "FeatureCollection",
"name": "geo_28_特別支援学校",
"crs": { "type": "name", "properties": { "name": "urn:ogc:def:crs:EPSG::6668" } },
"features": [
{ "type": "Feature", "properties": { "P29_001": "28108", "P29_002": "E128210000010", "P29_003": "16012", "P29_004": "兵庫県立視覚特別支援学校", "P29_005": "兵庫県神戸市垂水区城が山4-2-1", "P29_006": "2", "P29_007": "0", "P29_008": "00", "P29_009": null }, "geometry": { "type": "Point", "coordinates": [ 135.06926577056808, 34.633308153635312 ] } },
{ "type": "Feature", "properties": { "P29_001": "28110", "P29_002": "E128210000029", "P29_003": "16012", "P29_004": "神戸市立盲学校", "P29_005": "兵庫県神戸市中央区東川崎町1-4-2", "P29_006": "3", "P29_007": "0", "P29_008": "00", "P29_009": null }, "geometry": { "type": "Point", "coordinates": [ 135.17999752760781, 34.676930493964583 ] } },
{ "type": "Feature", "properties": { "P29_001": "28108", "P29_002": "E128210000038", "P29_003": "16012", "P29_004": "兵庫県立神戸聴覚特別支援学校", "P29_005": "兵庫県神戸市垂水区福田1-3-1", "P29_006": "2", "P29_007": "0", "P29_008": "00", "P29_009": null }, "geometry": { "type": "Point", "coordinates": [ 135.06342132639378, 34.640556227621957 ] } },
{ "type": "Feature", "properties": { "P29_001": "28209", "P29_002": "E128210000056", "P29_003": "16012", "P29_004": "兵庫県立豊岡聴覚特別支援学校", "P29_005": "兵庫県豊岡市三坂町2-9", "P29_006": "2", "P29_007": "0", "P29_008": "00", "P29_009": null }, "geometry": { "type": "Point", "coordinates": [ 134.820479399947175, 35.53765655482718 ] } },
{ "type": "Feature", "properties": { "P29_001": "28205", "P29_002": "E128210000065", "P29_003": "16012", "P29_004": "兵庫県立あわじ特別支援学校", "P29_005": "兵庫県洲本市上物部2-1-17", "P29_006": "2", "P29_007": "0", "P29_008": "00", "P29_009": null }, "geometry": { "type": "Point", "coordinates": [ 134.88767839744628, 34.332651007341724 ] } },
{ "type": "Feature", "properties": { "P29_001": "28204", "P29_002": "E128210000074", "P29_003": "16012", "P29_004": "兵庫県立こばと聴覚特別支援学校", "P29_005": "兵庫県西宮市田近野町8-8", "P29_006": "2", "P29_007": "0", "P29_008": "00", "P29_009": null }, "geometry": { "type": "Point", "coordinates": [ 135.371586121663313, 34.779261357453443 ] } },
{ "type": "Feature", "properties": { "P29_001": "28382", "P29_002": "E128210000083", "P29_003": "16012", "P29_004": "兵庫県立東はりま特別支援学校", "P29_005": "兵庫県加古郡播磨町北古田1-17-17", "P29_006": "2", "P29_007": "0", "P29_008": "00", "P29_009": null }, "geometry": { "type": "Point", "coordinates": [ 134.869046392062756, 34.725539276233071 ] } },
{ "type": "Feature", "properties": { "P29_001": "28206", "P29_002": "E128210000092", "P29_003": "16012", "P29_004": "兵庫県立芦屋特別支援学校", "P29_005": "兵庫県芦屋市陽光町8-37", "P29_006": "2", "P29_007": "0", "P29_008": "00", "P29_009": null }, "geometry": { "type": "Point", "coordinates": [ 135.319346545049029, 34.714650798724882 ] } },
{ "type": "Feature", "properties": { "P29_001": "28207", "P29_002": "E128210000109", "P29_003": "16012", "P29_004": "兵庫県立阪神昆陽特別支援学校", "P29_005": "兵庫県伊丹市池尻7-108", "P29_006": "2", "P29_007": "0", "P29_008": "00", "P29_009": null }, "geometry": { "type": "Point", "coordinates": [ 135.377617281166494, 34.780257826175458 ] } },
{ "type": "Feature", "properties": { "P29_001": "28585", "P29_002": "E128210000127", "P29_003": "16012", "P29_004": "兵庫県立出石特別支援学校みかた校", "P29_005": "兵庫県美方郡香美町村岡区川会33", "P29_006": "2", "P29_007": "0", "P29_008": "00", "P29_009": null }, "geometry": { "type": "Point", "coordinates": [ 134.571409047846686, 35.497558783110371 ] } },
{ "type": "Feature", "properties": { "P29_001": "28219", "P29_002": "E128210000145", "P29_003": "16012", "P29_004": "兵庫県立上野ケ原特別支援学校", "P29_005": "兵庫県三田市大原梅の木1546-6", "P29_006": "2", "P29_007": "0", "P29_008": "00", "P29_009": null }, "geometry": { "type": "Point", "coordinates": [ 135.231327250109302, 34.910211751334053 ] } },
{ "type": "Feature", "properties": { "P29_001": "28215", "P29_002": "E128210000154", "P29_003": "16012", "P29_004": "兵庫県立のじぎく特別支援学校", "P29_005": "兵庫県神戸市西区北山台2-566-134", "P29_006": "2", "P29_007": "0", "P29_008": "00", "P29_009": null }, "geometry": { "type": "Point", "coordinates": [ 135.033090792296917, 34.766106526075504 ] } },
{ "type": "Feature", "properties": { "P29_001": "28201", "P29_002": "E128210000172", "P29_003": "16012", "P29_004": "兵庫県立姫路特別支援学校", "P29_005": "兵庫県姫路市四郷町東阿保字下戸明476", "P29_006": "2", "P29_007": "0", "P29_008": "00", "P29_009": null }, "geometry": { "type": "Point", "coordinates": [ 134.715271116421434, 34.813390766035965 ] } },
{ "type": "Feature", "properties": { "P29_001": "28109", "P29_002": "E128210000181", "P29_003": "16012", "P29_004": "兵庫県立神戸特別支援学校", "P29_005": "兵庫県神戸市北区大脇台10-1", "P29_006": "2", "P29_007": "0", "P29_008": "00", "P29_009": null }, "geometry": { "type": "Point", "coordinates": [ 135.163847125090285, 34.739078872149769 ] } },
{ "type": "Feature", "properties": { "P29_001": "28207", "P29_002": "E128210000190", "P29_003": "16012", "P29_004": "兵庫県立こやの里特別支援学校", "P29_005": "兵庫県伊丹市瑞ヶ丘2-3-2", "P29_006": "2", "P29_007": "0", "P29_008": "00", "P29_009": null }, "geometry": { "type": "Point", "coordinates": [ 135.399293535605352, 34.789330688463998 ] } },
{ "type": "Feature", "properties": { "P29_001": "28381", "P29_002": "E128210000207", "P29_003": "16012", "P29_004": "兵庫県立いなみ野特別支援学校", "P29_005": "兵庫県加古郡稲美町国安1284-1", "P29_006": "2", "P29_007": "0", "P29_008": "00", "P29_009": null }, "geometry": { "type": "Point", "coordinates": [ 134.919162387978389, 34.748194354904953 ] } },
{ "type": "Feature", "properties": { "P29_001": "28219", "P29_002": "E128210000216", "P29_003": "16012", "P29_004": "兵庫県立高等特別支援学校", "P29_005": "兵庫県三田市大原梅の木1546-6", "P29_006": "2", "P29_007": "0", "P29_008": "00", "P29_009": null }, "geometry": { "type": "Point", "coordinates": [ 135.231352032194764, 34.910822324448219 ] } },
{ "type": "Feature", "properties": { "P29_001": "28229", "P29_002": "E128210000225", "P29_003": "16012", "P29_004": "兵庫県立西はりま特別支援学校", "P29_005": "兵庫県たつの市新宮町光都1-3-1", "P29_006": "2", "P29_007": "0", "P29_008": "00", "P29_009": null }, "geometry": { "type": "Point", "coordinates": [ 134.439181500843603, 34.95259997873422 ] } },
{ "type": "Feature", "properties": { "P29_001": "28105", "P29_002": "E128210000234", "P29_003": "16012", "P29_004": "神戸市立友生支援学校", "P29_005": "兵庫県神戸市兵庫区夢野町1-1", "P29_006": "3", "P29_007": "0", "P29_008": "00", "P29_009": null }, "geometry": { "type": "Point", "coordinates": [ 135.160545076966343, 34.686329658429074 ] } },
{ "type": "Feature", "properties": { "P29_001": "28111", "P29_002": "E128210000270", "P29_003": "16012", "P29_004": "神戸市立いぶき明生支援学校", "P29_005": "兵庫県神戸市西区井吹台西町7-1", "P29_006": "3", "P29_007": "0", "P29_008": "00", "P29_009": null }, "geometry": { "type": "Point", "coordinates": [ 135.01206405066867, 34.695867671353163 ] } },
{ "type": "Feature", "properties": { "P29_001": "28202", "P29_002": "E128210000298", "P29_003": "16012", "P29_004": "尼崎市立あまよう特別支援学校", "P29_005": "兵庫県尼崎市東難波2-14-40", "P29_006": "3", "P29_007": "0", "P29_008": "00", "P29_009": null }, "geometry": { "type": "Point", "coordinates": [ 135.410743786293807, 34.730974812275171 ] } },
{ "type": "Feature", "properties": { "P29_001": "28204", "P29_002": "E128210000305", "P29_003": "16012", "P29_004": "西宮市立西宮支援学校", "P29_005": "兵庫県西宮市甲子園春風町2-29", "P29_006": "3", "P29_007": "0", "P29_008": "00", "P29_009": null }, "geometry": { "type": "Point", "coordinates": [ 135.360687284789662, 34.730654663920099 ] } },
{ "type": "Feature", "properties": { "P29_001": "28210", "P29_002": "E128210000314", "P29_003": "16012", "P29_004": "加古川市立加古川養護学校", "P29_005": "兵庫県加古川市上荘町見土呂34-1", "P29_006": "3", "P29_007": "0", "P29_008": "00", "P29_009": null }, "geometry": { "type": "Point", "coordinates": [ 134.904719151583066, 34.801228089887495 ] } },
{ "type": "Feature", "properties": { "P29_001": "28219", "P29_002": "E128210000323", "P29_003": "16012", "P29_004": "三田市立ひまわり特別支援学校", "P29_005": "兵庫県三田市富士が丘3-25", "P29_006": "3", "P29_007": "0", "P29_008": "00", "P29_009": null }, "geometry": { "type": "Point", "coordinates": [ 135.18872588808145, 34.888872284095832 ] } },
{ "type": "Feature", "properties": { "P29_001": "28203", "P29_002": "E128210000332", "P29_003": "16012", "P29_004": "明石市立明石養護学校", "P29_005": "兵庫県明石市大久保町大窪2752-1", "P29_006": "3", "P29_007": "0", "P29_008": "00", "P29_009": null }, "geometry": { "type": "Point", "coordinates": [ 134.955668138911705, 34.706264982466742 ] } },
{ "type": "Feature", "properties": { "P29_001": "28207", "P29_002": "E128210000341", "P29_003": "16012", "P29_004": "伊丹市立伊丹特別支援学校", "P29_005": "兵庫県伊丹市鴻池1-8-6", "P29_006": "3", "P29_007": "0", "P29_008": "00", "P29_009": null }, "geometry": { "type": "Point", "coordinates": [ 135.390583347970818, 34.798320690297409 ] } },
{ "type": "Feature", "properties": { "P29_001": "28204", "P29_002": "E128210000350", "P29_003": "16012", "P29_004": "兵庫県立阪神特別支援学校", "P29_005": "兵庫県西宮市田近野町11-7", "P29_006": "2", "P29_007": "0", "P29_008": "00", "P29_009": null }, "geometry": { "type": "Point", "coordinates": [ 135.370762342732576, 34.782438498413072 ] } },
{ "type": "Feature", "properties": { "P29_001": "28214", "P29_002": "E128210000369", "P29_003": "16012", "P29_004": "宝塚市立養護学校", "P29_005": "兵庫県宝塚市安倉中6-1-3", "P29_006": "3", "P29_007": "0", "P29_008": "00", "P29_009": null }, "geometry": { "type": "Point", "coordinates": [ 135.377837049140368, 34.801368029620086 ] } },
{ "type": "Feature", "properties": { "P29_001": "28221", "P29_002": "E128210000396", "P29_003": "16012", "P29_004": "丹波篠山市立篠山養護学校", "P29_005": "兵庫県丹波篠山市沢田120-1", "P29_006": "3", "P29_007": "0", "P29_008": "00", "P29_009": null }, "geometry": { "type": "Point", "coordinates": [ 135.226695055537135, 35.075386899794182 ] } },
{ "type": "Feature", "properties": { "P29_001": "28223", "P29_002": "E128210000449", "P29_003": "16012", "P29_004": "兵庫県立氷上特別支援学校", "P29_005": "兵庫県丹波市春日町棚原3098-1", "P29_006": "2", "P29_007": "0", "P29_008": "00", "P29_009": null }, "geometry": { "type": "Point", "coordinates": [ 135.112990360679277, 35.1536395855263 ] } },
{ "type": "Feature", "properties": { "P29_001": "28102", "P29_002": "E128210000476", "P29_003": "16012", "P29_004": "神戸市立灘さくら支援学校", "P29_005": "兵庫県神戸市灘区摩耶海岸通2-2-2", "P29_006": "3", "P29_007": "0", "P29_008": "00", "P29_009": null }, "geometry": { "type": "Point", "coordinates": [ 135.222936822690968, 34.702177227363158 ] } },
{ "type": "Feature", "properties": { "P29_001": "28102", "P29_002": "E128210000485", "P29_003": "16012", "P29_004": "神戸市立青陽灘高等支援学校", "P29_005": "兵庫県神戸市灘区岩屋北町6-1-1", "P29_006": "3", "P29_007": "0", "P29_008": "00", "P29_009": null }, "geometry": { "type": "Point", "coordinates": [ 135.217452882109029, 34.705864229771912 ] } },
{ "type": "Feature", "properties": { "P29_001": "28203", "P29_002": "E128110000012", "P29_003": "16012", "P29_004": "神戸大学附属特別支援学校", "P29_005": "兵庫県明石市大久保町大窪2752-4", "P29_006": "1", "P29_007": "0", "P29_008": "00", "P29_009": null }, "geometry": { "type": "Point", "coordinates": [ 134.955691671477723, 34.705954922251777 ] } },
{ "type": "Feature", "properties": { "P29_001": "28201", "P29_002": "E128210000047", "P29_003": "16012", "P29_004": "兵庫県立姫路聴覚特別支援学校", "P29_005": "兵庫県姫路市本町68", "P29_006": "2", "P29_007": "0", "P29_008": "00", "P29_009": null }, "geometry": { "type": "Point", "coordinates": [ 134.687956030278173, 34.83665146785215 ] } },
{ "type": "Feature", "properties": { "P29_001": "28201", "P29_002": "E128210000118", "P29_003": "16012", "P29_004": "兵庫県立姫路しらさぎ特別支援学校", "P29_005": "兵庫県姫路市苫編688-2", "P29_006": "2", "P29_007": "0", "P29_008": "00", "P29_009": null }, "geometry": { "type": "Point", "coordinates": [ 134.654536639326892, 34.822649888610925 ] } },
{ "type": "Feature", "properties": { "P29_001": "28111", "P29_002": "E128210000136", "P29_003": "16012", "P29_004": "兵庫県立西神戸高等特別支援学校", "P29_005": "兵庫県神戸市西区押部谷町高和1557-1", "P29_006": "2", "P29_007": "0", "P29_008": "00", "P29_009": null }, "geometry": { "type": "Point", "coordinates": [ 135.04140469336707, 34.734110117688694 ] } },
{ "type": "Feature", "properties": { "P29_001": "28229", "P29_002": "E128210000163", "P29_003": "16012", "P29_004": "兵庫県立播磨特別支援学校", "P29_005": "兵庫県たつの市揖西町中垣内乙135-乙", "P29_006": "2", "P29_007": "0", "P29_008": "00", "P29_009": null }, "geometry": { "type": "Point", "coordinates": [ 134.513861681199927, 34.867707253161576 ] } },
{ "type": "Feature", "properties": { "P29_001": "28107", "P29_002": "E128210000252", "P29_003": "16012", "P29_004": "神戸市立青陽須磨支援学校", "P29_005": "兵庫県神戸市須磨区西落合1-1-4", "P29_006": "3", "P29_007": "0", "P29_008": "00", "P29_009": null }, "geometry": { "type": "Point", "coordinates": [ 135.088196902067182, 34.678910995102299 ] } },
{ "type": "Feature", "properties": { "P29_001": "28201", "P29_002": "E128210000289", "P29_003": "16012", "P29_004": "姫路市立書写養護学校", "P29_005": "兵庫県姫路市書写台3-148-1", "P29_006": "3", "P29_007": "0", "P29_008": "00", "P29_009": null }, "geometry": { "type": "Point", "coordinates": [ 134.646965536508446, 34.866728267587568 ] } },
{ "type": "Feature", "properties": { "P29_001": "28209", "P29_002": "E128210000378", "P29_003": "16012", "P29_004": "兵庫県立出石特別支援学校", "P29_005": "兵庫県豊岡市出石町宮内2-8", "P29_006": "2", "P29_007": "0", "P29_008": "00", "P29_009": null }, "geometry": { "type": "Point", "coordinates": [ 134.86880545374882, 35.477616537303362 ] } },
{ "type": "Feature", "properties": { "P29_001": "28215", "P29_002": "E128210000387", "P29_003": "16012", "P29_004": "三木市立三木特別支援学校", "P29_005": "兵庫県三木市志染町青山7-1-8", "P29_006": "3", "P29_007": "0", "P29_008": "00", "P29_009": null }, "geometry": { "type": "Point", "coordinates": [ 135.031448524307024, 34.777689747111509 ] } },
{ "type": "Feature", "properties": { "P29_001": "28218", "P29_002": "E128210000403", "P29_003": "16012", "P29_004": "小野市立小野特別支援学校", "P29_005": "兵庫県小野市昭和町458-1", "P29_006": "3", "P29_007": "0", "P29_008": "00", "P29_009": null }, "geometry": { "type": "Point", "coordinates": [ 134.904577924559334, 34.876869145641628 ] } },
{ "type": "Feature", "properties": { "P29_001": "28212", "P29_002": "E128210000412", "P29_003": "16012", "P29_004": "兵庫県立赤穂特別支援学校", "P29_005": "兵庫県赤穂市大津1305", "P29_006": "2", "P29_007": "0", "P29_008": "00", "P29_009": null }, "geometry": { "type": "Point", "coordinates": [ 134.370942769090277, 34.778411897875735 ] } },
{ "type": "Feature", "properties": { "P29_001": "28220", "P29_002": "E128210000421", "P29_003": "16012", "P29_004": "加西市立加西特別支援学校", "P29_005": "兵庫県加西市西笠原町172-50", "P29_006": "3", "P29_007": "0", "P29_008": "00", "P29_009": null }, "geometry": { "type": "Point", "coordinates": [ 134.839687908709266, 34.877108829287508 ] } },
{ "type": "Feature", "properties": { "P29_001": "28217", "P29_002": "E128210000430", "P29_003": "16012", "P29_004": "川西市立川西養護学校", "P29_005": "兵庫県川西市清和台西2-3-81", "P29_006": "3", "P29_007": "0", "P29_008": "00", "P29_009": null }, "geometry": { "type": "Point", "coordinates": [ 135.381514489200697, 34.872201386544511 ] } },
{ "type": "Feature", "properties": { "P29_001": "28365", "P29_002": "E128210000458", "P29_003": "16012", "P29_004": "兵庫県立北はりま特別支援学校", "P29_005": "兵庫県多可郡多可町中区間子602-1", "P29_006": "2", "P29_007": "0", "P29_008": "00", "P29_009": null }, "geometry": { "type": "Point", "coordinates": [ 134.93195769291242, 35.058612539260935 ] } },
{ "type": "Feature", "properties": { "P29_001": "28225", "P29_002": "E128210000467", "P29_003": "16012", "P29_004": "兵庫県立和田山特別支援学校", "P29_005": "兵庫県朝来市和田山町竹田1987-1", "P29_006": "2", "P29_007": "0", "P29_008": "00", "P29_009": null }, "geometry": { "type": "Point", "coordinates": [ 134.840145613258784, 35.293925163864152 ] } },
{ "type": "Feature", "properties": { "P29_001": "28204", "P29_002": "E128210000494", "P29_003": "16012", "P29_004": "兵庫県立むこがわ特別支援学校", "P29_005": "兵庫県西宮市田近野町10-45", "P29_006": "2", "P29_007": "0", "P29_008": "00", "P29_009": null }, "geometry": { "type": "Point", "coordinates": [ 135.369998305977333, 34.7808194772349 ] } }
]
}
