{
"type": "FeatureCollection",
"name": "geo_28_特定施設入居者生活介護（有料老人ホーム（サービス付き高齢者向け住宅））",
"crs": { "type": "name", "properties": { "name": "urn:ogc:def:crs:OGC:1.3:CRS84" } },
"features": [
{ "type": "Feature", "properties": { "内容": "チャームスイート神戸垂水【特定施設入居者生活介護（有料老人ホーム（サービス付き高齢者向け住宅））】宮本町１番29号", "url": "https://www.kaigokensaku.mhlw.go.jp/28/index.php?action_kouhyou_detail_004_kani=true&JigyosyoCd=2870804818-00&ServiceCd=&Type=search", "url2": null }, "geometry": { "type": "Point", "coordinates": [ 139.704539899999986, 35.530957 ] } },
{ "type": "Feature", "properties": { "内容": "かとれあろいやるこうべ【特定施設入居者生活介護（有料老人ホーム（サービス付き高齢者向け住宅））】鈴蘭台西町3丁目12-48", "url": "https://www.kaigokensaku.mhlw.go.jp/28/index.php?action_kouhyou_detail_004_kani=true&JigyosyoCd=2875004372-00&ServiceCd=&Type=search", "url2": "https://imwg.or.jp/royal_kobe/" }, "geometry": { "type": "Point", "coordinates": [ 135.1384095, 34.7284813 ] } },
{ "type": "Feature", "properties": { "内容": "介護付有料老人ホーム　アーバンリビング今宿【特定施設入居者生活介護（有料老人ホーム（サービス付き高齢者向け住宅））】兵庫県姫路市西今宿２丁目２番３８号", "url": "https://www.kaigokensaku.mhlw.go.jp/28/index.php?action_kouhyou_detail_004_kani=true&JigyosyoCd=2874009000-00&ServiceCd=&Type=search", "url2": "http://www.lifeassist-corp.com" }, "geometry": { "type": "Point", "coordinates": [ 134.6587912, 34.8430779 ] } },
{ "type": "Feature", "properties": { "内容": "さわやかひめじ館【特定施設入居者生活介護（有料老人ホーム（サービス付き高齢者向け住宅））】兵庫県姫路市大津区勘兵衛町2丁目203-4", "url": "https://www.kaigokensaku.mhlw.go.jp/28/index.php?action_kouhyou_detail_004_kani=true&JigyosyoCd=2874009505-00&ServiceCd=&Type=search", "url2": null }, "geometry": { "type": "Point", "coordinates": [ 134.609042, 34.7897488 ] } },
{ "type": "Feature", "properties": { "内容": "カイゴツキユウリョウホウジンホームムコガワ【特定施設入居者生活介護（有料老人ホーム（サービス付き高齢者向け住宅））】兵庫県尼崎市武庫川町1丁目9番", "url": "https://www.kaigokensaku.mhlw.go.jp/28/index.php?action_kouhyou_detail_004_kani=true&JigyosyoCd=2873012393-00&ServiceCd=&Type=search", "url2": null }, "geometry": { "type": "Point", "coordinates": [ 135.3902926, 34.71573 ] } },
{ "type": "Feature", "properties": { "内容": "介護付有料老人ホームトワイエ久々知【特定施設入居者生活介護（有料老人ホーム（サービス付き高齢者向け住宅））】兵庫県尼崎市久々知3丁目2番1号", "url": "https://www.kaigokensaku.mhlw.go.jp/28/index.php?action_kouhyou_detail_004_kani=true&JigyosyoCd=2873012484-00&ServiceCd=&Type=search", "url2": "https://www.chuoukai.or.jp/towaie/" }, "geometry": { "type": "Point", "coordinates": [ 135.430424615344265, 34.742205224221848 ] } },
{ "type": "Feature", "properties": { "内容": "ソーシャルコート杭瀬【特定施設入居者生活介護（有料老人ホーム（サービス付き高齢者向け住宅））】兵庫県尼崎市杭瀬本町3丁目１－１１", "url": "https://www.kaigokensaku.mhlw.go.jp/28/index.php?action_kouhyou_detail_004_kani=true&JigyosyoCd=2873012518-00&ServiceCd=&Type=search", "url2": "www.social-l.com" }, "geometry": { "type": "Point", "coordinates": [ 135.437103656257506, 34.719001943909262 ] } },
{ "type": "Feature", "properties": { "内容": "介護付有料老人ホーム　プレザンメゾン塚口【特定施設入居者生活介護（有料老人ホーム（サービス付き高齢者向け住宅））】兵庫県尼崎市塚口本町1丁目30番1号", "url": "https://www.kaigokensaku.mhlw.go.jp/28/index.php?action_kouhyou_detail_004_kani=true&JigyosyoCd=2873011270-00&ServiceCd=&Type=search", "url2": "https://www.tanoshii-ie.jp/single089/" }, "geometry": { "type": "Point", "coordinates": [ 135.420779599279399, 34.753366331741141 ] } },
{ "type": "Feature", "properties": { "内容": "ふぁ～みんの里明石【特定施設入居者生活介護（有料老人ホーム（サービス付き高齢者向け住宅））】兵庫県明石市二見町東二見251-1", "url": "https://www.kaigokensaku.mhlw.go.jp/28/index.php?action_kouhyou_detail_004_kani=true&JigyosyoCd=2872005729-00&ServiceCd=&Type=search", "url2": "https://www.fukuinaho.jp/" }, "geometry": { "type": "Point", "coordinates": [ 134.889966, 34.6989615 ] } },
{ "type": "Feature", "properties": { "内容": "ハートライフ大久保南【特定施設入居者生活介護（有料老人ホーム（サービス付き高齢者向け住宅））】兵庫県明石市大久保町大久保町1315", "url": "https://www.kaigokensaku.mhlw.go.jp/28/index.php?action_kouhyou_detail_004_kani=true&JigyosyoCd=2872004482-00&ServiceCd=&Type=search", "url2": "https://www.heartcaregroup.co.jp" }, "geometry": { "type": "Point", "coordinates": [ 134.939666200000033, 34.676473329627221 ] } },
{ "type": "Feature", "properties": { "内容": "介護付有料老人ホームプレザンメゾン明石魚住【特定施設入居者生活介護（有料老人ホーム（サービス付き高齢者向け住宅））】兵庫県明石市魚住町西岡1312-1", "url": "https://www.kaigokensaku.mhlw.go.jp/28/index.php?action_kouhyou_detail_004_kani=true&JigyosyoCd=2872004870-00&ServiceCd=&Type=search", "url2": "https://www.tanoshii-ie.jp/single105/" }, "geometry": { "type": "Point", "coordinates": [ 134.8996414, 34.7004336 ] } },
{ "type": "Feature", "properties": { "内容": "チャーム明石大久保駅前【特定施設入居者生活介護（有料老人ホーム（サービス付き高齢者向け住宅））】大久保町ゆりのき通１丁目４番地の１", "url": "https://www.kaigokensaku.mhlw.go.jp/28/index.php?action_kouhyou_detail_004_kani=true&JigyosyoCd=2872005042-00&ServiceCd=&Type=search", "url2": "http:/www.charmcc.jp" }, "geometry": { "type": "Point", "coordinates": [ 134.937754899999987, 34.6823048 ] } },
{ "type": "Feature", "properties": { "内容": "チャーム西宮上ヶ原【特定施設入居者生活介護（有料老人ホーム（サービス付き高齢者向け住宅））】兵庫県西宮市上ヶ原九番町2番22号", "url": "https://www.kaigokensaku.mhlw.go.jp/28/index.php?action_kouhyou_detail_004_kani=true&JigyosyoCd=2870908288-00&ServiceCd=&Type=search", "url2": "https://www.charmcc.jp/home/charm_nishinomiyauegahara/" }, "geometry": { "type": "Point", "coordinates": [ 135.3422301, 34.7601857 ] } },
{ "type": "Feature", "properties": { "内容": "介護付有料老人ホーム　プレザングラン門戸厄神【特定施設入居者生活介護（有料老人ホーム（サービス付き高齢者向け住宅））】兵庫県西宮市樋ノ口町二丁目1番35号", "url": "https://www.kaigokensaku.mhlw.go.jp/28/index.php?action_kouhyou_detail_004_kani=true&JigyosyoCd=2870908825-00&ServiceCd=&Type=search", "url2": "https://www.tanoshii-ie.jp/single118/" }, "geometry": { "type": "Point", "coordinates": [ 135.3674586, 34.759897 ] } },
{ "type": "Feature", "properties": { "内容": "チャームスイート仁川【特定施設入居者生活介護（有料老人ホーム（サービス付き高齢者向け住宅））】兵庫県西宮市仁川町4丁目2番30号", "url": "https://www.kaigokensaku.mhlw.go.jp/28/index.php?action_kouhyou_detail_004_kani=true&JigyosyoCd=2870908924-00&ServiceCd=&Type=search", "url2": "http://www.charmcc.jp" }, "geometry": { "type": "Point", "coordinates": [ 135.3533645, 34.7709304 ] } },
{ "type": "Feature", "properties": { "内容": "チャーム西宮用海町【特定施設入居者生活介護（有料老人ホーム（サービス付き高齢者向け住宅））】兵庫県西宮市用海町２番３号", "url": "https://www.kaigokensaku.mhlw.go.jp/28/index.php?action_kouhyou_detail_004_kani=true&JigyosyoCd=2870906498-00&ServiceCd=&Type=search", "url2": "https://www.charmcc.jp/west_homes/charm_yougaichou/" }, "geometry": { "type": "Point", "coordinates": [ 135.345007, 34.7316152 ] } },
{ "type": "Feature", "properties": { "内容": "シニアスタイル西宮北口【特定施設入居者生活介護（有料老人ホーム（サービス付き高齢者向け住宅））】兵庫県西宮市大屋町14-15", "url": "https://www.kaigokensaku.mhlw.go.jp/28/index.php?action_kouhyou_detail_004_kani=true&JigyosyoCd=2870908536-00&ServiceCd=&Type=search", "url2": "https://senior-style.co.jp/nishikita/" }, "geometry": { "type": "Point", "coordinates": [ 135.364327800000012, 34.7441333 ] } },
{ "type": "Feature", "properties": { "内容": "ローズパーク北摂【特定施設入居者生活介護（有料老人ホーム（サービス付き高齢者向け住宅））】兵庫県伊丹市荒牧4-4-21", "url": "https://www.kaigokensaku.mhlw.go.jp/28/index.php?action_kouhyou_detail_004_kani=true&JigyosyoCd=2873302687-00&ServiceCd=&Type=search", "url2": "http://www.hokusetu-fukusi.co.jp" }, "geometry": { "type": "Point", "coordinates": [ 135.381820363723847, 34.812132290495384 ] } },
{ "type": "Feature", "properties": { "内容": "天馬の郷【特定施設入居者生活介護（有料老人ホーム（サービス付き高齢者向け住宅））】兵庫県相生市旭1丁目11番11号", "url": "https://www.kaigokensaku.mhlw.go.jp/28/index.php?action_kouhyou_detail_004_kani=true&JigyosyoCd=2874200476-00&ServiceCd=&Type=search", "url2": "http://www.harimaseibu.com/" }, "geometry": { "type": "Point", "coordinates": [ 134.4679526, 34.8015341 ] } },
{ "type": "Feature", "properties": { "内容": "ポポロの杜豊岡【特定施設入居者生活介護（有料老人ホーム（サービス付き高齢者向け住宅））】兵庫県豊岡市引野485－1", "url": "https://www.kaigokensaku.mhlw.go.jp/28/index.php?action_kouhyou_detail_004_kani=true&JigyosyoCd=2874401470-00&ServiceCd=&Type=search", "url2": "popolo@shohousen.jp" }, "geometry": { "type": "Point", "coordinates": [ 134.816427699999963, 35.4926999 ] } },
{ "type": "Feature", "properties": { "内容": "ポポロの杜　出石【特定施設入居者生活介護（有料老人ホーム（サービス付き高齢者向け住宅））】兵庫県豊岡市出石町片間54", "url": "https://www.kaigokensaku.mhlw.go.jp/28/index.php?action_kouhyou_detail_004_kani=true&JigyosyoCd=2874401785-00&ServiceCd=&Type=search", "url2": "https://www.shohousen.jp/" }, "geometry": { "type": "Point", "coordinates": [ 134.8327874, 35.4932726 ] } },
{ "type": "Feature", "properties": { "内容": "ポポロの杜　出石別館【特定施設入居者生活介護（有料老人ホーム（サービス付き高齢者向け住宅））】兵庫県豊岡市出石町片間54ポポロの杜　出石別館", "url": "https://www.kaigokensaku.mhlw.go.jp/28/index.php?action_kouhyou_detail_004_kani=true&JigyosyoCd=2874401850-00&ServiceCd=&Type=search", "url2": null }, "geometry": { "type": "Point", "coordinates": [ 134.8327874, 35.4932726 ] } },
{ "type": "Feature", "properties": { "内容": "メディケア加古川【特定施設入居者生活介護（有料老人ホーム（サービス付き高齢者向け住宅））】兵庫県加古川市西神吉町岸字川原田１４２番地５", "url": "https://www.kaigokensaku.mhlw.go.jp/28/index.php?action_kouhyou_detail_004_kani=true&JigyosyoCd=2872203183-00&ServiceCd=&Type=search", "url2": "https://www.medi-kakogawa.site" }, "geometry": { "type": "Point", "coordinates": [ 134.814187441802943, 34.788133579267807 ] } },
{ "type": "Feature", "properties": { "内容": "Charm（チャーム）加古川尾上の松【特定施設入居者生活介護（有料老人ホーム（サービス付き高齢者向け住宅））】兵庫県加古川市尾上町養田8番4", "url": "https://www.kaigokensaku.mhlw.go.jp/28/index.php?action_kouhyou_detail_004_kani=true&JigyosyoCd=2872203266-00&ServiceCd=&Type=search", "url2": "http://www.charmcc.jp" }, "geometry": { "type": "Point", "coordinates": [ 134.821432400000049, 34.7481149 ] } },
{ "type": "Feature", "properties": { "内容": "チャーム加古川駅前【特定施設入居者生活介護（有料老人ホーム（サービス付き高齢者向け住宅））】兵庫県加古川市加古川町篠原町300番地リトハ加古川B棟", "url": "https://www.kaigokensaku.mhlw.go.jp/28/index.php?action_kouhyou_detail_004_kani=true&JigyosyoCd=2872203761-00&ServiceCd=&Type=search", "url2": "https://www.charmcc.jp/" }, "geometry": { "type": "Point", "coordinates": [ 134.8372082, 34.7666447 ] } },
{ "type": "Feature", "properties": { "内容": "ニッケあすも加古川【特定施設入居者生活介護（有料老人ホーム（サービス付き高齢者向け住宅））】兵庫県加古川市加古川町本町239番地1", "url": "https://www.kaigokensaku.mhlw.go.jp/28/index.php?action_kouhyou_detail_004_kani=true&JigyosyoCd=2872203811-00&ServiceCd=&Type=search", "url2": "https://nikkecare.com" }, "geometry": { "type": "Point", "coordinates": [ 134.829037, 34.7700871 ] } },
{ "type": "Feature", "properties": { "内容": "ニッケあすも加古川弐番館【特定施設入居者生活介護（有料老人ホーム（サービス付き高齢者向け住宅））】兵庫県加古川市加古川町本町239-1", "url": "https://www.kaigokensaku.mhlw.go.jp/28/index.php?action_kouhyou_detail_004_kani=true&JigyosyoCd=2872204314-00&ServiceCd=&Type=search", "url2": "https://nikkecare.com" }, "geometry": { "type": "Point", "coordinates": [ 134.828667, 34.769728 ] } },
{ "type": "Feature", "properties": { "内容": "サエラ加古川南備後【特定施設入居者生活介護（有料老人ホーム（サービス付き高齢者向け住宅））】加古川町南備後183-1", "url": "https://www.kaigokensaku.mhlw.go.jp/28/index.php?action_kouhyou_detail_004_kani=true&JigyosyoCd=2872204439-00&ServiceCd=&Type=search", "url2": "http：//hina-corp.com" }, "geometry": { "type": "Point", "coordinates": [ 134.819464, 34.753842700000014 ] } },
{ "type": "Feature", "properties": { "内容": "翔月庵加古川【特定施設入居者生活介護（有料老人ホーム（サービス付き高齢者向け住宅））】兵庫県加古川市野口町坂元138-2", "url": "https://www.kaigokensaku.mhlw.go.jp/28/index.php?action_kouhyou_detail_004_kani=true&JigyosyoCd=2872203167-00&ServiceCd=&Type=search", "url2": "https://cina.co.jp/" }, "geometry": { "type": "Point", "coordinates": [ 134.848919248308107, 34.759165618254571 ] } },
{ "type": "Feature", "properties": { "内容": "プラチナ・シニアホーム宝塚逆瀬川【特定施設入居者生活介護（有料老人ホーム（サービス付き高齢者向け住宅））】兵庫県宝塚市伊孑志1-7-37", "url": "https://www.kaigokensaku.mhlw.go.jp/28/index.php?action_kouhyou_detail_004_kani=true&JigyosyoCd=2871102725-00&ServiceCd=&Type=search", "url2": "http://www.lakes21.co.jp/" }, "geometry": { "type": "Point", "coordinates": [ 135.35300979455107, 34.797826646892538 ] } },
{ "type": "Feature", "properties": { "内容": "チャームスイート宝塚中山【特定施設入居者生活介護（有料老人ホーム（サービス付き高齢者向け住宅））】兵庫県宝塚市中筋８丁目２４番１５号", "url": "https://www.kaigokensaku.mhlw.go.jp/28/index.php?action_kouhyou_detail_004_kani=true&JigyosyoCd=2871104010-00&ServiceCd=&Type=search", "url2": "http://www.charmcc.jp/" }, "geometry": { "type": "Point", "coordinates": [ 135.375811399999975, 34.8129143 ] } },
{ "type": "Feature", "properties": { "内容": "エクセレント宝塚ガーデンヒルズ【特定施設入居者生活介護（有料老人ホーム（サービス付き高齢者向け住宅））】兵庫県宝塚市平井5丁目4-1", "url": "https://www.kaigokensaku.mhlw.go.jp/28/index.php?action_kouhyou_detail_004_kani=true&JigyosyoCd=2871104564-00&ServiceCd=&Type=search", "url2": "https://www.excare.co.jp/" }, "geometry": { "type": "Point", "coordinates": [ 135.3914318, 34.8213449 ] } },
{ "type": "Feature", "properties": { "内容": "エクセレント花屋敷ガーデンヒルズ【特定施設入居者生活介護（有料老人ホーム（サービス付き高齢者向け住宅））】花屋敷荘園4-1-6エクセレント花屋敷ガーデンヒルズ", "url": "https://www.kaigokensaku.mhlw.go.jp/28/index.php?action_kouhyou_detail_004_kani=true&JigyosyoCd=2871103921-00&ServiceCd=&Type=search", "url2": "https://www.excare.co.jp/" }, "geometry": { "type": "Point", "coordinates": [ 135.4097612, 34.8375883 ] } },
{ "type": "Feature", "properties": { "内容": "介護付有料老人ホーム　プレザンメゾン宝塚山本【特定施設入居者生活介護（有料老人ホーム（サービス付き高齢者向け住宅））】兵庫県宝塚市平井3丁目15番24号", "url": "https://www.kaigokensaku.mhlw.go.jp/28/index.php?action_kouhyou_detail_004_kani=true&JigyosyoCd=2871104317-00&ServiceCd=&Type=search", "url2": "https://www.tanoshii-ie.jp/single116/" }, "geometry": { "type": "Point", "coordinates": [ 135.3920196, 34.8249433 ] } },
{ "type": "Feature", "properties": { "内容": "チャームスイート宝塚売布【特定施設入居者生活介護（有料老人ホーム（サービス付き高齢者向け住宅））】兵庫県宝塚市売布4丁目1番25号", "url": "https://www.kaigokensaku.mhlw.go.jp/28/index.php?action_kouhyou_detail_004_kani=true&JigyosyoCd=2871102907-00&ServiceCd=&Type=search", "url2": "https://www.charmcc.jp" }, "geometry": { "type": "Point", "coordinates": [ 135.3616525, 34.816503 ] } },
{ "type": "Feature", "properties": { "内容": "グランポルト宝塚【特定施設入居者生活介護（有料老人ホーム（サービス付き高齢者向け住宅））】川面３丁目２３番１２グランポルト宝塚", "url": "https://www.kaigokensaku.mhlw.go.jp/28/index.php?action_kouhyou_detail_004_kani=true&JigyosyoCd=2871102956-00&ServiceCd=&Type=search", "url2": "http//www.grandeporte.net" }, "geometry": { "type": "Point", "coordinates": [ 135.3438099, 34.8107103 ] } },
{ "type": "Feature", "properties": { "内容": "なごみの家　宝塚旭町【特定施設入居者生活介護（有料老人ホーム（サービス付き高齢者向け住宅））】兵庫県宝塚市旭町2丁目12番21号", "url": "https://www.kaigokensaku.mhlw.go.jp/28/index.php?action_kouhyou_detail_004_kani=true&JigyosyoCd=2871104283-00&ServiceCd=&Type=search", "url2": "https://nagomicare.jp" }, "geometry": { "type": "Point", "coordinates": [ 135.3563995, 34.8090087 ] } },
{ "type": "Feature", "properties": { "内容": "リアンレーヴ宝塚【特定施設入居者生活介護（有料老人ホーム（サービス付き高齢者向け住宅））】南ひばりガ丘2-9-22", "url": "https://www.kaigokensaku.mhlw.go.jp/28/index.php?action_kouhyou_detail_004_kani=true&JigyosyoCd=2871104549-00&ServiceCd=&Type=search", "url2": "http://kinoshita-group.co.jp" }, "geometry": { "type": "Point", "coordinates": [ 135.3969481, 34.8218542 ] } },
{ "type": "Feature", "properties": { "内容": "プラチナ・シニアホーム川西中央【特定施設入居者生活介護（有料老人ホーム（サービス付き高齢者向け住宅））】兵庫県川西市出在家町18-14", "url": "https://www.kaigokensaku.mhlw.go.jp/28/index.php?action_kouhyou_detail_004_kani=true&JigyosyoCd=2873102053-00&ServiceCd=&Type=search", "url2": "https://lakes21.co.jp/" }, "geometry": { "type": "Point", "coordinates": [ 135.422079599999989, 34.8399197 ] } },
{ "type": "Feature", "properties": { "内容": "かえでシニアアルヴァンタウン１【特定施設入居者生活介護（有料老人ホーム（サービス付き高齢者向け住宅））】兵庫県川西市火打1丁目14番6号", "url": "https://www.kaigokensaku.mhlw.go.jp/28/index.php?action_kouhyou_detail_004_kani=true&JigyosyoCd=2873102491-00&ServiceCd=&Type=search", "url2": "https://kaede-senior.jp/" }, "geometry": { "type": "Point", "coordinates": [ 135.420306900000014, 34.8355657 ] } },
{ "type": "Feature", "properties": { "内容": "ウエルハウスキセラ【特定施設入居者生活介護（有料老人ホーム（サービス付き高齢者向け住宅））】兵庫県川西市火打1-1-24", "url": "https://www.kaigokensaku.mhlw.go.jp/28/index.php?action_kouhyou_detail_004_kani=true&JigyosyoCd=2873102731-00&ServiceCd=&Type=search", "url2": "https://welhousekisela.jp/" }, "geometry": { "type": "Point", "coordinates": [ 135.418331, 34.8333626 ] } },
{ "type": "Feature", "properties": { "内容": "はっぴーらいふ小野【特定施設入居者生活介護（有料老人ホーム（サービス付き高齢者向け住宅））】兵庫県小野市王子町886-1", "url": "https://www.kaigokensaku.mhlw.go.jp/28/index.php?action_kouhyou_detail_004_kani=true&JigyosyoCd=2871900680-00&ServiceCd=&Type=search", "url2": null }, "geometry": { "type": "Point", "coordinates": [ 134.93316219999997, 34.854379 ] } },
{ "type": "Feature", "properties": { "内容": "サンヒルズ八景1番館【特定施設入居者生活介護（有料老人ホーム（サービス付き高齢者向け住宅））】兵庫県三田市横山町17番地13号", "url": "https://www.kaigokensaku.mhlw.go.jp/28/index.php?action_kouhyou_detail_004_kani=true&JigyosyoCd=2871201352-00&ServiceCd=&Type=search", "url2": "http://sun-hills.org" }, "geometry": { "type": "Point", "coordinates": [ 135.2231064, 34.8749944 ] } },
{ "type": "Feature", "properties": { "内容": "丹波ふく健康支援センター【特定施設入居者生活介護（有料老人ホーム（サービス付き高齢者向け住宅））】兵庫県丹波市氷上町成松１４９－１", "url": "https://www.kaigokensaku.mhlw.go.jp/28/index.php?action_kouhyou_detail_004_kani=true&JigyosyoCd=2871301830-00&ServiceCd=&Type=search", "url2": "http://news10.biz/" }, "geometry": { "type": "Point", "coordinates": [ 135.035223299366749, 35.173884945918175 ] } },
{ "type": "Feature", "properties": { "内容": "サービス付き高齢者向け住宅　緑陽館【特定施設入居者生活介護（有料老人ホーム（サービス付き高齢者向け住宅））】兵庫県加東市北野５５番地２緑陽館", "url": "https://www.kaigokensaku.mhlw.go.jp/28/index.php?action_kouhyou_detail_004_kani=true&JigyosyoCd=2872500679-00&ServiceCd=&Type=search", "url2": "takinoyashiro.jp" }, "geometry": { "type": "Point", "coordinates": [ 134.954830500000071, 34.934424 ] } }
]
}
