{
"type": "FeatureCollection",
"name": "geo_28_介護老人保健施設",
"crs": { "type": "name", "properties": { "name": "urn:ogc:def:crs:OGC:1.3:CRS84" } },
"features": [
{ "type": "Feature", "properties": { "内容": "医療法人明倫会　老人保健施設あずさ【介護老人保健施設】兵庫県神戸市東灘区青木3丁目1－48", "url": "https://www.kaigokensaku.mhlw.go.jp/28/index.php?action_kouhyou_detail_004_kani=true&JigyosyoCd=2850180015-00&ServiceCd=520&Type=search", "url2": "https://meirinkai.or.jp/azusa/" }, "geometry": { "type": "Point", "coordinates": [ 135.283043641367044, 34.714593889525901 ] } },
{ "type": "Feature", "properties": { "内容": "介護老人保健施設すばる魚崎の郷【介護老人保健施設】神戸市東灘区魚崎西町２丁目3－19", "url": "https://www.kaigokensaku.mhlw.go.jp/28/index.php?action_kouhyou_detail_004_kani=true&JigyosyoCd=2850180049-00&ServiceCd=520&Type=search", "url2": "http://www.uozakinosato.jp" }, "geometry": { "type": "Point", "coordinates": [ 135.266188599999964, 34.7101454 ] } },
{ "type": "Feature", "properties": { "内容": "介護老人保健施設　アネシス御影【介護老人保健施設】兵庫県神戸市東灘区御影石町1丁目1-32", "url": "https://www.kaigokensaku.mhlw.go.jp/28/index.php?action_kouhyou_detail_004_kani=true&JigyosyoCd=2850180056-00&ServiceCd=520&Type=search", "url2": "http://www.kouyukai.jp" }, "geometry": { "type": "Point", "coordinates": [ 135.253703871827724, 34.709366963684474 ] } },
{ "type": "Feature", "properties": { "内容": "アトレーユうおざき【介護老人保健施設】兵庫県神戸市東灘区魚崎南町3-7-18", "url": "https://www.kaigokensaku.mhlw.go.jp/28/index.php?action_kouhyou_detail_004_kani=true&JigyosyoCd=2850180023-00&ServiceCd=520&Type=search", "url2": "http://www.daichikai.or.jp/atreju/" }, "geometry": { "type": "Point", "coordinates": [ 135.275837700000011, 34.7104733 ] } },
{ "type": "Feature", "properties": { "内容": "公益財団法人甲南会　甲南介護老人保健施設【介護老人保健施設】神戸市東灘区向洋町中３丁目２番地５", "url": "https://www.kaigokensaku.mhlw.go.jp/28/index.php?action_kouhyou_detail_004_kani=true&JigyosyoCd=2850180031-00&ServiceCd=520&Type=search", "url2": "https://kohnan.or.jp/kohnan_hoken/" }, "geometry": { "type": "Point", "coordinates": [ 135.271530681753603, 34.686869428099726 ] } },
{ "type": "Feature", "properties": { "内容": "介護老人保健施設　ケアホーム　すばる【介護老人保健施設】兵庫県神戸市灘区大和町1丁目2番1号", "url": "https://www.kaigokensaku.mhlw.go.jp/28/index.php?action_kouhyou_detail_004_kani=true&JigyosyoCd=2850280013-00&ServiceCd=520&Type=search", "url2": "http://www.carehome-subaru.jp/" }, "geometry": { "type": "Point", "coordinates": [ 135.247773100000046, 34.7177195 ] } },
{ "type": "Feature", "properties": { "内容": "介護老人保健施設　神戸日の出苑【介護老人保健施設】神戸市灘区大石南町2-1-1", "url": "https://www.kaigokensaku.mhlw.go.jp/28/index.php?action_kouhyou_detail_004_kani=true&JigyosyoCd=2850280021-00&ServiceCd=520&Type=search", "url2": "http://www.shizutanikai.com" }, "geometry": { "type": "Point", "coordinates": [ 135.232110599999942, 34.7027824 ] } },
{ "type": "Feature", "properties": { "内容": "カネディアンヒル介護老人保健施設【介護老人保健施設】兵庫県神戸市灘区長峰台2丁目3-1", "url": "https://www.kaigokensaku.mhlw.go.jp/28/index.php?action_kouhyou_detail_004_kani=true&JigyosyoCd=2850280039-00&ServiceCd=520&Type=search", "url2": "http://www.souseikai.jp/" }, "geometry": { "type": "Point", "coordinates": [ 135.22179973491825, 34.725968392737755 ] } },
{ "type": "Feature", "properties": { "内容": "介護老人保健施設すばる六甲【介護老人保健施設】兵庫県神戸市灘区鶴甲１丁目３番１０号", "url": "https://www.kaigokensaku.mhlw.go.jp/28/index.php?action_kouhyou_detail_004_kani=true&JigyosyoCd=2850280047-00&ServiceCd=520&Type=search", "url2": "http://www.subaru-rokko.coｍ" }, "geometry": { "type": "Point", "coordinates": [ 135.238895500000012, 34.7319678 ] } },
{ "type": "Feature", "properties": { "内容": "介護老人保健施設　アネシス兵庫【介護老人保健施設】神戸市兵庫区吉田町1-8-21", "url": "https://www.kaigokensaku.mhlw.go.jp/28/index.php?action_kouhyou_detail_004_kani=true&JigyosyoCd=2850580032-00&ServiceCd=520&Type=search", "url2": "http://i-souseikai.jp/" }, "geometry": { "type": "Point", "coordinates": [ 135.1704277, 34.6534221 ] } },
{ "type": "Feature", "properties": { "内容": "介護老人保健施設　ドリームヒルズ滝山【介護老人保健施設】神戸市兵庫区滝山町７－２", "url": "https://www.kaigokensaku.mhlw.go.jp/28/index.php?action_kouhyou_detail_004_kani=true&JigyosyoCd=2850580040-00&ServiceCd=520&Type=search", "url2": "https://taiyukai.jp/dreamhills/" }, "geometry": { "type": "Point", "coordinates": [ 135.152236899999906, 34.6839608 ] } },
{ "type": "Feature", "properties": { "内容": "介護老人保健施設　ドリームヒルズ滝山【介護老人保健施設】神戸市兵庫区滝山町７－２", "url": "https://www.kaigokensaku.mhlw.go.jp/28/index.php?action_kouhyou_detail_004_kani=true&JigyosyoCd=2850580065-00&ServiceCd=520&Type=search", "url2": "https://taiyukai.jp/dreamhills/" }, "geometry": { "type": "Point", "coordinates": [ 135.152155, 34.683947 ] } },
{ "type": "Feature", "properties": { "内容": "介護老人保健施設フローラルヴィラ兵庫【介護老人保健施設】神戸市兵庫区塚本通3-1-7", "url": "https://www.kaigokensaku.mhlw.go.jp/28/index.php?action_kouhyou_detail_004_kani=true&JigyosyoCd=2850580073-00&ServiceCd=520&Type=search", "url2": "http://www.seihoukai.com" }, "geometry": { "type": "Point", "coordinates": [ 135.16758870000001, 34.6720872 ] } },
{ "type": "Feature", "properties": { "内容": "介護老人保健施設　鵠芭【介護老人保健施設】兵庫県神戸市兵庫区湊川町6丁目4-12", "url": "https://www.kaigokensaku.mhlw.go.jp/28/index.php?action_kouhyou_detail_004_kani=true&JigyosyoCd=2850580099-00&ServiceCd=520&Type=search", "url2": "https://konshinkai.or.jp/tazuha" }, "geometry": { "type": "Point", "coordinates": [ 135.1603409, 34.6828828 ] } },
{ "type": "Feature", "properties": { "内容": "介護老人保健施設　兵庫みどり苑【介護老人保健施設】神戸市兵庫区大開通2丁目2番1号", "url": "https://www.kaigokensaku.mhlw.go.jp/28/index.php?action_kouhyou_detail_004_kani=true&JigyosyoCd=2850580024-00&ServiceCd=520&Type=search", "url2": "http://www.sendankai.or.jp" }, "geometry": { "type": "Point", "coordinates": [ 135.169152601852346, 34.675118686426487 ] } },
{ "type": "Feature", "properties": { "内容": "介護老人保健施設　鵠芭（従来型）【介護老人保健施設】兵庫県神戸市兵庫区湊川町6丁目4‐12", "url": "https://www.kaigokensaku.mhlw.go.jp/28/index.php?action_kouhyou_detail_004_kani=true&JigyosyoCd=2850580081-00&ServiceCd=520&Type=search", "url2": "https://konshinkai.or.jp/tazuha/" }, "geometry": { "type": "Point", "coordinates": [ 135.160137391401662, 34.682915631505722 ] } },
{ "type": "Feature", "properties": { "内容": "介護老人保健施設　神戸長者町白寿苑【介護老人保健施設】神戸市長田区長者町19-1", "url": "https://www.kaigokensaku.mhlw.go.jp/28/index.php?action_kouhyou_detail_004_kani=true&JigyosyoCd=2850680030-00&ServiceCd=520&Type=search", "url2": "http://www.nojigiku.or.jp" }, "geometry": { "type": "Point", "coordinates": [ 135.132146428835995, 34.681446090511869 ] } },
{ "type": "Feature", "properties": { "内容": "フェニックス長田キュアセンター【介護老人保健施設】神戸市長田区林山町4番22", "url": "https://www.kaigokensaku.mhlw.go.jp/28/index.php?action_kouhyou_detail_004_kani=true&JigyosyoCd=2850680055-00&ServiceCd=520&Type=search", "url2": "http://www.ikkoukai.jp/" }, "geometry": { "type": "Point", "coordinates": [ 135.142290499999945, 34.6787501 ] } },
{ "type": "Feature", "properties": { "内容": "介護老人保健施設　ヴィラ光陽【介護老人保健施設】兵庫県神戸市長田区大日丘町２丁目７番地", "url": "https://www.kaigokensaku.mhlw.go.jp/28/index.php?action_kouhyou_detail_004_kani=true&JigyosyoCd=2850680071-00&ServiceCd=520&Type=search", "url2": "https://koyo.rouken.jp/" }, "geometry": { "type": "Point", "coordinates": [ 135.1368803, 34.6900555 ] } },
{ "type": "Feature", "properties": { "内容": "介護老人保健施設サニーヒル【介護老人保健施設】神戸市長田区大日丘町３丁目２番１号", "url": "https://www.kaigokensaku.mhlw.go.jp/28/index.php?action_kouhyou_detail_004_kani=true&JigyosyoCd=2850680014-00&ServiceCd=520&Type=search", "url2": "https://www.seishunkai.jp/" }, "geometry": { "type": "Point", "coordinates": [ 135.135690899999986, 34.6881518 ] } },
{ "type": "Feature", "properties": { "内容": "介護老人保健施設　いきいきの郷【介護老人保健施設】神戸市須磨区友が丘７丁目１－２５", "url": "https://www.kaigokensaku.mhlw.go.jp/28/index.php?action_kouhyou_detail_004_kani=true&JigyosyoCd=2850780012-00&ServiceCd=520&Type=search", "url2": "http://www.jikeikai-group.or.jp/ikiiki/" }, "geometry": { "type": "Point", "coordinates": [ 135.10102489999997, 34.6703003 ] } },
{ "type": "Feature", "properties": { "内容": "介護老人保健施設　すま松の郷【介護老人保健施設】神戸市須磨区妙法寺字樫原２－１", "url": "https://www.kaigokensaku.mhlw.go.jp/28/index.php?action_kouhyou_detail_004_kani=true&JigyosyoCd=2850780053-00&ServiceCd=520&Type=search", "url2": "https://shouzenkai.or.jp" }, "geometry": { "type": "Point", "coordinates": [ 135.1230812, 34.6711397 ] } },
{ "type": "Feature", "properties": { "内容": "介護老人保健施設　すま松の郷【介護老人保健施設】神戸市須磨区妙法寺字樫原２－１", "url": "https://www.kaigokensaku.mhlw.go.jp/28/index.php?action_kouhyou_detail_004_kani=true&JigyosyoCd=2850780079-00&ServiceCd=520&Type=search", "url2": "https://shouzenkai.or.jp" }, "geometry": { "type": "Point", "coordinates": [ 135.1230812, 34.6711397 ] } },
{ "type": "Feature", "properties": { "内容": "介護老人保健施設オラージュ須磨【介護老人保健施設】若草町3-622-11", "url": "https://www.kaigokensaku.mhlw.go.jp/28/index.php?action_kouhyou_detail_004_kani=true&JigyosyoCd=2850780061-00&ServiceCd=520&Type=search", "url2": "http://www.souseikai.jp/" }, "geometry": { "type": "Point", "coordinates": [ 135.115503600000011, 34.6920899 ] } },
{ "type": "Feature", "properties": { "内容": "グリーンリーフ高倉【介護老人保健施設】神戸市須磨区高倉町1丁目6-24", "url": "https://www.kaigokensaku.mhlw.go.jp/28/index.php?action_kouhyou_detail_004_kani=true&JigyosyoCd=2850780046-00&ServiceCd=520&Type=search", "url2": "http://www.nadeshikolh.jp/" }, "geometry": { "type": "Point", "coordinates": [ 135.10809990000007, 34.6472196 ] } },
{ "type": "Feature", "properties": { "内容": "介護老人保健施設　すみれ苑【介護老人保健施設】神戸市須磨区東白川台２丁目１２－１", "url": "https://www.kaigokensaku.mhlw.go.jp/28/index.php?action_kouhyou_detail_004_kani=true&JigyosyoCd=2850780038-00&ServiceCd=520&Type=search", "url2": "http://www.sumire.or.jp/sumire-en/" }, "geometry": { "type": "Point", "coordinates": [ 135.104652, 34.6922065 ] } },
{ "type": "Feature", "properties": { "内容": "介護老人保健施設コスモス苑【介護老人保健施設】神戸市須磨区妙法寺字荒打308-1", "url": "https://www.kaigokensaku.mhlw.go.jp/28/index.php?action_kouhyou_detail_004_kani=true&JigyosyoCd=2850780087-00&ServiceCd=520&Type=search", "url2": "http://obara.kobe-mariners.or.jp/cosmos/index.hyml/" }, "geometry": { "type": "Point", "coordinates": [ 135.107913899999971, 34.6751718 ] } },
{ "type": "Feature", "properties": { "内容": "老人保健施設　マイン・レーベン【介護老人保健施設】神戸市垂水区清水が丘２丁目５番１号", "url": "https://www.kaigokensaku.mhlw.go.jp/28/index.php?action_kouhyou_detail_004_kani=true&JigyosyoCd=2850880028-00&ServiceCd=520&Type=search", "url2": "http:/www.mein-leben.jp/" }, "geometry": { "type": "Point", "coordinates": [ 135.040477900000042, 34.6503408 ] } },
{ "type": "Feature", "properties": { "内容": "老人保健施設　舞子台【介護老人保健施設】神戸市垂水区舞子台７丁目２－１", "url": "https://www.kaigokensaku.mhlw.go.jp/28/index.php?action_kouhyou_detail_004_kani=true&JigyosyoCd=2850880036-00&ServiceCd=520&Type=search", "url2": "http://www32.ocn.ne.jp/~maikodai/rouken.htm" }, "geometry": { "type": "Point", "coordinates": [ 135.0414002, 34.6399198 ] } },
{ "type": "Feature", "properties": { "内容": "介護老人保健施設　名谷すみれ苑【介護老人保健施設】神戸市垂水区名谷町字梨原２３５０－１", "url": "https://www.kaigokensaku.mhlw.go.jp/28/index.php?action_kouhyou_detail_004_kani=true&JigyosyoCd=2850880044-00&ServiceCd=520&Type=search", "url2": "http//www.sumire.or.jp/" }, "geometry": { "type": "Point", "coordinates": [ 135.074611, 34.667645 ] } },
{ "type": "Feature", "properties": { "内容": "介護老人保健施設フローラルヴィラ垂水【介護老人保健施設】兵庫県神戸市垂水区下畑町西砂山301-1", "url": "https://www.kaigokensaku.mhlw.go.jp/28/index.php?action_kouhyou_detail_004_kani=true&JigyosyoCd=2850880051-00&ServiceCd=520&Type=search", "url2": "https://seihoukai-grp.jp" }, "geometry": { "type": "Point", "coordinates": [ 135.093509600000061, 34.6470556 ] } },
{ "type": "Feature", "properties": { "内容": "フェニックス垂水キュアセンター【介護老人保健施設】神戸市垂水区塩屋北町2-24-16", "url": "https://www.kaigokensaku.mhlw.go.jp/28/index.php?action_kouhyou_detail_004_kani=true&JigyosyoCd=2850880069-00&ServiceCd=520&Type=search", "url2": "http://www.ikkoukai.jp/" }, "geometry": { "type": "Point", "coordinates": [ 135.086682399999972, 34.6487664 ] } },
{ "type": "Feature", "properties": { "内容": "介護老人保健施設　四季の郷【介護老人保健施設】神戸市垂水区南多聞台2-9-3", "url": "https://www.kaigokensaku.mhlw.go.jp/28/index.php?action_kouhyou_detail_004_kani=true&JigyosyoCd=2850880077-00&ServiceCd=520&Type=search", "url2": "https://www.kisshokai.or.jp/facilities2/index.html" }, "geometry": { "type": "Point", "coordinates": [ 135.035014400000023, 34.6544568 ] } },
{ "type": "Feature", "properties": { "内容": "介護老人保健施設　垂水すみれ苑【介護老人保健施設】神戸市垂水区名谷町字猿倉241-5", "url": "https://www.kaigokensaku.mhlw.go.jp/28/index.php?action_kouhyou_detail_004_kani=true&JigyosyoCd=2850880085-00&ServiceCd=520&Type=search", "url2": "http/www.sumire.or.jp" }, "geometry": { "type": "Point", "coordinates": [ 135.063601100000028, 34.6493302 ] } },
{ "type": "Feature", "properties": { "内容": "介護老人保健施設　フローラルヴィラ垂水【介護老人保健施設】兵庫県神戸市垂水区下畑町西砂山301－1", "url": "https://www.kaigokensaku.mhlw.go.jp/28/index.php?action_kouhyou_detail_004_kani=true&JigyosyoCd=2850880101-00&ServiceCd=520&Type=search", "url2": "https://seihoukai-grp.jp" }, "geometry": { "type": "Point", "coordinates": [ 135.093509600000061, 34.6470556 ] } },
{ "type": "Feature", "properties": { "内容": "ふぇにっくすたるみきゅあせんたー【介護老人保健施設】神戸市垂水区塩屋北町2-24-16", "url": "https://www.kaigokensaku.mhlw.go.jp/28/index.php?action_kouhyou_detail_004_kani=true&JigyosyoCd=2850880119-00&ServiceCd=520&Type=search", "url2": "www.ikkoukai.jp" }, "geometry": { "type": "Point", "coordinates": [ 135.086682399999972, 34.6487664 ] } },
{ "type": "Feature", "properties": { "内容": "四季の郷（ユニット）【介護老人保健施設】兵庫県神戸市垂水区南多聞台2-9-3", "url": "https://www.kaigokensaku.mhlw.go.jp/28/index.php?action_kouhyou_detail_004_kani=true&JigyosyoCd=2850880127-00&ServiceCd=520&Type=search", "url2": "https://www.kisshokai.or.jp/facilities2/index.html" }, "geometry": { "type": "Point", "coordinates": [ 135.035014400000023, 34.6544568 ] } },
{ "type": "Feature", "properties": { "内容": "介護老人保健施設　フローラルヴィラ桃山台【介護老人保健施設】兵庫県神戸市垂水区桃山台5丁目1117-1", "url": "https://www.kaigokensaku.mhlw.go.jp/28/index.php?action_kouhyou_detail_004_kani=true&JigyosyoCd=2850880135-00&ServiceCd=520&Type=search", "url2": "https://seihoukai-grp.jp" }, "geometry": { "type": "Point", "coordinates": [ 135.085738899999967, 34.657427 ] } },
{ "type": "Feature", "properties": { "内容": "みどりの丘【介護老人保健施設】神戸市垂水区小束台868番1130", "url": "https://www.kaigokensaku.mhlw.go.jp/28/index.php?action_kouhyou_detail_004_kani=true&JigyosyoCd=2850880093-00&ServiceCd=520&Type=search", "url2": "http://www.rouken-midori.jp/" }, "geometry": { "type": "Point", "coordinates": [ 135.052760218662996, 34.674128141821001 ] } },
{ "type": "Feature", "properties": { "内容": "介護老人保健施設　ハートフル多聞台【介護老人保健施設】兵庫県神戸市垂水区多聞台4丁目12番9号", "url": "https://www.kaigokensaku.mhlw.go.jp/28/index.php?action_kouhyou_detail_004_kani=true&JigyosyoCd=2850880143-00&ServiceCd=520&Type=search", "url2": null }, "geometry": { "type": "Point", "coordinates": [ 135.0438196, 34.6616626 ] } },
{ "type": "Feature", "properties": { "内容": "神戸中央病院附属介護老人保健施設【介護老人保健施設】兵庫県神戸市北区惣山町２－１－９", "url": "https://www.kaigokensaku.mhlw.go.jp/28/index.php?action_kouhyou_detail_004_kani=true&JigyosyoCd=2855080012-00&ServiceCd=520&Type=search", "url2": "http://kobe.jcho.go.jp" }, "geometry": { "type": "Point", "coordinates": [ 135.154308, 34.7371244 ] } },
{ "type": "Feature", "properties": { "内容": "社会医療法人　寿栄会　介護老人保健施設　青い空の郷【介護老人保健施設】兵庫県神戸市北区長尾町上津４６６３番地の３", "url": "https://www.kaigokensaku.mhlw.go.jp/28/index.php?action_kouhyou_detail_004_kani=true&JigyosyoCd=2855080020-00&ServiceCd=520&Type=search", "url2": "http://www.aoisoranosato.com/" }, "geometry": { "type": "Point", "coordinates": [ 135.1667473, 34.8890205 ] } },
{ "type": "Feature", "properties": { "内容": "介護老人保健施設　向陽りんどう苑【介護老人保健施設】兵庫県神戸市北区有野町有野１４８４－１", "url": "https://www.kaigokensaku.mhlw.go.jp/28/index.php?action_kouhyou_detail_004_kani=true&JigyosyoCd=2855080038-00&ServiceCd=520&Type=search", "url2": "http://www.rindouen.or.jp/" }, "geometry": { "type": "Point", "coordinates": [ 135.2243201, 34.8161133 ] } },
{ "type": "Feature", "properties": { "内容": "老人保健施設　桃源の郷【介護老人保健施設】神戸市北区有野中町４丁目１８番２１号", "url": "https://www.kaigokensaku.mhlw.go.jp/28/index.php?action_kouhyou_detail_004_kani=true&JigyosyoCd=2855080046-00&ServiceCd=520&Type=search", "url2": "http://www.keishuukai.com/" }, "geometry": { "type": "Point", "coordinates": [ 135.226256, 34.8343778 ] } },
{ "type": "Feature", "properties": { "内容": "介護老人保健施設シルバーステイあじさい【介護老人保健施設】神戸市北区緑町8丁目12番1号介護老人保健施設シルバーステイあじさい", "url": "https://www.kaigokensaku.mhlw.go.jp/28/index.php?action_kouhyou_detail_004_kani=true&JigyosyoCd=2855080061-00&ServiceCd=520&Type=search", "url2": "http://www.hokuto-hp.or.jp" }, "geometry": { "type": "Point", "coordinates": [ 135.155313500000034, 34.7513478 ] } },
{ "type": "Feature", "properties": { "内容": "介護老人保健施設　リハ・神戸【介護老人保健施設】神戸市北区しあわせの村1-19", "url": "https://www.kaigokensaku.mhlw.go.jp/28/index.php?action_kouhyou_detail_004_kani=true&JigyosyoCd=2855080079-00&ServiceCd=520&Type=search", "url2": "http://kzc.jp/r-kobe" }, "geometry": { "type": "Point", "coordinates": [ 135.114947356344601, 34.70542265938478 ] } },
{ "type": "Feature", "properties": { "内容": "介護老人保健施設うらら【介護老人保健施設】神戸市北区淡河町淡河574", "url": "https://www.kaigokensaku.mhlw.go.jp/28/index.php?action_kouhyou_detail_004_kani=true&JigyosyoCd=2855080095-00&ServiceCd=520&Type=search", "url2": "http://www.roken-urara.jp" }, "geometry": { "type": "Point", "coordinates": [ 135.100106200000027, 34.8124566 ] } },
{ "type": "Feature", "properties": { "内容": "介護老人保健施設　あすなろ旭【介護老人保健施設】神戸市北区西大池1丁目31番28号", "url": "https://www.kaigokensaku.mhlw.go.jp/28/index.php?action_kouhyou_detail_004_kani=true&JigyosyoCd=2855080103-00&ServiceCd=520&Type=search", "url2": "http://www.asunaro-asahi.com/" }, "geometry": { "type": "Point", "coordinates": [ 135.1981538, 34.7785281 ] } },
{ "type": "Feature", "properties": { "内容": "介護老人保健施設　あすなろ旭【介護老人保健施設】神戸市　北区　西大池　１丁目３１番２８号", "url": "https://www.kaigokensaku.mhlw.go.jp/28/index.php?action_kouhyou_detail_004_kani=true&JigyosyoCd=2855080111-00&ServiceCd=520&Type=search", "url2": "http://www.asunaro-asahi.com/" }, "geometry": { "type": "Point", "coordinates": [ 135.1981538, 34.7785281 ] } },
{ "type": "Feature", "properties": { "内容": "介護老人保健施設　カトレア六甲【介護老人保健施設】神戸市北区唐櫃台4丁目39番1", "url": "https://www.kaigokensaku.mhlw.go.jp/28/index.php?action_kouhyou_detail_004_kani=true&JigyosyoCd=2855080129-00&ServiceCd=520&Type=search", "url2": "http://www.imwg.or.jp/" }, "geometry": { "type": "Point", "coordinates": [ 135.2103454, 34.7867623 ] } },
{ "type": "Feature", "properties": { "内容": "介護老人保健施設らぽーと【介護老人保健施設】神戸市北区大沢町中大沢字向井新田2238-3", "url": "https://www.kaigokensaku.mhlw.go.jp/28/index.php?action_kouhyou_detail_004_kani=true&JigyosyoCd=2855080145-00&ServiceCd=520&Type=search", "url2": "https://kobe-raport.jp/" }, "geometry": { "type": "Point", "coordinates": [ 135.161146800000012, 34.8482626 ] } },
{ "type": "Feature", "properties": { "内容": "介護老人保健施設神戸彩光園【介護老人保健施設】兵庫県神戸市北区鳴子3丁目1番", "url": "https://www.kaigokensaku.mhlw.go.jp/28/index.php?action_kouhyou_detail_004_kani=true&JigyosyoCd=2855080137-00&ServiceCd=520&Type=search", "url2": "https://asukafukushikai.com" }, "geometry": { "type": "Point", "coordinates": [ 135.128434586647018, 34.725244272089938 ] } },
{ "type": "Feature", "properties": { "内容": "医療法人敬愛会　介護老人保健施設　神戸ポートピアステイ【介護老人保健施設】兵庫県神戸市中央区港島中町５丁目２番地３", "url": "https://www.kaigokensaku.mhlw.go.jp/28/index.php?action_kouhyou_detail_004_kani=true&JigyosyoCd=2855180036-00&ServiceCd=520&Type=search", "url2": "http://www.keiai-kai.jp" }, "geometry": { "type": "Point", "coordinates": [ 135.209327300000041, 34.6632831 ] } },
{ "type": "Feature", "properties": { "内容": "介護老人保健施設　いつでも夢を【介護老人保健施設】神戸市中央区下山手通7丁目17-1", "url": "https://www.kaigokensaku.mhlw.go.jp/28/index.php?action_kouhyou_detail_004_kani=true&JigyosyoCd=2855180051-00&ServiceCd=520&Type=search", "url2": "http://itsuyume.jp" }, "geometry": { "type": "Point", "coordinates": [ 135.176312899999971, 34.6873025 ] } },
{ "type": "Feature", "properties": { "内容": "介護老人保健施設プリエール【介護老人保健施設】神戸市中央区籠池通５丁目１－２", "url": "https://www.kaigokensaku.mhlw.go.jp/28/index.php?action_kouhyou_detail_004_kani=true&JigyosyoCd=2855180069-00&ServiceCd=520&Type=search", "url2": "http://priere.ojikai.or.jp/" }, "geometry": { "type": "Point", "coordinates": [ 135.206257, 34.7099977 ] } },
{ "type": "Feature", "properties": { "内容": "ポート愛ランド。老健【介護老人保健施設】兵庫県神戸市中央区港島中町4-6", "url": "https://www.kaigokensaku.mhlw.go.jp/28/index.php?action_kouhyou_detail_004_kani=true&JigyosyoCd=2855180077-00&ServiceCd=520&Type=search", "url2": "http://kobe-seikoukai-port-island-rouken.jp/" }, "geometry": { "type": "Point", "coordinates": [ 135.209166200000027, 34.668510399999981 ] } },
{ "type": "Feature", "properties": { "内容": "ポート愛ランド。老健ムーチョ【介護老人保健施設】兵庫県神戸市中央区港島中町4-6", "url": "https://www.kaigokensaku.mhlw.go.jp/28/index.php?action_kouhyou_detail_004_kani=true&JigyosyoCd=2855180093-00&ServiceCd=520&Type=search", "url2": "kobe-seikoukai-port-island-rouken.jp/" }, "geometry": { "type": "Point", "coordinates": [ 135.209047300000066, 34.6686904 ] } },
{ "type": "Feature", "properties": { "内容": "介護老人保健施設サニーピア【介護老人保健施設】神戸市中央区波止場町3番12号", "url": "https://www.kaigokensaku.mhlw.go.jp/28/index.php?action_kouhyou_detail_004_kani=true&JigyosyoCd=2855180010-00&ServiceCd=520&Type=search", "url2": "http://www.sunny-pier.or.jp/" }, "geometry": { "type": "Point", "coordinates": [ 135.188863878790244, 34.684978692057904 ] } },
{ "type": "Feature", "properties": { "内容": "介護老人保健施設サニーピア【介護老人保健施設】兵庫県神戸市中央区波止場町3番12号", "url": "https://www.kaigokensaku.mhlw.go.jp/28/index.php?action_kouhyou_detail_004_kani=true&JigyosyoCd=2855180085-00&ServiceCd=520&Type=search", "url2": "http://www.sunny-pier.or.jp/" }, "geometry": { "type": "Point", "coordinates": [ 135.188770299999987, 34.6849863 ] } },
{ "type": "Feature", "properties": { "内容": "老人保健施設　安田記念　緑風苑【介護老人保健施設】兵庫県神戸市　西区　北山台　3丁目1番1号", "url": "https://www.kaigokensaku.mhlw.go.jp/28/index.php?action_kouhyou_detail_004_kani=true&JigyosyoCd=2855280018-00&ServiceCd=520&Type=search", "url2": "http://hironokogen.jp/" }, "geometry": { "type": "Point", "coordinates": [ 135.036661631352217, 34.764348908179521 ] } },
{ "type": "Feature", "properties": { "内容": "介護老人保健施設　ハーベスピア【介護老人保健施設】神戸市西区伊川谷町有瀬字屋敷前１４３２－１", "url": "https://www.kaigokensaku.mhlw.go.jp/28/index.php?action_kouhyou_detail_004_kani=true&JigyosyoCd=2855280026-00&ServiceCd=520&Type=search", "url2": "http://ha-besupia.com/" }, "geometry": { "type": "Point", "coordinates": [ 135.030698, 34.6613864 ] } },
{ "type": "Feature", "properties": { "内容": "フェニックス西神戸キュアセンター【介護老人保健施設】神戸市西区岩岡町岩岡654-7介護老人保健施設　フェニックス西神戸キュアセンター", "url": "https://www.kaigokensaku.mhlw.go.jp/28/index.php?action_kouhyou_detail_004_kani=true&JigyosyoCd=2855280075-00&ServiceCd=520&Type=search", "url2": "http://www.ikkoukai.jp/" }, "geometry": { "type": "Point", "coordinates": [ 134.9478848, 34.7153689 ] } },
{ "type": "Feature", "properties": { "内容": "介護老人保健施設　風と緑【介護老人保健施設】兵庫県神戸市西区伊川谷町有瀬３１７‐２", "url": "https://www.kaigokensaku.mhlw.go.jp/28/index.php?action_kouhyou_detail_004_kani=true&JigyosyoCd=2855280067-00&ServiceCd=520&Type=search", "url2": "http://www.yasosima.com/" }, "geometry": { "type": "Point", "coordinates": [ 135.03226159999997, 34.6689605 ] } },
{ "type": "Feature", "properties": { "内容": "老人保健施設　ひらの【介護老人保健施設】神戸市西区平野町大畑６番１", "url": "https://www.kaigokensaku.mhlw.go.jp/28/index.php?action_kouhyou_detail_004_kani=true&JigyosyoCd=2855280059-00&ServiceCd=520&Type=search", "url2": "http://www.seijinkai.or.jp" }, "geometry": { "type": "Point", "coordinates": [ 134.994191799999953, 34.715694 ] } },
{ "type": "Feature", "properties": { "内容": "介護老人保健施設　エルダービレッジ【介護老人保健施設】兵庫県神戸市西区櫨谷町福谷8822番", "url": "https://www.kaigokensaku.mhlw.go.jp/28/index.php?action_kouhyou_detail_004_kani=true&JigyosyoCd=2855280083-00&ServiceCd=520&Type=search", "url2": "https://www.asunaro-grp.jp/home-index" }, "geometry": { "type": "Point", "coordinates": [ 135.032549, 34.727631899999984 ] } },
{ "type": "Feature", "properties": { "内容": "介護老人保健施設　たちばな苑【介護老人保健施設】兵庫県神戸市西区神出町勝成78-53", "url": "https://www.kaigokensaku.mhlw.go.jp/28/index.php?action_kouhyou_detail_004_kani=true&JigyosyoCd=2855280109-00&ServiceCd=520&Type=search", "url2": "kinshukai.or.jp/tachibana/" }, "geometry": { "type": "Point", "coordinates": [ 134.992284500000011, 34.7731073 ] } },
{ "type": "Feature", "properties": { "内容": "医療法人真和会　介護老人保健施設　エスコート船場【介護老人保健施設】姫路市東雲町４丁目1-20", "url": "https://www.kaigokensaku.mhlw.go.jp/28/index.php?action_kouhyou_detail_004_kani=true&JigyosyoCd=2854080070-00&ServiceCd=520&Type=search", "url2": null }, "geometry": { "type": "Point", "coordinates": [ 134.679475, 34.833594 ] } },
{ "type": "Feature", "properties": { "内容": "介護老人保健施設　夢前白寿苑【介護老人保健施設】兵庫県姫路市夢前町塚本77-9079-335-3320", "url": "https://www.kaigokensaku.mhlw.go.jp/28/index.php?action_kouhyou_detail_004_kani=true&JigyosyoCd=2853580013-00&ServiceCd=520&Type=search", "url2": null }, "geometry": { "type": "Point", "coordinates": [ 134.6401146, 34.9362061 ] } },
{ "type": "Feature", "properties": { "内容": "介護老人保健施設　愛和ケアホーム【介護老人保健施設】姫路市飯田3丁目95－1", "url": "https://www.kaigokensaku.mhlw.go.jp/28/index.php?action_kouhyou_detail_004_kani=true&JigyosyoCd=2854080021-00&ServiceCd=520&Type=search", "url2": "http://www.aiwahp.or.jp" }, "geometry": { "type": "Point", "coordinates": [ 134.675451, 34.813102 ] } },
{ "type": "Feature", "properties": { "内容": "介護老人保健施設マリア・ヴィラ【介護老人保健施設】兵庫県姫路市仁豊野650番地", "url": "https://www.kaigokensaku.mhlw.go.jp/28/index.php?action_kouhyou_detail_004_kani=true&JigyosyoCd=2854080047-00&ServiceCd=520&Type=search", "url2": "http://himemaria.or.jp" }, "geometry": { "type": "Point", "coordinates": [ 134.731475100000011, 34.878267 ] } },
{ "type": "Feature", "properties": { "内容": "社会医療法人恵風会　老人保健施設　老人ケアセンター緑ヶ丘【介護老人保健施設】兵庫県姫路市西今宿5丁目3番8号", "url": "https://www.kaigokensaku.mhlw.go.jp/28/index.php?action_kouhyou_detail_004_kani=true&JigyosyoCd=2854080039-00&ServiceCd=520&Type=search", "url2": "http://www.keifukai.or.jp" }, "geometry": { "type": "Point", "coordinates": [ 134.661173599999984, 34.8445205 ] } },
{ "type": "Feature", "properties": { "内容": "老人保健施設ハピネス五葉【介護老人保健施設】兵庫県姫路市本町165番地", "url": "https://www.kaigokensaku.mhlw.go.jp/28/index.php?action_kouhyou_detail_004_kani=true&JigyosyoCd=2854080096-00&ServiceCd=520&Type=search", "url2": "https://www.itsuhakai.or.jp" }, "geometry": { "type": "Point", "coordinates": [ 134.689613, 34.8326747 ] } },
{ "type": "Feature", "properties": { "内容": "介護老人保健施設しおさきヴィラ【介護老人保健施設】姫路市大塩町汐咲１－２５", "url": "https://www.kaigokensaku.mhlw.go.jp/28/index.php?action_kouhyou_detail_004_kani=true&JigyosyoCd=2854080088-00&ServiceCd=520&Type=search", "url2": "http://www.inohos.com" }, "geometry": { "type": "Point", "coordinates": [ 134.755884499999979, 34.778888 ] } },
{ "type": "Feature", "properties": { "内容": "医療法人仁寿会　老人保健施設カノープス姫路【介護老人保健施設】兵庫県姫路市別所町別所960-1医療法人仁寿会　老人保健施設カノープス姫路", "url": "https://www.kaigokensaku.mhlw.go.jp/28/index.php?action_kouhyou_detail_004_kani=true&JigyosyoCd=2854080054-00&ServiceCd=520&Type=search", "url2": "http://www.canopushimeji.jp/" }, "geometry": { "type": "Point", "coordinates": [ 134.75025949999997, 34.7995941 ] } },
{ "type": "Feature", "properties": { "内容": "老人保健施設つなしま【介護老人保健施設】兵庫県姫路市御立西４丁目１番２５号", "url": "https://www.kaigokensaku.mhlw.go.jp/28/index.php?action_kouhyou_detail_004_kani=true&JigyosyoCd=2854080104-00&ServiceCd=520&Type=search", "url2": "http://www.Kousei-hp.jp/" }, "geometry": { "type": "Point", "coordinates": [ 134.660053699999906, 34.8616574 ] } },
{ "type": "Feature", "properties": { "内容": "医療法人　松浦会　光が丘老人保健施設【介護老人保健施設】兵庫県姫路市御国野町国分寺２６７", "url": "https://www.kaigokensaku.mhlw.go.jp/28/index.php?action_kouhyou_detail_004_kani=true&JigyosyoCd=2854080013-00&ServiceCd=520&Type=search", "url2": "http://www.hikari-gaoka.jp" }, "geometry": { "type": "Point", "coordinates": [ 134.7323222, 34.825057 ] } },
{ "type": "Feature", "properties": { "内容": "介護老人保健施設　ゆめさき【介護老人保健施設】姫路市広畑区西夢前台6丁目56番1", "url": "https://www.kaigokensaku.mhlw.go.jp/28/index.php?action_kouhyou_detail_004_kani=true&JigyosyoCd=2854080062-00&ServiceCd=520&Type=search", "url2": "http://www.yumesaki.gr.jp/" }, "geometry": { "type": "Point", "coordinates": [ 134.635982199999944, 34.8178872 ] } },
{ "type": "Feature", "properties": { "内容": "医療法人旭会　そのだ介護老人保健施設【介護老人保健施設】尼崎市東園田町２－４８－８", "url": "https://www.kaigokensaku.mhlw.go.jp/28/index.php?action_kouhyou_detail_004_kani=true&JigyosyoCd=2853080071-00&ServiceCd=520&Type=search", "url2": "http://www.sonodamedic.or.jp" }, "geometry": { "type": "Point", "coordinates": [ 135.448107700000037, 34.7579459 ] } },
{ "type": "Feature", "properties": { "内容": "医療法人尼崎厚生会　立花介護老人保健施設【介護老人保健施設】兵庫県尼崎市立花町４丁目４番２３号", "url": "https://www.kaigokensaku.mhlw.go.jp/28/index.php?action_kouhyou_detail_004_kani=true&JigyosyoCd=2853080014-00&ServiceCd=520&Type=search", "url2": "http://www.tachibanarouken.or.jp" }, "geometry": { "type": "Point", "coordinates": [ 135.3983432, 34.7405247 ] } },
{ "type": "Feature", "properties": { "内容": "介護老人保健施設サンプラザ平成【介護老人保健施設】兵庫県尼崎市大庄西町４丁目３番９号", "url": "https://www.kaigokensaku.mhlw.go.jp/28/index.php?action_kouhyou_detail_004_kani=true&JigyosyoCd=2853080022-00&ServiceCd=520&Type=search", "url2": "https://ask-sunshine.jp/office/heisei/" }, "geometry": { "type": "Point", "coordinates": [ 135.390894800000069, 34.7174988 ] } },
{ "type": "Feature", "properties": { "内容": "介護老人保健施設ローランド【介護老人保健施設】兵庫県尼崎市潮江2丁目1番10号", "url": "https://www.kaigokensaku.mhlw.go.jp/28/index.php?action_kouhyou_detail_004_kani=true&JigyosyoCd=2853080030-00&ServiceCd=520&Type=search", "url2": "http://www.chuoukai.or.jp" }, "geometry": { "type": "Point", "coordinates": [ 135.42934, 34.736823 ] } },
{ "type": "Feature", "properties": { "内容": "老人保健施設友の家【介護老人保健施設】尼崎市東本町2-51", "url": "https://www.kaigokensaku.mhlw.go.jp/28/index.php?action_kouhyou_detail_004_kani=true&JigyosyoCd=2853080055-00&ServiceCd=520&Type=search", "url2": "http://tomonoie.web.fc2.com" }, "geometry": { "type": "Point", "coordinates": [ 135.4252659, 34.7122975 ] } },
{ "type": "Feature", "properties": { "内容": "介護老人保健施設なにわローランド【介護老人保健施設】兵庫県尼崎市東難波町１丁目３番１０号", "url": "https://www.kaigokensaku.mhlw.go.jp/28/index.php?action_kouhyou_detail_004_kani=true&JigyosyoCd=2853080097-00&ServiceCd=520&Type=search", "url2": "http://www.chuoukai.or.jp/" }, "geometry": { "type": "Point", "coordinates": [ 135.413869299999988, 34.7322592 ] } },
{ "type": "Feature", "properties": { "内容": "フローリス介護老人保健施設【介護老人保健施設】兵庫県尼崎市西難波町6丁目11番6号", "url": "https://www.kaigokensaku.mhlw.go.jp/28/index.php?action_kouhyou_detail_004_kani=true&JigyosyoCd=2853080121-00&ServiceCd=520&Type=search", "url2": "http://www.floris-care.jp" }, "geometry": { "type": "Point", "coordinates": [ 135.407920099999956, 34.7297149 ] } },
{ "type": "Feature", "properties": { "内容": "尼崎医療生協介護老人保健施設ひだまりの里【介護老人保健施設】兵庫県尼崎市南武庫之荘11丁目１２－１あおぞら会館", "url": "https://www.kaigokensaku.mhlw.go.jp/28/index.php?action_kouhyou_detail_004_kani=true&JigyosyoCd=2853080139-00&ServiceCd=520&Type=search", "url2": "http://www.amagasaki.coop/" }, "geometry": { "type": "Point", "coordinates": [ 135.385977899999943, 34.7398328 ] } },
{ "type": "Feature", "properties": { "内容": "社会医療法人愛仁会介護老人保健施設だいもつ【介護老人保健施設】兵庫県尼崎市東大物町1丁目1番1号", "url": "https://www.kaigokensaku.mhlw.go.jp/28/index.php?action_kouhyou_detail_004_kani=true&JigyosyoCd=2853080154-00&ServiceCd=520&Type=search", "url2": "https://www.roukendaimotsu.aijinkai.or.jp" }, "geometry": { "type": "Point", "coordinates": [ 135.427587799999969, 34.7170026 ] } },
{ "type": "Feature", "properties": { "内容": "老人保健施設　南野の郷【介護老人保健施設】兵庫県尼崎市富松町３丁目３３－２２", "url": "https://www.kaigokensaku.mhlw.go.jp/28/index.php?action_kouhyou_detail_004_kani=true&JigyosyoCd=2853080048-00&ServiceCd=520&Type=search", "url2": null }, "geometry": { "type": "Point", "coordinates": [ 135.402036599999974, 34.7603033 ] } },
{ "type": "Feature", "properties": { "内容": "介護老人保健施設はくほう【介護老人保健施設】兵庫県尼崎市若王寺３丁目１３番２０号", "url": "https://www.kaigokensaku.mhlw.go.jp/28/index.php?action_kouhyou_detail_004_kani=true&JigyosyoCd=2853080147-00&ServiceCd=520&Type=search", "url2": "https://www.hakuho.or.jp/" }, "geometry": { "type": "Point", "coordinates": [ 135.441036914879476, 34.746619939487474 ] } },
{ "type": "Feature", "properties": { "内容": "介護老人保健施設はくほう【介護老人保健施設】兵庫県尼崎市若王寺3丁目13番20号", "url": "https://www.kaigokensaku.mhlw.go.jp/28/index.php?action_kouhyou_detail_004_kani=true&JigyosyoCd=2853080162-00&ServiceCd=520&Type=search", "url2": "https://www.hakuhou.or.jp/" }, "geometry": { "type": "Point", "coordinates": [ 135.44118180000001, 34.7465506 ] } },
{ "type": "Feature", "properties": { "内容": "尼崎老人保健施設ブルーベリー【介護老人保健施設】兵庫県尼崎市上坂部2丁目24番5号", "url": "https://www.kaigokensaku.mhlw.go.jp/28/index.php?action_kouhyou_detail_004_kani=true&JigyosyoCd=2853080063-00&ServiceCd=520&Type=search", "url2": "http://www.kensei-kai.or.jp" }, "geometry": { "type": "Point", "coordinates": [ 135.42623709999998, 34.7477161 ] } },
{ "type": "Feature", "properties": { "内容": "介護老人保健施設武庫之荘【介護老人保健施設】尼崎市南武庫之荘２－１０－３０", "url": "https://www.kaigokensaku.mhlw.go.jp/28/index.php?action_kouhyou_detail_004_kani=true&JigyosyoCd=2853080105-00&ServiceCd=520&Type=search", "url2": null }, "geometry": { "type": "Point", "coordinates": [ 135.396829199999956, 34.7508486 ] } },
{ "type": "Feature", "properties": { "内容": "介護老人保健施設恵泉【介護老人保健施設】明石市大久保町大窪3101-1", "url": "https://www.kaigokensaku.mhlw.go.jp/28/index.php?action_kouhyou_detail_004_kani=true&JigyosyoCd=2852080015-00&ServiceCd=520&Type=search", "url2": "http://www.akashi-keisen.com" }, "geometry": { "type": "Point", "coordinates": [ 134.947268200000053, 34.709825 ] } },
{ "type": "Feature", "properties": { "内容": "介護老人保健施設　ライフ明海【介護老人保健施設】兵庫県明石市藤江201", "url": "https://www.kaigokensaku.mhlw.go.jp/28/index.php?action_kouhyou_detail_004_kani=true&JigyosyoCd=2852080031-00&ServiceCd=520&Type=search", "url2": "http://www.meikai.or.jp" }, "geometry": { "type": "Point", "coordinates": [ 134.95367090000002, 34.6560915 ] } },
{ "type": "Feature", "properties": { "内容": "老人保健施設　あさぎりむつみ荘【介護老人保健施設】明石市朝霧台１１２０－４", "url": "https://www.kaigokensaku.mhlw.go.jp/28/index.php?action_kouhyou_detail_004_kani=true&JigyosyoCd=2852080049-00&ServiceCd=520&Type=search", "url2": "http://www.nagomikai.or.jp/" }, "geometry": { "type": "Point", "coordinates": [ 135.017651800000067, 34.655109 ] } },
{ "type": "Feature", "properties": { "内容": "介護老人保健施設　希望【介護老人保健施設】明石市魚住町清水2744-30", "url": "https://www.kaigokensaku.mhlw.go.jp/28/index.php?action_kouhyou_detail_004_kani=true&JigyosyoCd=2852080064-00&ServiceCd=520&Type=search", "url2": "http://www.athp.jp/kibou.html" }, "geometry": { "type": "Point", "coordinates": [ 134.905888399999981, 34.7222988 ] } },
{ "type": "Feature", "properties": { "内容": "介護老人保健施設　清華苑養力センター【介護老人保健施設】兵庫県明石市大久保町大窪３１０７－５", "url": "https://www.kaigokensaku.mhlw.go.jp/28/index.php?action_kouhyou_detail_004_kani=true&JigyosyoCd=2852080072-00&ServiceCd=520&Type=search", "url2": "http://www.seikaen.jp" }, "geometry": { "type": "Point", "coordinates": [ 134.947162700000035, 34.7081557 ] } },
{ "type": "Feature", "properties": { "内容": "介護老人保健施設　エスポアール遙【介護老人保健施設】兵庫県明石市魚住町清水2183", "url": "https://www.kaigokensaku.mhlw.go.jp/28/index.php?action_kouhyou_detail_004_kani=true&JigyosyoCd=2852080056-00&ServiceCd=520&Type=search", "url2": "http:www.akashidoujin.jp" }, "geometry": { "type": "Point", "coordinates": [ 134.891620500000045, 34.7205601 ] } },
{ "type": "Feature", "properties": { "内容": "介護老人保健施設　ふるさとの家【介護老人保健施設】兵庫県西宮市山口町船坂1825-3", "url": "https://www.kaigokensaku.mhlw.go.jp/28/index.php?action_kouhyou_detail_004_kani=true&JigyosyoCd=2850980117-00&ServiceCd=520&Type=search", "url2": "https://furusato.rouken.jp/" }, "geometry": { "type": "Point", "coordinates": [ 135.287427900000012, 34.8027535 ] } },
{ "type": "Feature", "properties": { "内容": "介護老人保健施設　　陽喜な家【介護老人保健施設】西宮市上ヶ原十番町１番85号", "url": "https://www.kaigokensaku.mhlw.go.jp/28/index.php?action_kouhyou_detail_004_kani=true&JigyosyoCd=2850980042-00&ServiceCd=520&Type=search", "url2": "http://www.uegahara.net" }, "geometry": { "type": "Point", "coordinates": [ 135.339789200000041, 34.7599135 ] } },
{ "type": "Feature", "properties": { "内容": "医療法人　協和会　介護老人保健施設ウエルハウス西宮【介護老人保健施設】兵庫県西宮市西宮浜4丁目１５－１", "url": "https://www.kaigokensaku.mhlw.go.jp/28/index.php?action_kouhyou_detail_004_kani=true&JigyosyoCd=2850980067-00&ServiceCd=520&Type=search", "url2": "https://www.kyowakai.com/wh_nishinomiya" }, "geometry": { "type": "Point", "coordinates": [ 135.331118300000071, 34.712076 ] } },
{ "type": "Feature", "properties": { "内容": "介護老人保健施設清和香櫨園【介護老人保健施設】西宮市弓場町１－１５", "url": "https://www.kaigokensaku.mhlw.go.jp/28/index.php?action_kouhyou_detail_004_kani=true&JigyosyoCd=2850980083-00&ServiceCd=520&Type=search", "url2": "http://www.saso.or.jp/kouroen/" }, "geometry": { "type": "Point", "coordinates": [ 135.32421039999997, 34.7337713 ] } },
{ "type": "Feature", "properties": { "内容": "介護老人保健施設　サン【介護老人保健施設】兵庫県西宮市甲子園口3丁目3−33", "url": "https://www.kaigokensaku.mhlw.go.jp/28/index.php?action_kouhyou_detail_004_kani=true&JigyosyoCd=2870905862-00&ServiceCd=520&Type=search", "url2": "https://www.roken-sun.com" }, "geometry": { "type": "Point", "coordinates": [ 135.373398100000031, 34.738594 ] } },
{ "type": "Feature", "properties": { "内容": "介護老人保健施設　シルバーハウス【介護老人保健施設】兵庫県西宮市塩瀬町生瀬1281番地の5", "url": "https://www.kaigokensaku.mhlw.go.jp/28/index.php?action_kouhyou_detail_004_kani=true&JigyosyoCd=2850980018-00&ServiceCd=520&Type=search", "url2": "http://www.ryokusuikai.or.jp" }, "geometry": { "type": "Point", "coordinates": [ 135.329885699999977, 34.8218201 ] } },
{ "type": "Feature", "properties": { "内容": "西宮市立介護老人保健施設　すこやかケア西宮【介護老人保健施設】兵庫県西宮市林田町7-17", "url": "https://www.kaigokensaku.mhlw.go.jp/28/index.php?action_kouhyou_detail_004_kani=true&JigyosyoCd=2850980034-00&ServiceCd=520&Type=search", "url2": "https://www.nishinomiya-fukushi.jp" }, "geometry": { "type": "Point", "coordinates": [ 135.361026600000059, 34.7574529 ] } },
{ "type": "Feature", "properties": { "内容": "介護老人保健施設　ハートケア西宮わたなべ【介護老人保健施設】西宮市前浜町4-3", "url": "https://www.kaigokensaku.mhlw.go.jp/28/index.php?action_kouhyou_detail_004_kani=true&JigyosyoCd=2850980091-00&ServiceCd=520&Type=search", "url2": "http://www.n-watanabe-hosp.jp/koumeikai/heartcare/" }, "geometry": { "type": "Point", "coordinates": [ 135.333329136245766, 34.727582576072685 ] } },
{ "type": "Feature", "properties": { "内容": "介護老人保健施設　幸泉エルズ【介護老人保健施設】兵庫県西宮市山口町上山口4丁目26番14号", "url": "https://www.kaigokensaku.mhlw.go.jp/28/index.php?action_kouhyou_detail_004_kani=true&JigyosyoCd=2850980026-00&ServiceCd=520&Type=search", "url2": "http://www.else-hp.jp/index.html" }, "geometry": { "type": "Point", "coordinates": [ 135.2465504, 34.8247372 ] } },
{ "type": "Feature", "properties": { "内容": "介護老人保健施設せんけい苑【介護老人保健施設】兵庫県洲本市桑間字太田495-1", "url": "https://www.kaigokensaku.mhlw.go.jp/28/index.php?action_kouhyou_detail_004_kani=true&JigyosyoCd=2851580023-00&ServiceCd=520&Type=search", "url2": "http://senkeien.jp" }, "geometry": { "type": "Point", "coordinates": [ 134.86581229358822, 34.345483146918369 ] } },
{ "type": "Feature", "properties": { "内容": "医療法人昭圭会　介護老人保健施設さくらの園【介護老人保健施設】芦屋市陽光町3番21号", "url": "https://www.kaigokensaku.mhlw.go.jp/28/index.php?action_kouhyou_detail_004_kani=true&JigyosyoCd=2851080016-00&ServiceCd=520&Type=search", "url2": "www.s-ashiyahama-hp.or.jp" }, "geometry": { "type": "Point", "coordinates": [ 135.31406979999997, 34.7128676 ] } },
{ "type": "Feature", "properties": { "内容": "介護老人保健施設　愛しや【介護老人保健施設】兵庫県芦屋市浜風町３１－３", "url": "https://www.kaigokensaku.mhlw.go.jp/28/index.php?action_kouhyou_detail_004_kani=true&JigyosyoCd=2851080040-00&ServiceCd=520&Type=search", "url2": "http://meirinfukushi.or.jp/ashiya/" }, "geometry": { "type": "Point", "coordinates": [ 135.321221799999989, 34.7181227 ] } },
{ "type": "Feature", "properties": { "内容": "エルステイ芦屋【介護老人保健施設】兵庫県芦屋市浜町12番3号", "url": "https://www.kaigokensaku.mhlw.go.jp/28/index.php?action_kouhyou_detail_004_kani=true&JigyosyoCd=2851080024-00&ServiceCd=520&Type=search", "url2": "https://ellehome.jp/" }, "geometry": { "type": "Point", "coordinates": [ 135.31668609999997, 34.725960800000017 ] } },
{ "type": "Feature", "properties": { "内容": "介護老人保健施設グリーンアルス伊丹【介護老人保健施設】伊丹市西野３丁目２４０番地", "url": "https://www.kaigokensaku.mhlw.go.jp/28/index.php?action_kouhyou_detail_004_kani=true&JigyosyoCd=2853380059-00&ServiceCd=520&Type=search", "url2": "http://www.ryokushinkai.jp" }, "geometry": { "type": "Point", "coordinates": [ 135.375474599999961, 34.79083 ] } },
{ "type": "Feature", "properties": { "内容": "介護老人保健施設　伊丹ゆうあい【介護老人保健施設】兵庫県伊丹市荒牧６丁目16-2伊丹ゆうあい", "url": "https://www.kaigokensaku.mhlw.go.jp/28/index.php?action_kouhyou_detail_004_kani=true&JigyosyoCd=2853380042-00&ServiceCd=520&Type=search", "url2": "http://seishokai-gr.or.jp/index.htm" }, "geometry": { "type": "Point", "coordinates": [ 135.387653399999977, 34.8123583 ] } },
{ "type": "Feature", "properties": { "内容": "老人保健施設　ハイマート【介護老人保健施設】相生市若狭野町若狭野235-24", "url": "https://www.kaigokensaku.mhlw.go.jp/28/index.php?action_kouhyou_detail_004_kani=true&JigyosyoCd=2854280027-00&ServiceCd=520&Type=search", "url2": "hai10122@ninus.ocn.ne.jp" }, "geometry": { "type": "Point", "coordinates": [ 134.417601800000057, 34.8258751 ] } },
{ "type": "Feature", "properties": { "内容": "老人保健施設　ハイマート【介護老人保健施設】兵庫県相生市若狭野町若狭野235-24", "url": "https://www.kaigokensaku.mhlw.go.jp/28/index.php?action_kouhyou_detail_004_kani=true&JigyosyoCd=2854280035-00&ServiceCd=520&Type=search", "url2": "hai10122@ninus.ocn.ne.jp" }, "geometry": { "type": "Point", "coordinates": [ 134.417601800000057, 34.8258751 ] } },
{ "type": "Feature", "properties": { "内容": "老人保健施設アルテハイムやまて【介護老人保健施設】兵庫県相生市山手2丁目221番地", "url": "https://www.kaigokensaku.mhlw.go.jp/28/index.php?action_kouhyou_detail_004_kani=true&JigyosyoCd=2854280019-00&ServiceCd=520&Type=search", "url2": "https://hakuyukai-med.or.jp" }, "geometry": { "type": "Point", "coordinates": [ 134.4820952, 34.8218433 ] } },
{ "type": "Feature", "properties": { "内容": "介護老人保健施設　出石愛の園【介護老人保健施設】兵庫県豊岡市出石町福住１３１３", "url": "https://www.kaigokensaku.mhlw.go.jp/28/index.php?action_kouhyou_detail_004_kani=true&JigyosyoCd=2854680010-00&ServiceCd=520&Type=search", "url2": "http://www.izushi-ainosono.com" }, "geometry": { "type": "Point", "coordinates": [ 134.859093, 35.46769 ] } },
{ "type": "Feature", "properties": { "内容": "医療法人敬愛会介護老人保健施設豊岡シルバーステイ【介護老人保健施設】兵庫県豊岡市戸牧1132-2", "url": "https://www.kaigokensaku.mhlw.go.jp/28/index.php?action_kouhyou_detail_004_kani=true&JigyosyoCd=2854480015-00&ServiceCd=520&Type=search", "url2": "http://www.keiai-kai.jp/" }, "geometry": { "type": "Point", "coordinates": [ 134.805047400000035, 35.5278849 ] } },
{ "type": "Feature", "properties": { "内容": "介護老人保健施設　加古川白寿苑【介護老人保健施設】兵庫県加古川市野口町坂井字西ノ大町58-1", "url": "https://www.kaigokensaku.mhlw.go.jp/28/index.php?action_kouhyou_detail_004_kani=true&JigyosyoCd=2852280045-00&ServiceCd=520&Type=search", "url2": "http://www.junshin.or.jp" }, "geometry": { "type": "Point", "coordinates": [ 134.846960638235856, 34.738402668285602 ] } },
{ "type": "Feature", "properties": { "内容": "介護老人保健施設　加古川白寿苑【介護老人保健施設】兵庫県加古川市野口町坂井字西ノ大町58-1", "url": "https://www.kaigokensaku.mhlw.go.jp/28/index.php?action_kouhyou_detail_004_kani=true&JigyosyoCd=2872203548-00&ServiceCd=520&Type=search", "url2": "http://www.junshin.or.jp" }, "geometry": { "type": "Point", "coordinates": [ 134.846659481486085, 34.738257440450674 ] } },
{ "type": "Feature", "properties": { "内容": "介護老人保健施設　ハイムゾンネ宝寿苑【介護老人保健施設】兵庫県加古川市東神吉町神吉７０８－１", "url": "https://www.kaigokensaku.mhlw.go.jp/28/index.php?action_kouhyou_detail_004_kani=true&JigyosyoCd=2852280029-00&ServiceCd=520&Type=search", "url2": "https://kyoritsukai.or.jp/houju/index.html" }, "geometry": { "type": "Point", "coordinates": [ 134.820220800000016, 34.789250099999954 ] } },
{ "type": "Feature", "properties": { "内容": "老人保健施設　緑寿苑【介護老人保健施設】兵庫県加古川市平岡町新在家1197－3", "url": "https://www.kaigokensaku.mhlw.go.jp/28/index.php?action_kouhyou_detail_004_kani=true&JigyosyoCd=2852280037-00&ServiceCd=520&Type=search", "url2": "http://www.tatsumakai.jp" }, "geometry": { "type": "Point", "coordinates": [ 134.870005399999968, 34.7509955 ] } },
{ "type": "Feature", "properties": { "内容": "介護老人保健施設　白寿苑【介護老人保健施設】兵庫県加古川市神野町石守１６３２", "url": "https://www.kaigokensaku.mhlw.go.jp/28/index.php?action_kouhyou_detail_004_kani=true&JigyosyoCd=2852280011-00&ServiceCd=520&Type=search", "url2": "http://www.junshin.or.jp" }, "geometry": { "type": "Point", "coordinates": [ 134.884142399999973, 34.7726266 ] } },
{ "type": "Feature", "properties": { "内容": "介護老人保健施設　伯鳳会プラザ【介護老人保健施設】兵庫県赤穂市片浜町232", "url": "https://www.kaigokensaku.mhlw.go.jp/28/index.php?action_kouhyou_detail_004_kani=true&JigyosyoCd=2854380017-00&ServiceCd=520&Type=search", "url2": "www//hakuho.jp" }, "geometry": { "type": "Point", "coordinates": [ 134.374677099999985, 34.7547087 ] } },
{ "type": "Feature", "properties": { "内容": "介護老人保健施設　伯鳳会プラザ【介護老人保健施設】兵庫県赤穂市片浜町232", "url": "https://www.kaigokensaku.mhlw.go.jp/28/index.php?action_kouhyou_detail_004_kani=true&JigyosyoCd=2854380033-00&ServiceCd=520&Type=search", "url2": "www//hakuho.or.jp" }, "geometry": { "type": "Point", "coordinates": [ 134.3741493, 34.7552225 ] } },
{ "type": "Feature", "properties": { "内容": "赤穂市立介護老人保健施設【介護老人保健施設】兵庫県赤穂市中広１０９２番地", "url": "https://www.kaigokensaku.mhlw.go.jp/28/index.php?action_kouhyou_detail_004_kani=true&JigyosyoCd=2854380025-00&ServiceCd=520&Type=search", "url2": "http://www.amh.ako.hyogo.jp" }, "geometry": { "type": "Point", "coordinates": [ 134.3897207, 34.7427214 ] } },
{ "type": "Feature", "properties": { "内容": "西脇市立老人保健施設しばざくら荘【介護老人保健施設】西脇市上戸田194-1", "url": "https://www.kaigokensaku.mhlw.go.jp/28/index.php?action_kouhyou_detail_004_kani=true&JigyosyoCd=2851880027-00&ServiceCd=520&Type=search", "url2": "URL.http://www.city.nishiwaki.lg.jp/" }, "geometry": { "type": "Point", "coordinates": [ 134.98540950000006, 34.9883617 ] } },
{ "type": "Feature", "properties": { "内容": "介護老人保健施設　西谷憩いの家【介護老人保健施設】兵庫県宝塚市大原野字波坂2-7", "url": "https://www.kaigokensaku.mhlw.go.jp/28/index.php?action_kouhyou_detail_004_kani=true&JigyosyoCd=2851180030-00&ServiceCd=520&Type=search", "url2": "https://www.nisitanikai.jp" }, "geometry": { "type": "Point", "coordinates": [ 135.299208799999974, 34.9092934 ] } },
{ "type": "Feature", "properties": { "内容": "介護老人保健施設ステップハウス宝塚【介護老人保健施設】兵庫県宝塚市小浜４丁目５番６号", "url": "https://www.kaigokensaku.mhlw.go.jp/28/index.php?action_kouhyou_detail_004_kani=true&JigyosyoCd=2851180055-00&ServiceCd=520&Type=search", "url2": "www.takarazuka-fukushi.or.jp/" }, "geometry": { "type": "Point", "coordinates": [ 135.366088900000022, 34.8049558 ] } },
{ "type": "Feature", "properties": { "内容": "介護老人保健施設　エスペランサ【介護老人保健施設】宝塚市山本丸橋2-22-1", "url": "https://www.kaigokensaku.mhlw.go.jp/28/index.php?action_kouhyou_detail_004_kani=true&JigyosyoCd=2851180022-00&ServiceCd=520&Type=search", "url2": "http://www.esperanza.or.jp" }, "geometry": { "type": "Point", "coordinates": [ 135.394761, 34.813386 ] } },
{ "type": "Feature", "properties": { "内容": "介護老人保健施設ケアヴィラ宝塚【介護老人保健施設】兵庫県宝塚市亀井町10-51", "url": "https://www.kaigokensaku.mhlw.go.jp/28/index.php?action_kouhyou_detail_004_kani=true&JigyosyoCd=2851180048-00&ServiceCd=520&Type=search", "url2": "http://www.carevilla.com/takarazuka/" }, "geometry": { "type": "Point", "coordinates": [ 135.363053400000013, 34.7924877 ] } },
{ "type": "Feature", "properties": { "内容": "介護老人保健施設ケアヴィラ宝塚【介護老人保健施設】兵庫県宝塚市亀井町10-51", "url": "https://www.kaigokensaku.mhlw.go.jp/28/index.php?action_kouhyou_detail_004_kani=true&JigyosyoCd=2851180063-00&ServiceCd=520&Type=search", "url2": "http：//www.carevilla.com/takarazuka/" }, "geometry": { "type": "Point", "coordinates": [ 135.363053400000013, 34.7924877 ] } },
{ "type": "Feature", "properties": { "内容": "介護老人保健施設　サンスマイル三木【介護老人保健施設】兵庫県三木市志染町吉田1213-1", "url": "https://www.kaigokensaku.mhlw.go.jp/28/index.php?action_kouhyou_detail_004_kani=true&JigyosyoCd=2852380035-00&ServiceCd=520&Type=search", "url2": "http://www.hoyukai.or.jp/sunsmile/" }, "geometry": { "type": "Point", "coordinates": [ 135.013520005557211, 34.790803461064321 ] } },
{ "type": "Feature", "properties": { "内容": "介護老人保健施設セントクリストファーズホーム【介護老人保健施設】三木市志染町細目字橋ヶ谷２８－２６", "url": "https://www.kaigokensaku.mhlw.go.jp/28/index.php?action_kouhyou_detail_004_kani=true&JigyosyoCd=2852380027-00&ServiceCd=520&Type=search", "url2": "http://www.nogi-hospital.or.jp/" }, "geometry": { "type": "Point", "coordinates": [ 135.025946299999987, 34.7889391 ] } },
{ "type": "Feature", "properties": { "内容": "医療法人社団　仁恵会　介護老人保健施設　サンビラ三木【介護老人保健施設】兵庫県三木市与呂木字高野越６８３－４", "url": "https://www.kaigokensaku.mhlw.go.jp/28/index.php?action_kouhyou_detail_004_kani=true&JigyosyoCd=2852380019-00&ServiceCd=520&Type=search", "url2": "http://www.jinkeikai-group.or.jp/sunvilla/" }, "geometry": { "type": "Point", "coordinates": [ 135.008712095492569, 34.807626243518712 ] } },
{ "type": "Feature", "properties": { "内容": "社会医療法人社団　順心会　介護老人保健施設　高砂白寿苑【介護老人保健施設】兵庫県高砂市北浜町西浜773-1", "url": "https://www.kaigokensaku.mhlw.go.jp/28/index.php?action_kouhyou_detail_004_kani=true&JigyosyoCd=2852180039-00&ServiceCd=520&Type=search", "url2": "http://www.junshin.or.jp" }, "geometry": { "type": "Point", "coordinates": [ 134.7478575, 34.7849426 ] } },
{ "type": "Feature", "properties": { "内容": "介護老人保健施設まごころハーモニー【介護老人保健施設】兵庫県高砂市高砂町松波町440番6介護老人保健施設まごころハーモニー", "url": "https://www.kaigokensaku.mhlw.go.jp/28/index.php?action_kouhyou_detail_004_kani=true&JigyosyoCd=2852180013-00&ServiceCd=520&Type=search", "url2": "http://www.harmony-en.com" }, "geometry": { "type": "Point", "coordinates": [ 134.797734449490378, 34.752155025379579 ] } },
{ "type": "Feature", "properties": { "内容": "介護老人保健施設　播磨高砂苑【介護老人保健施設】高砂市伊保1丁目6-16", "url": "https://www.kaigokensaku.mhlw.go.jp/28/index.php?action_kouhyou_detail_004_kani=true&JigyosyoCd=2852180021-00&ServiceCd=520&Type=search", "url2": "http://www.mycaregarden.jp/sizutanien/pc/" }, "geometry": { "type": "Point", "coordinates": [ 134.7858172, 34.7693953 ] } },
{ "type": "Feature", "properties": { "内容": "介護老人保健施設ウエルハウス川西【介護老人保健施設】川西市中央町１５番２５号", "url": "https://www.kaigokensaku.mhlw.go.jp/28/index.php?action_kouhyou_detail_004_kani=true&JigyosyoCd=2853180012-00&ServiceCd=520&Type=search", "url2": "http://www.kyowakai.com/" }, "geometry": { "type": "Point", "coordinates": [ 135.415308699999969, 34.8308401 ] } },
{ "type": "Feature", "properties": { "内容": "医療法人協和会　介護老人保健施設ウエルハウス清和台【介護老人保健施設】兵庫県川西市清和台東2丁目1番2号", "url": "https://www.kaigokensaku.mhlw.go.jp/28/index.php?action_kouhyou_detail_004_kani=true&JigyosyoCd=2853180020-00&ServiceCd=520&Type=search", "url2": "http://www.kyowakai.com/welhouse-seiwadai/" }, "geometry": { "type": "Point", "coordinates": [ 135.385977799999978, 34.8773214 ] } },
{ "type": "Feature", "properties": { "内容": "介護老人保健施設　薫楓苑【介護老人保健施設】兵庫県小野市復井町1741", "url": "https://www.kaigokensaku.mhlw.go.jp/28/index.php?action_kouhyou_detail_004_kani=true&JigyosyoCd=2851980033-00&ServiceCd=520&Type=search", "url2": "http://kunpu-en.jp/" }, "geometry": { "type": "Point", "coordinates": [ 134.9273057, 34.9060383 ] } },
{ "type": "Feature", "properties": { "内容": "介護老人保健施設　シルバーランド【介護老人保健施設】小野市葉多町２６１－１", "url": "https://www.kaigokensaku.mhlw.go.jp/28/index.php?action_kouhyou_detail_004_kani=true&JigyosyoCd=2851980017-00&ServiceCd=520&Type=search", "url2": "https://silverland.or.jp/" }, "geometry": { "type": "Point", "coordinates": [ 134.920829799999979, 34.8476047 ] } },
{ "type": "Feature", "properties": { "内容": "介護老人保健施設　オパール【介護老人保健施設】兵庫県小野市復井町９１６－１", "url": "https://www.kaigokensaku.mhlw.go.jp/28/index.php?action_kouhyou_detail_004_kani=true&JigyosyoCd=2851980025-00&ServiceCd=520&Type=search", "url2": "https://seizankai-mc.com/" }, "geometry": { "type": "Point", "coordinates": [ 134.935187700000029, 34.8995327 ] } },
{ "type": "Feature", "properties": { "内容": "三田温泉シルバーステイ【介護老人保健施設】兵庫県三田市東山897-1", "url": "https://www.kaigokensaku.mhlw.go.jp/28/index.php?action_kouhyou_detail_004_kani=true&JigyosyoCd=2851280012-00&ServiceCd=520&Type=search", "url2": "http://www.keiai-kai.jp/" }, "geometry": { "type": "Point", "coordinates": [ 135.191522099999929, 34.9411978 ] } },
{ "type": "Feature", "properties": { "内容": "介護老人保健施設アルカディア【介護老人保健施設】兵庫県三田市東本庄2493番地", "url": "https://www.kaigokensaku.mhlw.go.jp/28/index.php?action_kouhyou_detail_004_kani=true&JigyosyoCd=2851280020-00&ServiceCd=520&Type=search", "url2": "https://ainokai.jp" }, "geometry": { "type": "Point", "coordinates": [ 135.161933099999942, 34.9514651 ] } },
{ "type": "Feature", "properties": { "内容": "介護老人保健施設　愛【介護老人保健施設】兵庫県三田市東本庄1188番地", "url": "https://www.kaigokensaku.mhlw.go.jp/28/index.php?action_kouhyou_detail_004_kani=true&JigyosyoCd=2851280038-00&ServiceCd=520&Type=search", "url2": "https://www.hirakataryoiku-med.or.jp/sanda/ai/" }, "geometry": { "type": "Point", "coordinates": [ 135.164265885041772, 34.955583906686016 ] } },
{ "type": "Feature", "properties": { "内容": "介護老人保健施設　加西シニアコミュニティ【介護老人保健施設】兵庫県加西市中西町字広野616-1", "url": "https://www.kaigokensaku.mhlw.go.jp/28/index.php?action_kouhyou_detail_004_kani=true&JigyosyoCd=2852680012-00&ServiceCd=520&Type=search", "url2": null }, "geometry": { "type": "Point", "coordinates": [ 134.841786, 34.8948679 ] } },
{ "type": "Feature", "properties": { "内容": "介護老人保健施設　　加西白寿苑【介護老人保健施設】北条町東高室字四ツ池1231-1", "url": "https://www.kaigokensaku.mhlw.go.jp/28/index.php?action_kouhyou_detail_004_kani=true&JigyosyoCd=2852680053-00&ServiceCd=520&Type=search", "url2": "kasaihaku@junshin.or.jp" }, "geometry": { "type": "Point", "coordinates": [ 134.839505599999939, 34.9143128 ] } },
{ "type": "Feature", "properties": { "内容": "介護老人保健施設　咲楽荘【介護老人保健施設】兵庫県丹波篠山市東吹976-1", "url": "https://www.kaigokensaku.mhlw.go.jp/28/index.php?action_kouhyou_detail_004_kani=true&JigyosyoCd=2851480018-00&ServiceCd=520&Type=search", "url2": "http://www.kiyoukai.com" }, "geometry": { "type": "Point", "coordinates": [ 135.199025, 35.0702278 ] } },
{ "type": "Feature", "properties": { "内容": "兵庫医科大学ささやま老人保健施設【介護老人保健施設】兵庫県丹波篠山市黒岡36番地", "url": "https://www.kaigokensaku.mhlw.go.jp/28/index.php?action_kouhyou_detail_004_kani=true&JigyosyoCd=2851480026-00&ServiceCd=520&Type=search", "url2": "http://www.sasayama.hyo-med.ac.jp/health_service.html" }, "geometry": { "type": "Point", "coordinates": [ 135.21524260000001, 35.0798242 ] } },
{ "type": "Feature", "properties": { "内容": "公立八鹿病院　老人保健施設【介護老人保健施設】兵庫県養父市八鹿町下網場413番地", "url": "https://www.kaigokensaku.mhlw.go.jp/28/index.php?action_kouhyou_detail_004_kani=true&JigyosyoCd=2854880016-00&ServiceCd=520&Type=search", "url2": "http://www.hosp.yoka.hyogo.jp/kaigorouken" }, "geometry": { "type": "Point", "coordinates": [ 134.774254, 35.4041462 ] } },
{ "type": "Feature", "properties": { "内容": "老人保健施設　さんなん桜の里【介護老人保健施設】兵庫県丹波市山南町野坂211番地5", "url": "https://www.kaigokensaku.mhlw.go.jp/28/index.php?action_kouhyou_detail_004_kani=true&JigyosyoCd=2851380028-00&ServiceCd=520&Type=search", "url2": "http://www.seihoukai.com/sannan/" }, "geometry": { "type": "Point", "coordinates": [ 135.000884300000052, 35.0854107 ] } },
{ "type": "Feature", "properties": { "内容": "医療法人敬愛会　介護老人保健施設ひかみシルバーステイ【介護老人保健施設】兵庫県丹波市氷上町絹山５２３", "url": "https://www.kaigokensaku.mhlw.go.jp/28/index.php?action_kouhyou_detail_004_kani=true&JigyosyoCd=2851380010-00&ServiceCd=520&Type=search", "url2": "http://www.otsuka-hp.or.jp/" }, "geometry": { "type": "Point", "coordinates": [ 135.047941199999968, 35.1978337 ] } },
{ "type": "Feature", "properties": { "内容": "老人保健施設ひまわり【介護老人保健施設】兵庫県南あわじ市八木寺内347-4", "url": "https://www.kaigokensaku.mhlw.go.jp/28/index.php?action_kouhyou_detail_004_kani=true&JigyosyoCd=2851780045-00&ServiceCd=520&Type=search", "url2": "https://yagi-hp.com/pages/57/" }, "geometry": { "type": "Point", "coordinates": [ 134.797732, 34.2798744 ] } },
{ "type": "Feature", "properties": { "内容": "介護老人保健施設　ケアホーム南淡路【介護老人保健施設】兵庫県南あわじ市賀集福井564-7", "url": "https://www.kaigokensaku.mhlw.go.jp/28/index.php?action_kouhyou_detail_004_kani=true&JigyosyoCd=2851780037-00&ServiceCd=520&Type=search", "url2": "https://www.minamiawaji.rouken.jp/" }, "geometry": { "type": "Point", "coordinates": [ 134.753003400000011, 34.2595885 ] } },
{ "type": "Feature", "properties": { "内容": "介護老人保健施設　あさご長寿苑【介護老人保健施設】兵庫県朝来市多々良木1523", "url": "https://www.kaigokensaku.mhlw.go.jp/28/index.php?action_kouhyou_detail_004_kani=true&JigyosyoCd=2854980014-00&ServiceCd=520&Type=search", "url2": "http://www.shunjin-kai.or.jp/" }, "geometry": { "type": "Point", "coordinates": [ 134.812947399999985, 35.2447289 ] } },
{ "type": "Feature", "properties": { "内容": "介護老人保健施設　ケアホーム東浦【介護老人保健施設】兵庫県淡路市久留麻1869", "url": "https://www.kaigokensaku.mhlw.go.jp/28/index.php?action_kouhyou_detail_004_kani=true&JigyosyoCd=2851680021-00&ServiceCd=520&Type=search", "url2": "https://www.higashiura.rouken.jp/" }, "geometry": { "type": "Point", "coordinates": [ 134.986665300000027, 34.5244293 ] } },
{ "type": "Feature", "properties": { "内容": "介護老人保健施設　淡路白寿苑【介護老人保健施設】兵庫県淡路市大町畑584-6", "url": "https://www.kaigokensaku.mhlw.go.jp/28/index.php?action_kouhyou_detail_004_kani=true&JigyosyoCd=2851680013-00&ServiceCd=520&Type=search", "url2": "https://www.junshin.or.jp/tsunahakujuen.html" }, "geometry": { "type": "Point", "coordinates": [ 134.8625093, 34.4278799 ] } },
{ "type": "Feature", "properties": { "内容": "老人保健施設むつみ園【介護老人保健施設】兵庫県宍粟市波賀町飯見36-30", "url": "https://www.kaigokensaku.mhlw.go.jp/28/index.php?action_kouhyou_detail_004_kani=true&JigyosyoCd=2853880017-00&ServiceCd=520&Type=search", "url2": "http://www.mutsumien.jp/" }, "geometry": { "type": "Point", "coordinates": [ 134.542345299999965, 35.1715323 ] } },
{ "type": "Feature", "properties": { "内容": "介護老人保健施設ｻﾝｽﾏｲﾙ北野【介護老人保健施設】兵庫県加東市北野55番地1", "url": "https://www.kaigokensaku.mhlw.go.jp/28/index.php?action_kouhyou_detail_004_kani=true&JigyosyoCd=2852580030-00&ServiceCd=520&Type=search", "url2": "http://kasuganokai.com/sskitano/" }, "geometry": { "type": "Point", "coordinates": [ 134.9544889, 34.9340129 ] } },
{ "type": "Feature", "properties": { "内容": "加東市介護老人保健施設ケアホームかとう【介護老人保健施設】兵庫県加東市家原130番地", "url": "https://www.kaigokensaku.mhlw.go.jp/28/index.php?action_kouhyou_detail_004_kani=true&JigyosyoCd=2852500012-00&ServiceCd=520&Type=search", "url2": "https://www.city.kato.lg.jp/" }, "geometry": { "type": "Point", "coordinates": [ 134.96234430859829, 34.923087236205248 ] } },
{ "type": "Feature", "properties": { "内容": "老人保健施設　旭陽【介護老人保健施設】たつの市揖西町小神字塚原１５５６－１", "url": "https://www.kaigokensaku.mhlw.go.jp/28/index.php?action_kouhyou_detail_004_kani=true&JigyosyoCd=2853680011-00&ServiceCd=520&Type=search", "url2": "http//www.kuwanomien.jp/" }, "geometry": { "type": "Point", "coordinates": [ 134.533030599999961, 34.8603788 ] } },
{ "type": "Feature", "properties": { "内容": "介護老人保健施設　シルバーケア揖保川【介護老人保健施設】兵庫県たつの市揖保川町半田７０３番地１シルバーケア揖保川", "url": "https://www.kaigokensaku.mhlw.go.jp/28/index.php?action_kouhyou_detail_004_kani=true&JigyosyoCd=2854180037-00&ServiceCd=520&Type=search", "url2": "https://www.ibogawa-hospital.jp/silvercare/index.html" }, "geometry": { "type": "Point", "coordinates": [ 134.537348763368186, 34.846821930970457 ] } },
{ "type": "Feature", "properties": { "内容": "介護老人保健施設せいふう猪名川【介護老人保健施設】兵庫県川辺郡猪名川町北田原字屏風岳３番地", "url": "https://www.kaigokensaku.mhlw.go.jp/28/index.php?action_kouhyou_detail_004_kani=true&JigyosyoCd=2853280010-00&ServiceCd=520&Type=search", "url2": "https://www.seifu-inagawa-rk.jp/" }, "geometry": { "type": "Point", "coordinates": [ 135.359180199999969, 34.9168353 ] } },
{ "type": "Feature", "properties": { "内容": "小規模介護老人保健施設ふれあい大島【介護老人保健施設】兵庫県川辺郡猪名川町鎌倉字横大道20番地の2", "url": "https://www.kaigokensaku.mhlw.go.jp/28/index.php?action_kouhyou_detail_004_kani=true&JigyosyoCd=2853280028-00&ServiceCd=520&Type=search", "url2": "https://www.fureaioshima-rk.jp/" }, "geometry": { "type": "Point", "coordinates": [ 135.328249199999959, 34.9798704 ] } },
{ "type": "Feature", "properties": { "内容": "介護老人保健施設せいふう若葉【介護老人保健施設】柏梨田字イハノ谷250番地", "url": "https://www.kaigokensaku.mhlw.go.jp/28/index.php?action_kouhyou_detail_004_kani=true&JigyosyoCd=2853280036-00&ServiceCd=520&Type=search", "url2": "https://www.seifu-wakaba-rk.jp/" }, "geometry": { "type": "Point", "coordinates": [ 135.372004, 34.899048 ] } },
{ "type": "Feature", "properties": { "内容": "多可赤十字老人保健施設【介護老人保健施設】兵庫県多可郡多可町中区岸上２８０－１９", "url": "https://www.kaigokensaku.mhlw.go.jp/28/index.php?action_kouhyou_detail_004_kani=true&JigyosyoCd=2852780010-00&ServiceCd=520&Type=search", "url2": "http://www.taka.jrc.or.jp" }, "geometry": { "type": "Point", "coordinates": [ 134.923311399999989, 35.0541206 ] } },
{ "type": "Feature", "properties": { "内容": "介護老人保健施設　サンライズ【介護老人保健施設】兵庫県加古郡稲美町国安１２３７番地", "url": "https://www.kaigokensaku.mhlw.go.jp/28/index.php?action_kouhyou_detail_004_kani=true&JigyosyoCd=2852880018-00&ServiceCd=520&Type=search", "url2": "https://hinode.or.jp/establishment/sunrize/" }, "geometry": { "type": "Point", "coordinates": [ 134.917472800000041, 34.7464658 ] } },
{ "type": "Feature", "properties": { "内容": "介護老人保健施設　かみかわ【介護老人保健施設】兵庫県神崎郡神河町粟賀町４２２番地", "url": "https://www.kaigokensaku.mhlw.go.jp/28/index.php?action_kouhyou_detail_004_kani=true&JigyosyoCd=2853480032-00&ServiceCd=520&Type=search", "url2": "http/www.hakuho.or.jp/" }, "geometry": { "type": "Point", "coordinates": [ 134.772116200000028, 35.0675686 ] } },
{ "type": "Feature", "properties": { "内容": "介護老人保健施設　　高嶺の郷【介護老人保健施設】兵庫県赤穂郡上郡町山野里２３０５番地１", "url": "https://www.kaigokensaku.mhlw.go.jp/28/index.php?action_kouhyou_detail_004_kani=true&JigyosyoCd=2853980015-00&ServiceCd=520&Type=search", "url2": "https://youandi.takaminefukusikai.com/" }, "geometry": { "type": "Point", "coordinates": [ 134.350725799999964, 34.869544 ] } },
{ "type": "Feature", "properties": { "内容": "介護老人保健施設　浩陽園【介護老人保健施設】兵庫県佐用郡佐用町佐用3529番地3", "url": "https://www.kaigokensaku.mhlw.go.jp/28/index.php?action_kouhyou_detail_004_kani=true&JigyosyoCd=2853780027-00&ServiceCd=520&Type=search", "url2": "http://www.sayochuo-hospital.or.jp" }, "geometry": { "type": "Point", "coordinates": [ 134.365844700000025, 35.0079872 ] } },
{ "type": "Feature", "properties": { "内容": "老人保健施設　ハイム・ゾンネ【介護老人保健施設】兵庫県佐用郡佐用町林崎662番３", "url": "https://www.kaigokensaku.mhlw.go.jp/28/index.php?action_kouhyou_detail_004_kani=true&JigyosyoCd=2853780019-00&ServiceCd=520&Type=search", "url2": "http://www.heiseihukusi.or.jp/" }, "geometry": { "type": "Point", "coordinates": [ 134.39465169999994, 34.992331 ] } },
{ "type": "Feature", "properties": { "内容": "公立香住病院介護老人保健施設「ゆうすげ」【介護老人保健施設】兵庫県美方郡香美町香住区若松540", "url": "https://www.kaigokensaku.mhlw.go.jp/28/index.php?action_kouhyou_detail_004_kani=true&JigyosyoCd=2854780034-00&ServiceCd=520&Type=search", "url2": null }, "geometry": { "type": "Point", "coordinates": [ 134.63380810000001, 35.6432513 ] } },
{ "type": "Feature", "properties": { "内容": "介護老人保健施設ささゆり【介護老人保健施設】兵庫県美方郡新温泉町二日市177", "url": "https://www.kaigokensaku.mhlw.go.jp/28/index.php?action_kouhyou_detail_004_kani=true&JigyosyoCd=2854780026-00&ServiceCd=520&Type=search", "url2": "http://www.town.shinonsen.hyogo.jp/" }, "geometry": { "type": "Point", "coordinates": [ 134.476328200000012, 35.6188102 ] } }
]
}
