{
"type": "FeatureCollection",
"name": "geo_28_特定福祉用具販売",
"crs": { "type": "name", "properties": { "name": "urn:ogc:def:crs:OGC:1.3:CRS84" } },
"features": [
{ "type": "Feature", "properties": { "内容": "コープリビング甲南　は～とらんど【特定福祉用具販売】兵庫県神戸市東灘区甲南町　２－１－２０", "url": "https://www.kaigokensaku.mhlw.go.jp/28/index.php?action_kouhyou_detail_004_kani=true&JigyosyoCd=2870100423-00&ServiceCd=410&Type=search", "url2": "http://www.kobe.coop.or.jp/" }, "geometry": { "type": "Point", "coordinates": [ 135.276209599999987, 34.7222526 ] } },
{ "type": "Feature", "properties": { "内容": "有限会社　クラウド【特定福祉用具販売】神戸市東灘区御影中町1-14-10-204", "url": "https://www.kaigokensaku.mhlw.go.jp/28/index.php?action_kouhyou_detail_004_kani=true&JigyosyoCd=2870100613-00&ServiceCd=410&Type=search", "url2": null }, "geometry": { "type": "Point", "coordinates": [ 135.256036499999936, 34.7167363 ] } },
{ "type": "Feature", "properties": { "内容": "株式会社　フロンティア　神戸営業所【特定福祉用具販売】兵庫県神戸市東灘区向洋町中６－９神戸ﾌｧｯｼｮﾝﾏｰﾄ６N－０５", "url": "https://www.kaigokensaku.mhlw.go.jp/28/index.php?action_kouhyou_detail_004_kani=true&JigyosyoCd=2870102619-00&ServiceCd=410&Type=search", "url2": "http://www.frontier-ph.com" }, "geometry": { "type": "Point", "coordinates": [ 135.268169199999988, 34.6892169 ] } },
{ "type": "Feature", "properties": { "内容": "介護ショップひまわり東神戸店【特定福祉用具販売】兵庫県神戸市東灘区御影石町1-5-3", "url": "https://www.kaigokensaku.mhlw.go.jp/28/index.php?action_kouhyou_detail_004_kani=true&JigyosyoCd=2870103393-00&ServiceCd=410&Type=search", "url2": "https://www.himawari200207.com/" }, "geometry": { "type": "Point", "coordinates": [ 135.25284534047546, 34.709801793127902 ] } },
{ "type": "Feature", "properties": { "内容": "神戸福祉工務店【特定福祉用具販売】青木2-8-1", "url": "https://www.kaigokensaku.mhlw.go.jp/28/index.php?action_kouhyou_detail_004_kani=true&JigyosyoCd=2870102585-00&ServiceCd=410&Type=search", "url2": null }, "geometry": { "type": "Point", "coordinates": [ 139.726507099999907, 35.8083406 ] } },
{ "type": "Feature", "properties": { "内容": "株式会社KAIO【特定福祉用具販売】兵庫県神戸市東灘区御影中町1丁目7-27ｷｬｯｽﾙﾊｲﾂ御影102", "url": "https://www.kaigokensaku.mhlw.go.jp/28/index.php?action_kouhyou_detail_004_kani=true&JigyosyoCd=2870102726-00&ServiceCd=410&Type=search", "url2": null }, "geometry": { "type": "Point", "coordinates": [ 135.2579697, 34.7156059 ] } },
{ "type": "Feature", "properties": { "内容": "ライフライン　メディカルケア【特定福祉用具販売】住吉南町3-2-23", "url": "https://www.kaigokensaku.mhlw.go.jp/28/index.php?action_kouhyou_detail_004_kani=true&JigyosyoCd=2870102833-00&ServiceCd=410&Type=search", "url2": "https://www.:lifeline.ne.jp" }, "geometry": { "type": "Point", "coordinates": [ 135.263861460968087, 34.711629934981175 ] } },
{ "type": "Feature", "properties": { "内容": "ひより【特定福祉用具販売】住吉宮町6-8-11", "url": "https://www.kaigokensaku.mhlw.go.jp/28/index.php?action_kouhyou_detail_004_kani=true&JigyosyoCd=2870103310-00&ServiceCd=410&Type=search", "url2": null }, "geometry": { "type": "Point", "coordinates": [ 135.2606845, 34.7163023 ] } },
{ "type": "Feature", "properties": { "内容": "介護ショップきらり【特定福祉用具販売】兵庫県神戸市東灘区本山南町7丁目4番18号104号室", "url": "https://www.kaigokensaku.mhlw.go.jp/28/index.php?action_kouhyou_detail_004_kani=true&JigyosyoCd=2870103583-00&ServiceCd=410&Type=search", "url2": "https://twitter.com/kirari_kaigo" }, "geometry": { "type": "Point", "coordinates": [ 135.2848826, 34.7247724 ] } },
{ "type": "Feature", "properties": { "内容": "株式会社森川貫一商店【特定福祉用具販売】住吉南町4丁目1番7号", "url": "https://www.kaigokensaku.mhlw.go.jp/28/index.php?action_kouhyou_detail_004_kani=true&JigyosyoCd=2870104094-00&ServiceCd=410&Type=search", "url2": "https://www.morikan-kobe.com/" }, "geometry": { "type": "Point", "coordinates": [ 135.2606989, 34.7079083 ] } },
{ "type": "Feature", "properties": { "内容": "株式会社トーカイ　東灘営業所【特定福祉用具販売】兵庫県神戸市東灘区北青木２－１－２", "url": "https://www.kaigokensaku.mhlw.go.jp/28/index.php?action_kouhyou_detail_004_kani=true&JigyosyoCd=2870101918-00&ServiceCd=410&Type=search", "url2": "http://www.tokai-corp.com/" }, "geometry": { "type": "Point", "coordinates": [ 135.284914800000024, 34.7200753 ] } },
{ "type": "Feature", "properties": { "内容": "近鉄スマイルライフ　神戸支店【特定福祉用具販売】兵庫県神戸市東灘区住吉宮町1-21-16COM20　B室", "url": "https://www.kaigokensaku.mhlw.go.jp/28/index.php?action_kouhyou_detail_004_kani=true&JigyosyoCd=2870102817-00&ServiceCd=410&Type=search", "url2": "https://www.k-smile.com" }, "geometry": { "type": "Point", "coordinates": [ 135.262580500000013, 34.7132895 ] } },
{ "type": "Feature", "properties": { "内容": "福祉用具スリール【特定福祉用具販売】兵庫県神戸市灘区備後町5-3-1ウェルブ1番街　309号", "url": "https://www.kaigokensaku.mhlw.go.jp/28/index.php?action_kouhyou_detail_004_kani=true&JigyosyoCd=2870201767-00&ServiceCd=410&Type=search", "url2": null }, "geometry": { "type": "Point", "coordinates": [ 135.238002276007137, 34.713622735707915 ] } },
{ "type": "Feature", "properties": { "内容": "ダスキンヘルスレント神戸東ステーション【特定福祉用具販売】徳井町4丁目2-18徳井ハイツ1階", "url": "https://www.kaigokensaku.mhlw.go.jp/28/index.php?action_kouhyou_detail_004_kani=true&JigyosyoCd=2870202252-00&ServiceCd=410&Type=search", "url2": "http://healthrent.duskin.jp/" }, "geometry": { "type": "Point", "coordinates": [ 135.244972794809456, 34.714881114389023 ] } },
{ "type": "Feature", "properties": { "内容": "れんたる本舗【特定福祉用具販売】兵庫県神戸市灘区上河原通三丁目４番１４号メゾン・六甲・パートⅠ　３０５号室", "url": "https://www.kaigokensaku.mhlw.go.jp/28/index.php?action_kouhyou_detail_004_kani=true&JigyosyoCd=2870203060-00&ServiceCd=410&Type=search", "url2": null }, "geometry": { "type": "Point", "coordinates": [ 135.231345069311516, 34.712208187412713 ] } },
{ "type": "Feature", "properties": { "内容": "ケアサポート西本　六甲営業所【特定福祉用具販売】深田町4丁目1番地１ウェルブ六甲道２番街２階", "url": "https://www.kaigokensaku.mhlw.go.jp/28/index.php?action_kouhyou_detail_004_kani=true&JigyosyoCd=2870203276-00&ServiceCd=410&Type=search", "url2": "http://www.nishimoto-kobe.com/" }, "geometry": { "type": "Point", "coordinates": [ 135.2392219, 34.714032 ] } },
{ "type": "Feature", "properties": { "内容": "株式会社ゴトウ・アズ・プランニング甲南営業所【特定福祉用具販売】兵庫県神戸市灘区弓木町5丁目１番167号", "url": "https://www.kaigokensaku.mhlw.go.jp/28/index.php?action_kouhyou_detail_004_kani=true&JigyosyoCd=2870203243-00&ServiceCd=410&Type=search", "url2": "https://www.goto-az.co.jp" }, "geometry": { "type": "Point", "coordinates": [ 135.242789499999986, 34.7176762 ] } },
{ "type": "Feature", "properties": { "内容": "株式会社神戸レンタル　神戸支店【特定福祉用具販売】船寺通5丁目3番8号藤中ビル", "url": "https://www.kaigokensaku.mhlw.go.jp/28/index.php?action_kouhyou_detail_004_kani=true&JigyosyoCd=2870202518-00&ServiceCd=410&Type=search", "url2": "https://kobe-rental.net" }, "geometry": { "type": "Point", "coordinates": [ 135.224200381597342, 34.7063180637331 ] } },
{ "type": "Feature", "properties": { "内容": "ハーゼケア【特定福祉用具販売】兵庫県神戸市灘区船寺通1丁目3-9", "url": "https://www.kaigokensaku.mhlw.go.jp/28/index.php?action_kouhyou_detail_004_kani=true&JigyosyoCd=2870203268-00&ServiceCd=410&Type=search", "url2": null }, "geometry": { "type": "Point", "coordinates": [ 135.230296089587597, 34.707294431734056 ] } },
{ "type": "Feature", "properties": { "内容": "楽舗【特定福祉用具販売】兵庫県神戸市灘区水道筋4-3-3メディア・ルナ", "url": "https://www.kaigokensaku.mhlw.go.jp/28/index.php?action_kouhyou_detail_004_kani=true&JigyosyoCd=2870203003-00&ServiceCd=410&Type=search", "url2": null }, "geometry": { "type": "Point", "coordinates": [ 135.2228432, 34.7124831 ] } },
{ "type": "Feature", "properties": { "内容": "神戸メディケア【特定福祉用具販売】七宮町１丁目４－２１", "url": "https://www.kaigokensaku.mhlw.go.jp/28/index.php?action_kouhyou_detail_004_kani=true&JigyosyoCd=2870503501-00&ServiceCd=410&Type=search", "url2": null }, "geometry": { "type": "Point", "coordinates": [ 135.177362, 34.6716998 ] } },
{ "type": "Feature", "properties": { "内容": "株式会社ライフケア神戸支店【特定福祉用具販売】神戸市兵庫区三川口町1-1-35", "url": "https://www.kaigokensaku.mhlw.go.jp/28/index.php?action_kouhyou_detail_004_kani=true&JigyosyoCd=2870502503-00&ServiceCd=410&Type=search", "url2": "http://lifecare-ok.co.jp/" }, "geometry": { "type": "Point", "coordinates": [ 135.1723551, 34.6708875 ] } },
{ "type": "Feature", "properties": { "内容": "株式会社高城　タカジョウメディカル事業本部【特定福祉用具販売】神戸市兵庫区東山町2丁目4番2号", "url": "https://www.kaigokensaku.mhlw.go.jp/28/index.php?action_kouhyou_detail_004_kani=true&JigyosyoCd=2870500127-00&ServiceCd=410&Type=search", "url2": "http://www.takajyo.biz" }, "geometry": { "type": "Point", "coordinates": [ 135.163483300000053, 34.6818473 ] } },
{ "type": "Feature", "properties": { "内容": "すいーとぴーひょうご【特定福祉用具販売】神戸市兵庫区湊町1丁目3-6ライオンズマンション神戸湊町公園203号", "url": "https://www.kaigokensaku.mhlw.go.jp/28/index.php?action_kouhyou_detail_004_kani=true&JigyosyoCd=2870501935-00&ServiceCd=410&Type=search", "url2": null }, "geometry": { "type": "Point", "coordinates": [ 135.173833300000041, 34.67447360000002 ] } },
{ "type": "Feature", "properties": { "内容": "スミリンケアライフ株式会社　介護ショップてとて【特定福祉用具販売】兵庫県神戸市兵庫区荒田町1-12-15湊川サンクレバー1階", "url": "https://www.kaigokensaku.mhlw.go.jp/28/index.php?action_kouhyou_detail_004_kani=true&JigyosyoCd=2870502404-00&ServiceCd=410&Type=search", "url2": "https://www.s-calife/co/jp" }, "geometry": { "type": "Point", "coordinates": [ 135.167841299999964, 34.681353 ] } },
{ "type": "Feature", "properties": { "内容": "フランスベッド株式会社　メディカル神戸営業所【特定福祉用具販売】兵庫県神戸市兵庫区七宮町1-3-10", "url": "https://www.kaigokensaku.mhlw.go.jp/28/index.php?action_kouhyou_detail_004_kani=true&JigyosyoCd=2870502602-00&ServiceCd=410&Type=search", "url2": "http://www.francebed.co.jp" }, "geometry": { "type": "Point", "coordinates": [ 135.177788100000043, 34.671582 ] } },
{ "type": "Feature", "properties": { "内容": "バージー合同会社【特定福祉用具販売】吉田町2-35-6エクセルスカイ御崎公園４０３号室", "url": "https://www.kaigokensaku.mhlw.go.jp/28/index.php?action_kouhyou_detail_004_kani=true&JigyosyoCd=2870503246-00&ServiceCd=410&Type=search", "url2": null }, "geometry": { "type": "Point", "coordinates": [ 135.168427089875536, 34.65462126224061 ] } },
{ "type": "Feature", "properties": { "内容": "アースサポート神戸【特定福祉用具販売】兵庫県神戸市兵庫区荒田町1丁目10番5号", "url": "https://www.kaigokensaku.mhlw.go.jp/28/index.php?action_kouhyou_detail_004_kani=true&JigyosyoCd=2870503824-00&ServiceCd=410&Type=search", "url2": "http://www.earthsupport.co.jp" }, "geometry": { "type": "Point", "coordinates": [ 135.1683442, 34.6805977 ] } },
{ "type": "Feature", "properties": { "内容": "福祉用具サービスぐっどけあ【特定福祉用具販売】兵庫県神戸市兵庫区菊水町8丁目2-1", "url": "https://www.kaigokensaku.mhlw.go.jp/28/index.php?action_kouhyou_detail_004_kani=true&JigyosyoCd=2870503220-00&ServiceCd=410&Type=search", "url2": "http://hp.kaipoke.biz/rek/index.html" }, "geometry": { "type": "Point", "coordinates": [ 135.158103100000062, 34.6834804 ] } },
{ "type": "Feature", "properties": { "内容": "ヒゴケン福祉用具事業所【特定福祉用具販売】兵庫県神戸市兵庫区塚本通7丁目1₋14OEビルディング402", "url": "https://www.kaigokensaku.mhlw.go.jp/28/index.php?action_kouhyou_detail_004_kani=true&JigyosyoCd=2870503873-00&ServiceCd=410&Type=search", "url2": "http://hm-labo.jp/" }, "geometry": { "type": "Point", "coordinates": [ 135.163074522090113, 34.669516104501142 ] } },
{ "type": "Feature", "properties": { "内容": "株式会社　ヤマシタ　神戸営業所【特定福祉用具販売】兵庫県神戸市兵庫区中道通4-1-10", "url": "https://www.kaigokensaku.mhlw.go.jp/28/index.php?action_kouhyou_detail_004_kani=true&JigyosyoCd=2870502990-00&ServiceCd=410&Type=search", "url2": "http://www.yco.co.jp/" }, "geometry": { "type": "Point", "coordinates": [ 135.164255499999967, 34.6744619 ] } },
{ "type": "Feature", "properties": { "内容": "ニッシンケアサービス【特定福祉用具販売】兵庫県神戸市兵庫区塚本通1丁目2-2", "url": "https://www.kaigokensaku.mhlw.go.jp/28/index.php?action_kouhyou_detail_004_kani=true&JigyosyoCd=2870504285-00&ServiceCd=410&Type=search", "url2": "https://nisshin-care.co.jp/" }, "geometry": { "type": "Point", "coordinates": [ 135.1689063, 34.6740086 ] } },
{ "type": "Feature", "properties": { "内容": "高齢者生協こうべ【特定福祉用具販売】神戸市兵庫区下三条町8-20", "url": "https://www.kaigokensaku.mhlw.go.jp/28/index.php?action_kouhyou_detail_004_kani=true&JigyosyoCd=2870501026-00&ServiceCd=410&Type=search", "url2": "http://www.kourei-h.org/" }, "geometry": { "type": "Point", "coordinates": [ 135.1674246, 34.6899549 ] } },
{ "type": "Feature", "properties": { "内容": "パナソニックエイジフリーショップ神戸【特定福祉用具販売】兵庫県神戸市兵庫区島上町１丁目４－１１柏木ビル２階", "url": "https://www.kaigokensaku.mhlw.go.jp/28/index.php?action_kouhyou_detail_004_kani=true&JigyosyoCd=2870501356-00&ServiceCd=410&Type=search", "url2": "https://sumai.panasonic.jp/agefree/map/detail.php?id=219" }, "geometry": { "type": "Point", "coordinates": [ 135.1762923, 34.6692512 ] } },
{ "type": "Feature", "properties": { "内容": "アイビーメディカル株式会社　福祉用具貸与・販売事業所【特定福祉用具販売】兵庫県神戸市長田区御蔵通5-205-3長田すみれビル", "url": "https://www.kaigokensaku.mhlw.go.jp/28/index.php?action_kouhyou_detail_004_kani=true&JigyosyoCd=2870602899-00&ServiceCd=410&Type=search", "url2": "http://www.ivy-medical-care-support.jp/" }, "geometry": { "type": "Point", "coordinates": [ 135.153831399999945, 34.664757 ] } },
{ "type": "Feature", "properties": { "内容": "介護しょっぷ　愛の園【特定福祉用具販売】兵庫県神戸市長田区大塚町５丁目１番７号", "url": "https://www.kaigokensaku.mhlw.go.jp/28/index.php?action_kouhyou_detail_004_kani=true&JigyosyoCd=2870602618-00&ServiceCd=410&Type=search", "url2": "http://www.ainosono.jp" }, "geometry": { "type": "Point", "coordinates": [ 135.147217157672117, 34.673139444260386 ] } },
{ "type": "Feature", "properties": { "内容": "メゾンデール福祉用具サービス【特定福祉用具販売】神戸市長田区腕塚町６丁目１－１６－１０１－１アスタくにづか2番館北棟1階", "url": "https://www.kaigokensaku.mhlw.go.jp/28/index.php?action_kouhyou_detail_004_kani=true&JigyosyoCd=2870600893-00&ServiceCd=410&Type=search", "url2": "maison-deair.com" }, "geometry": { "type": "Point", "coordinates": [ 135.145202402377322, 34.6539469 ] } },
{ "type": "Feature", "properties": { "内容": "株式会社　あいぷらす【特定福祉用具販売】兵庫県神戸市長田区海運町２丁目1－2", "url": "https://www.kaigokensaku.mhlw.go.jp/28/index.php?action_kouhyou_detail_004_kani=true&JigyosyoCd=2870602428-00&ServiceCd=410&Type=search", "url2": null }, "geometry": { "type": "Point", "coordinates": [ 135.1382221, 34.6523665 ] } },
{ "type": "Feature", "properties": { "内容": "株式会社ひかるケアサービス【特定福祉用具販売】兵庫県神戸市長田区北町1-39-1Flat長田北町1F", "url": "https://www.kaigokensaku.mhlw.go.jp/28/index.php?action_kouhyou_detail_004_kani=true&JigyosyoCd=2870603343-00&ServiceCd=410&Type=search", "url2": "http://hikaru-care.com/" }, "geometry": { "type": "Point", "coordinates": [ 135.152256099999988, 34.6671352 ] } },
{ "type": "Feature", "properties": { "内容": "介護ショップきょうどう【特定福祉用具販売】腕塚町２丁目1-15　１階クリエイト第1ビル", "url": "https://www.kaigokensaku.mhlw.go.jp/28/index.php?action_kouhyou_detail_004_kani=true&JigyosyoCd=2870603806-00&ServiceCd=410&Type=search", "url2": null }, "geometry": { "type": "Point", "coordinates": [ 135.149041715637992, 34.655996863256 ] } },
{ "type": "Feature", "properties": { "内容": "おせっかいリビング【特定福祉用具販売】兵庫県神戸市長田区東尻池町5丁目4-2", "url": "https://www.kaigokensaku.mhlw.go.jp/28/index.php?action_kouhyou_detail_004_kani=true&JigyosyoCd=2870603863-00&ServiceCd=410&Type=search", "url2": null }, "geometry": { "type": "Point", "coordinates": [ 135.1567786, 34.6571754 ] } },
{ "type": "Feature", "properties": { "内容": "ケアリンク【特定福祉用具販売】兵庫県神戸市長田区房王寺町3-10-12", "url": "https://www.kaigokensaku.mhlw.go.jp/28/index.php?action_kouhyou_detail_004_kani=true&JigyosyoCd=2870603566-00&ServiceCd=410&Type=search", "url2": "http://hp.kaipoke.biz/d6k/index.html" }, "geometry": { "type": "Point", "coordinates": [ 135.1513053, 34.6776067 ] } },
{ "type": "Feature", "properties": { "内容": "フィジオデザイン【特定福祉用具販売】二葉町6-7-1-105", "url": "https://www.kaigokensaku.mhlw.go.jp/28/index.php?action_kouhyou_detail_004_kani=true&JigyosyoCd=2870603335-00&ServiceCd=410&Type=search", "url2": null }, "geometry": { "type": "Point", "coordinates": [ 135.147379392065432, 34.652699110098176 ] } },
{ "type": "Feature", "properties": { "内容": "らいふわんこうべ【特定福祉用具販売】平和台町2-4-13-101", "url": "https://www.kaigokensaku.mhlw.go.jp/28/index.php?action_kouhyou_detail_004_kani=true&JigyosyoCd=2870603731-00&ServiceCd=410&Type=search", "url2": "https://www.life-one.jp/" }, "geometry": { "type": "Point", "coordinates": [ 135.133611, 34.6667009 ] } },
{ "type": "Feature", "properties": { "内容": "セントケアりまいん神戸【特定福祉用具販売】兵庫県神戸市中央区多聞通2-4-4ブックローン神戸ビル東館2F", "url": "https://www.kaigokensaku.mhlw.go.jp/28/index.php?action_kouhyou_detail_004_kani=true&JigyosyoCd=2875104412-00&ServiceCd=410&Type=search", "url2": "https://www.saint-care.com/center/4663/" }, "geometry": { "type": "Point", "coordinates": [ 135.1770697, 34.6813456 ] } },
{ "type": "Feature", "properties": { "内容": "介護しょっぷ神港園【特定福祉用具販売】神戸市須磨区白川台1丁目34-1", "url": "https://www.kaigokensaku.mhlw.go.jp/28/index.php?action_kouhyou_detail_004_kani=true&JigyosyoCd=2870703499-00&ServiceCd=410&Type=search", "url2": "https://www.shinkouen.or.jp/shisetsu/shirakawa.html" }, "geometry": { "type": "Point", "coordinates": [ 135.0955672, 34.6898719 ] } },
{ "type": "Feature", "properties": { "内容": "介護ステーション　たすけあい【特定福祉用具販売】北落合2丁目7-3", "url": "https://www.kaigokensaku.mhlw.go.jp/28/index.php?action_kouhyou_detail_004_kani=true&JigyosyoCd=2870703069-00&ServiceCd=410&Type=search", "url2": null }, "geometry": { "type": "Point", "coordinates": [ 135.093851810742791, 34.68565114374681 ] } },
{ "type": "Feature", "properties": { "内容": "株式会社たんぽぽ【特定福祉用具販売】弥栄台4丁目1番4", "url": "https://www.kaigokensaku.mhlw.go.jp/28/index.php?action_kouhyou_detail_004_kani=true&JigyosyoCd=2870703200-00&ServiceCd=410&Type=search", "url2": "https://kktanpopo.com/" }, "geometry": { "type": "Point", "coordinates": [ 135.067993699999988, 34.6897927 ] } },
{ "type": "Feature", "properties": { "内容": "介護ショップひまわり須磨店【特定福祉用具販売】兵庫県神戸市須磨区弥栄台3-1-1", "url": "https://www.kaigokensaku.mhlw.go.jp/28/index.php?action_kouhyou_detail_004_kani=true&JigyosyoCd=2870703598-00&ServiceCd=410&Type=search", "url2": "https://www.himawari200207.com/" }, "geometry": { "type": "Point", "coordinates": [ 135.0775878, 34.6852344 ] } },
{ "type": "Feature", "properties": { "内容": "介護ショップ　はるか【特定福祉用具販売】神戸市須磨区大池町2丁目1-28-102", "url": "https://www.kaigokensaku.mhlw.go.jp/28/index.php?action_kouhyou_detail_004_kani=true&JigyosyoCd=2870702194-00&ServiceCd=410&Type=search", "url2": null }, "geometry": { "type": "Point", "coordinates": [ 135.13903990915378, 34.656789149541474 ] } },
{ "type": "Feature", "properties": { "内容": "マリーゴールドケアサービス【特定福祉用具販売】兵庫県神戸市垂水区高丸４丁目8-21", "url": "https://www.kaigokensaku.mhlw.go.jp/28/index.php?action_kouhyou_detail_004_kani=true&JigyosyoCd=2870802937-00&ServiceCd=410&Type=search", "url2": "http://geppi.xsrv.jp" }, "geometry": { "type": "Point", "coordinates": [ 135.059945618954799, 34.64131677755605 ] } },
{ "type": "Feature", "properties": { "内容": "家具の福屋Fitz小束山店【特定福祉用具販売】兵庫県神戸市垂水区小束山本町１－１－１", "url": "https://www.kaigokensaku.mhlw.go.jp/28/index.php?action_kouhyou_detail_004_kani=true&JigyosyoCd=2870802895-00&ServiceCd=410&Type=search", "url2": "http://www.kagunofukuya.com/" }, "geometry": { "type": "Point", "coordinates": [ 135.0584672, 34.6627634 ] } },
{ "type": "Feature", "properties": { "内容": "リビング　ながおか【特定福祉用具販売】兵庫県神戸市垂水区舞子坂3丁目1-5", "url": "https://www.kaigokensaku.mhlw.go.jp/28/index.php?action_kouhyou_detail_004_kani=true&JigyosyoCd=2870802903-00&ServiceCd=410&Type=search", "url2": "http://www.nagaoka-kagu.jp" }, "geometry": { "type": "Point", "coordinates": [ 135.031695200000058, 34.6459466 ] } },
{ "type": "Feature", "properties": { "内容": "株式会社高城　タカジョウメディカル垂水営業所【特定福祉用具販売】神戸市垂水区坂上１丁目１番２３号第二山陽マンション１０２号", "url": "https://www.kaigokensaku.mhlw.go.jp/28/index.php?action_kouhyou_detail_004_kani=true&JigyosyoCd=2870800105-00&ServiceCd=410&Type=search", "url2": "http://www.takajyo.biz" }, "geometry": { "type": "Point", "coordinates": [ 135.05935929619227, 34.629806110712877 ] } },
{ "type": "Feature", "properties": { "内容": "テツコの部屋指定福祉用具貸与事業所【特定福祉用具販売】兵庫県神戸市垂水区下畑町小坂71", "url": "https://www.kaigokensaku.mhlw.go.jp/28/index.php?action_kouhyou_detail_004_kani=true&JigyosyoCd=2870800329-00&ServiceCd=410&Type=search", "url2": "http://www.tetsukonoheya.co.jp/" }, "geometry": { "type": "Point", "coordinates": [ 135.084612230827389, 34.650946314112382 ] } },
{ "type": "Feature", "properties": { "内容": "ダスキンヘルスレント舞子ステーション【特定福祉用具販売】神戸市垂水区本多聞1-6-6", "url": "https://www.kaigokensaku.mhlw.go.jp/28/index.php?action_kouhyou_detail_004_kani=true&JigyosyoCd=2870800741-00&ServiceCd=410&Type=search", "url2": null }, "geometry": { "type": "Point", "coordinates": [ 135.03873909999993, 34.6528599 ] } },
{ "type": "Feature", "properties": { "内容": "ケアサポート西本　垂水営業所【特定福祉用具販売】神戸市垂水区福田３丁目４番１４号", "url": "https://www.kaigokensaku.mhlw.go.jp/28/index.php?action_kouhyou_detail_004_kani=true&JigyosyoCd=2870802135-00&ServiceCd=410&Type=search", "url2": "http://www.nishimoto-kobe.com" }, "geometry": { "type": "Point", "coordinates": [ 135.0657483, 34.644067 ] } },
{ "type": "Feature", "properties": { "内容": "株式会社リライフ【特定福祉用具販売】兵庫県神戸市垂水区大町1-1-11", "url": "https://www.kaigokensaku.mhlw.go.jp/28/index.php?action_kouhyou_detail_004_kani=true&JigyosyoCd=2870803232-00&ServiceCd=410&Type=search", "url2": "www.care-relife.com" }, "geometry": { "type": "Point", "coordinates": [ 135.062206, 34.6367502 ] } },
{ "type": "Feature", "properties": { "内容": "イングレンタルサービス【特定福祉用具販売】兵庫県神戸市垂水区神陵台3-2-1-12", "url": "https://www.kaigokensaku.mhlw.go.jp/28/index.php?action_kouhyou_detail_004_kani=true&JigyosyoCd=2870804487-00&ServiceCd=410&Type=search", "url2": "https://ons-step-ing.com/" }, "geometry": { "type": "Point", "coordinates": [ 135.0349689, 34.661155 ] } },
{ "type": "Feature", "properties": { "内容": "八千代ケアサポート株式会社　神戸店【特定福祉用具販売】兵庫県神戸市垂水区舞子台2丁目5-38ガーデンスクエア舞子　1F", "url": "https://www.kaigokensaku.mhlw.go.jp/28/index.php?action_kouhyou_detail_004_kani=true&JigyosyoCd=2870804743-00&ServiceCd=410&Type=search", "url2": "http:/www.yachiyo-c-s.co.jp" }, "geometry": { "type": "Point", "coordinates": [ 135.0343804, 34.634751 ] } },
{ "type": "Feature", "properties": { "内容": "有限会社　スマイル住介【特定福祉用具販売】藤原台南町５丁目4-17", "url": "https://www.kaigokensaku.mhlw.go.jp/28/index.php?action_kouhyou_detail_004_kani=true&JigyosyoCd=2875001600-00&ServiceCd=410&Type=search", "url2": null }, "geometry": { "type": "Point", "coordinates": [ 135.203255500000068, 34.8132048 ] } },
{ "type": "Feature", "properties": { "内容": "株式会社　IMG【特定福祉用具販売】兵庫県神戸市北区鈴蘭台西町三丁目11番1号", "url": "https://www.kaigokensaku.mhlw.go.jp/28/index.php?action_kouhyou_detail_004_kani=true&JigyosyoCd=2875002970-00&ServiceCd=410&Type=search", "url2": null }, "geometry": { "type": "Point", "coordinates": [ 135.139428899999984, 34.7297721 ] } },
{ "type": "Feature", "properties": { "内容": "株式会社　セイコー【特定福祉用具販売】兵庫県神戸市北区花山東町3-32", "url": "https://www.kaigokensaku.mhlw.go.jp/28/index.php?action_kouhyou_detail_004_kani=true&JigyosyoCd=2875004125-00&ServiceCd=410&Type=search", "url2": null }, "geometry": { "type": "Point", "coordinates": [ 135.187243599999988, 34.7662584 ] } },
{ "type": "Feature", "properties": { "内容": "株式会社キャディ【特定福祉用具販売】兵庫県神戸市北区大池見山台14-195", "url": "https://www.kaigokensaku.mhlw.go.jp/28/index.php?action_kouhyou_detail_004_kani=true&JigyosyoCd=2875004158-00&ServiceCd=410&Type=search", "url2": "http://caddy-4.jp/" }, "geometry": { "type": "Point", "coordinates": [ 135.1917355, 34.7741185 ] } },
{ "type": "Feature", "properties": { "内容": "ダスキンヘルスレント神戸北ステーション【特定福祉用具販売】兵庫県神戸市北区有野町唐櫃4302-4", "url": "https://www.kaigokensaku.mhlw.go.jp/28/index.php?action_kouhyou_detail_004_kani=true&JigyosyoCd=2875004257-00&ServiceCd=410&Type=search", "url2": "https://healthrent.duskin.jp" }, "geometry": { "type": "Point", "coordinates": [ 135.2002084, 34.7823906 ] } },
{ "type": "Feature", "properties": { "内容": "株式会社ハッピーエイジ福祉用具レンタル・販売事業部【特定福祉用具販売】神戸市北区大脇台2番34号大脇ハウス1F", "url": "https://www.kaigokensaku.mhlw.go.jp/28/index.php?action_kouhyou_detail_004_kani=true&JigyosyoCd=2875001345-00&ServiceCd=410&Type=search", "url2": "https://happyage.co.jp/" }, "geometry": { "type": "Point", "coordinates": [ 135.160544616671814, 34.737373924996923 ] } },
{ "type": "Feature", "properties": { "内容": "株式会社エイチ・ジー【特定福祉用具販売】神戸市北区山田町下谷上字門口9番4", "url": "https://www.kaigokensaku.mhlw.go.jp/28/index.php?action_kouhyou_detail_004_kani=true&JigyosyoCd=2875000842-00&ServiceCd=410&Type=search", "url2": null }, "geometry": { "type": "Point", "coordinates": [ 135.155485699999986, 34.7499729 ] } },
{ "type": "Feature", "properties": { "内容": "福祉用具貸与事業所ライフステップ【特定福祉用具販売】兵庫県神戸市北区鈴蘭台南町5-7-18-1F", "url": "https://www.kaigokensaku.mhlw.go.jp/28/index.php?action_kouhyou_detail_004_kani=true&JigyosyoCd=2875002525-00&ServiceCd=410&Type=search", "url2": "lifestep.biz" }, "geometry": { "type": "Point", "coordinates": [ 135.140991145439358, 34.722956475628003 ] } },
{ "type": "Feature", "properties": { "内容": "福祉用具　笑楽【特定福祉用具販売】西大池2丁目4-1", "url": "https://www.kaigokensaku.mhlw.go.jp/28/index.php?action_kouhyou_detail_004_kani=true&JigyosyoCd=2875004398-00&ServiceCd=410&Type=search", "url2": "https://www.bihonest.com/office/" }, "geometry": { "type": "Point", "coordinates": [ 135.194863199999986, 34.7734463 ] } },
{ "type": "Feature", "properties": { "内容": "まごの手サービス【特定福祉用具販売】北区北五葉１丁目２－１５栄規ビル１０５", "url": "https://www.kaigokensaku.mhlw.go.jp/28/index.php?action_kouhyou_detail_004_kani=true&JigyosyoCd=2875002830-00&ServiceCd=410&Type=search", "url2": null }, "geometry": { "type": "Point", "coordinates": [ 135.136307, 34.7265474 ] } },
{ "type": "Feature", "properties": { "内容": "株式会社ポート・リハビリサービス神戸駅前店福祉用具貸与事業所【特定福祉用具販売】神戸市中央区多聞通2-1-1多聞プラムビル1F", "url": "https://www.kaigokensaku.mhlw.go.jp/28/index.php?action_kouhyou_detail_004_kani=true&JigyosyoCd=2875103539-00&ServiceCd=410&Type=search", "url2": "https://www.port-rs.co.jp" }, "geometry": { "type": "Point", "coordinates": [ 135.177815600000031, 34.6817698 ] } },
{ "type": "Feature", "properties": { "内容": "福祉用具　笑楽【特定福祉用具販売】兵庫県神戸市中央区御幸通2丁目1番6号", "url": "https://www.kaigokensaku.mhlw.go.jp/28/index.php?action_kouhyou_detail_004_kani=true&JigyosyoCd=2875103265-00&ServiceCd=410&Type=search", "url2": "http://わらく.com" }, "geometry": { "type": "Point", "coordinates": [ 135.201771600000029, 34.6944688 ] } },
{ "type": "Feature", "properties": { "内容": "有限会社三宮電器【特定福祉用具販売】兵庫県神戸市中央区布引町２－１－１５", "url": "https://www.kaigokensaku.mhlw.go.jp/28/index.php?action_kouhyou_detail_004_kani=true&JigyosyoCd=2875100832-00&ServiceCd=410&Type=search", "url2": null }, "geometry": { "type": "Point", "coordinates": [ 135.19425050000001, 34.6997635 ] } },
{ "type": "Feature", "properties": { "内容": "(株)ポート・リハビリサービス営業本部指定福祉用具貸与事業所【特定福祉用具販売】兵庫県神戸市中央区中山手通3-4-6エイコー山手プラザ3F", "url": "https://www.kaigokensaku.mhlw.go.jp/28/index.php?action_kouhyou_detail_004_kani=true&JigyosyoCd=2875100477-00&ServiceCd=410&Type=search", "url2": "https://www.port-rs.co.jp" }, "geometry": { "type": "Point", "coordinates": [ 135.186824760852033, 34.69331165176694 ] } },
{ "type": "Feature", "properties": { "内容": "株式会社なごみ神戸店【特定福祉用具販売】神戸市中央区港島中町5-1-1", "url": "https://www.kaigokensaku.mhlw.go.jp/28/index.php?action_kouhyou_detail_004_kani=true&JigyosyoCd=2875101939-00&ServiceCd=410&Type=search", "url2": null }, "geometry": { "type": "Point", "coordinates": [ 135.208116300000029, 34.6615749 ] } },
{ "type": "Feature", "properties": { "内容": "あっぷる　神戸【特定福祉用具販売】神戸市中央区栄町通7丁目１－４", "url": "https://www.kaigokensaku.mhlw.go.jp/28/index.php?action_kouhyou_detail_004_kani=true&JigyosyoCd=2875100766-00&ServiceCd=410&Type=search", "url2": "https://www.applekaigo.com" }, "geometry": { "type": "Point", "coordinates": [ 135.181684799999971, 34.6817893 ] } },
{ "type": "Feature", "properties": { "内容": "ミヤノ健康ショップモイヤン神戸店【特定福祉用具販売】神戸市中央区楠町5-4-8", "url": "https://www.kaigokensaku.mhlw.go.jp/28/index.php?action_kouhyou_detail_004_kani=true&JigyosyoCd=2875100097-00&ServiceCd=410&Type=search", "url2": "http://miyano.jp" }, "geometry": { "type": "Point", "coordinates": [ 135.172827099999949, 34.6823724 ] } },
{ "type": "Feature", "properties": { "内容": "山陽ケアセンター神戸福祉用具貸与事業所【特定福祉用具販売】兵庫県神戸市中央区神若通4丁目2番22号１階山陽ケアセンター神戸", "url": "https://www.kaigokensaku.mhlw.go.jp/28/index.php?action_kouhyou_detail_004_kani=true&JigyosyoCd=2875103018-00&ServiceCd=410&Type=search", "url2": "http://sanyo-medical.com/" }, "geometry": { "type": "Point", "coordinates": [ 135.202504568786594, 34.70367011828754 ] } },
{ "type": "Feature", "properties": { "内容": "セカンドライフ　神戸支店【特定福祉用具販売】兵庫県神戸市中央区国香通5丁目2-30　1F", "url": "https://www.kaigokensaku.mhlw.go.jp/28/index.php?action_kouhyou_detail_004_kani=true&JigyosyoCd=2875104669-00&ServiceCd=410&Type=search", "url2": "https://secondlife-care.com/" }, "geometry": { "type": "Point", "coordinates": [ 135.202025852778632, 34.702370601991355 ] } },
{ "type": "Feature", "properties": { "内容": "サンベビー株式会社【特定福祉用具販売】兵庫県", "url": "https://www.kaigokensaku.mhlw.go.jp/28/index.php?action_kouhyou_detail_004_kani=true&JigyosyoCd=2875202091-00&ServiceCd=410&Type=search", "url2": "http://www.sun-baby.co.jp/" }, "geometry": { "type": "Point", "coordinates": [ 135.183070600000065, 34.6912688 ] } },
{ "type": "Feature", "properties": { "内容": "株式会社　ハートワンこうべ【特定福祉用具販売】兵庫県神戸市西区宮下3丁目7-12", "url": "https://www.kaigokensaku.mhlw.go.jp/28/index.php?action_kouhyou_detail_004_kani=true&JigyosyoCd=2875202711-00&ServiceCd=410&Type=search", "url2": null }, "geometry": { "type": "Point", "coordinates": [ 134.9799458, 34.6919011 ] } },
{ "type": "Feature", "properties": { "内容": "株式会社アーサ【特定福祉用具販売】兵庫県神戸市西区伊川谷町有瀬624-1", "url": "https://www.kaigokensaku.mhlw.go.jp/28/index.php?action_kouhyou_detail_004_kani=true&JigyosyoCd=2875200475-00&ServiceCd=410&Type=search", "url2": "http://wwwa-sa.co.jp/" }, "geometry": { "type": "Point", "coordinates": [ 135.024515100000031, 34.6613473 ] } },
{ "type": "Feature", "properties": { "内容": "株式会社　三笑堂　神戸支店【特定福祉用具販売】神戸市西区北別府４丁目2101-1", "url": "https://www.kaigokensaku.mhlw.go.jp/28/index.php?action_kouhyou_detail_004_kani=true&JigyosyoCd=2875201440-00&ServiceCd=410&Type=search", "url2": "http://www.sanshodoh.co.jp" }, "geometry": { "type": "Point", "coordinates": [ 135.008330399999977, 34.6704378 ] } },
{ "type": "Feature", "properties": { "内容": "株式会社トーカイ　神戸営業所【特定福祉用具販売】兵庫県神戸市西区大津和３丁目１番１号", "url": "https://www.kaigokensaku.mhlw.go.jp/28/index.php?action_kouhyou_detail_004_kani=true&JigyosyoCd=2875201903-00&ServiceCd=410&Type=search", "url2": "http://www.tokai-corp.com/" }, "geometry": { "type": "Point", "coordinates": [ 135.02692049999996, 34.6667912 ] } },
{ "type": "Feature", "properties": { "内容": "株式会社　ゴトウ・アズ・プランニング　神戸西店【特定福祉用具販売】兵庫県神戸市西区玉津町高津橋124-1", "url": "https://www.kaigokensaku.mhlw.go.jp/28/index.php?action_kouhyou_detail_004_kani=true&JigyosyoCd=2875202265-00&ServiceCd=410&Type=search", "url2": "http://www.goto-az.co.jp" }, "geometry": { "type": "Point", "coordinates": [ 134.991515299999946, 34.6660187 ] } },
{ "type": "Feature", "properties": { "内容": "プロエイド　リハ・リハ【特定福祉用具販売】神戸市西区前開南町2丁目13－14", "url": "https://www.kaigokensaku.mhlw.go.jp/28/index.php?action_kouhyou_detail_004_kani=true&JigyosyoCd=2875203248-00&ServiceCd=410&Type=search", "url2": "http://www/reha-reha.jp/" }, "geometry": { "type": "Point", "coordinates": [ 135.0444989, 34.6871117 ] } },
{ "type": "Feature", "properties": { "内容": "ダスキンヘルスレント神戸西ステーション【特定福祉用具販売】神戸市西区伊川谷町有瀬１２９０－４", "url": "https://www.kaigokensaku.mhlw.go.jp/28/index.php?action_kouhyou_detail_004_kani=true&JigyosyoCd=2875201010-00&ServiceCd=410&Type=search", "url2": "http://healthrent.duskin.jp" }, "geometry": { "type": "Point", "coordinates": [ 135.0162823, 34.6629134 ] } },
{ "type": "Feature", "properties": { "内容": "介護ショップひまわり西神戸店【特定福祉用具販売】兵庫県神戸市西区森友4丁目104-2", "url": "https://www.kaigokensaku.mhlw.go.jp/28/index.php?action_kouhyou_detail_004_kani=true&JigyosyoCd=2875201093-00&ServiceCd=410&Type=search", "url2": "http://www.himawari200207.com/" }, "geometry": { "type": "Point", "coordinates": [ 135.086929027452953, 34.699337311888783 ] } },
{ "type": "Feature", "properties": { "内容": "介護ショップもも【特定福祉用具販売】兵庫県神戸市西区王塚台7丁目103番地", "url": "https://www.kaigokensaku.mhlw.go.jp/28/index.php?action_kouhyou_detail_004_kani=true&JigyosyoCd=2875205201-00&ServiceCd=410&Type=search", "url2": null }, "geometry": { "type": "Point", "coordinates": [ 134.98090447585966, 34.672779163638957 ] } },
{ "type": "Feature", "properties": { "内容": "セカンドライフ　西神戸支店【特定福祉用具販売】持子2丁目124", "url": "https://www.kaigokensaku.mhlw.go.jp/28/index.php?action_kouhyou_detail_004_kani=true&JigyosyoCd=2875205284-00&ServiceCd=410&Type=search", "url2": "https://secondlife-care.com/" }, "geometry": { "type": "Point", "coordinates": [ 134.981670900000012, 34.6690246 ] } },
{ "type": "Feature", "properties": { "内容": "株式会社やさしい手　住環境事業部神戸営業所【特定福祉用具販売】兵庫県神戸市西区大津和3-6-4シャルマンディアントス101", "url": "https://www.kaigokensaku.mhlw.go.jp/28/index.php?action_kouhyou_detail_004_kani=true&JigyosyoCd=2875204998-00&ServiceCd=410&Type=search", "url2": "https://www.yasashiite.com/" }, "geometry": { "type": "Point", "coordinates": [ 135.0260974, 34.6684059 ] } },
{ "type": "Feature", "properties": { "内容": "介護しょっぷ神港園【特定福祉用具販売】神戸市西区神出町東1188-70", "url": "https://www.kaigokensaku.mhlw.go.jp/28/index.php?action_kouhyou_detail_004_kani=true&JigyosyoCd=2875205623-00&ServiceCd=410&Type=search", "url2": "https://www.shinkouen.or.jp/" }, "geometry": { "type": "Point", "coordinates": [ 134.9920835, 34.6667802 ] } },
{ "type": "Feature", "properties": { "内容": "スマイル・ケア【特定福祉用具販売】飾西５０番地１０", "url": "https://www.kaigokensaku.mhlw.go.jp/28/index.php?action_kouhyou_detail_004_kani=true&JigyosyoCd=2874003359-00&ServiceCd=410&Type=search", "url2": null }, "geometry": { "type": "Point", "coordinates": [ 134.6356539, 34.8640791 ] } },
{ "type": "Feature", "properties": { "内容": "花まるいち【特定福祉用具販売】兵庫県姫路市手柄2-117", "url": "https://www.kaigokensaku.mhlw.go.jp/28/index.php?action_kouhyou_detail_004_kani=true&JigyosyoCd=2874003755-00&ServiceCd=410&Type=search", "url2": null }, "geometry": { "type": "Point", "coordinates": [ 134.676495400000022, 34.8133131 ] } },
{ "type": "Feature", "properties": { "内容": "アシストケアショップ姫路【特定福祉用具販売】兵庫県姫路市的形町的1768-25prendre的形102", "url": "https://www.kaigokensaku.mhlw.go.jp/28/index.php?action_kouhyou_detail_004_kani=true&JigyosyoCd=2874008531-00&ServiceCd=410&Type=search", "url2": null }, "geometry": { "type": "Point", "coordinates": [ 134.743876199999931, 34.7776445 ] } },
{ "type": "Feature", "properties": { "内容": "有限会社和高住宅【特定福祉用具販売】姫路市東辻井1丁目13－40", "url": "https://www.kaigokensaku.mhlw.go.jp/28/index.php?action_kouhyou_detail_004_kani=true&JigyosyoCd=2874002401-00&ServiceCd=410&Type=search", "url2": "0" }, "geometry": { "type": "Point", "coordinates": [ 134.674219599999986, 34.8469648 ] } },
{ "type": "Feature", "properties": { "内容": "あっぷるレンタル事業所【特定福祉用具販売】姫路市神屋町6丁目71", "url": "https://www.kaigokensaku.mhlw.go.jp/28/index.php?action_kouhyou_detail_004_kani=true&JigyosyoCd=2874000066-00&ServiceCd=410&Type=search", "url2": "http://www.apple-117.jp/" }, "geometry": { "type": "Point", "coordinates": [ 134.698676, 34.8274033 ] } },
{ "type": "Feature", "properties": { "内容": "株式会社　ゴトウ・アズ・プランニング　姫路南店【特定福祉用具販売】兵庫県姫路市飾磨区野田町187番地", "url": "https://www.kaigokensaku.mhlw.go.jp/28/index.php?action_kouhyou_detail_004_kani=true&JigyosyoCd=2874000652-00&ServiceCd=410&Type=search", "url2": "http://www.goto-az.co.jp/" }, "geometry": { "type": "Point", "coordinates": [ 134.683941900000036, 34.813552 ] } },
{ "type": "Feature", "properties": { "内容": "株式会社　トーカイ　姫路支店【特定福祉用具販売】兵庫県姫路市飾磨区中野田2-69", "url": "https://www.kaigokensaku.mhlw.go.jp/28/index.php?action_kouhyou_detail_004_kani=true&JigyosyoCd=2874006311-00&ServiceCd=410&Type=search", "url2": "www.tokai-corp.com/" }, "geometry": { "type": "Point", "coordinates": [ 134.681537514000581, 34.805604062838135 ] } },
{ "type": "Feature", "properties": { "内容": "株式会社ライフケア姫路支店【特定福祉用具販売】兵庫県姫路市飾磨区構3-490-1", "url": "https://www.kaigokensaku.mhlw.go.jp/28/index.php?action_kouhyou_detail_004_kani=true&JigyosyoCd=2874007442-00&ServiceCd=410&Type=search", "url2": "https://lifecare-ok.co.jp/" }, "geometry": { "type": "Point", "coordinates": [ 134.667007256448784, 34.808451647640958 ] } },
{ "type": "Feature", "properties": { "内容": "播磨メディカル株式会社【特定福祉用具販売】兵庫県姫路市飾磨区思案橋96番地", "url": "https://www.kaigokensaku.mhlw.go.jp/28/index.php?action_kouhyou_detail_004_kani=true&JigyosyoCd=2874002526-00&ServiceCd=410&Type=search", "url2": null }, "geometry": { "type": "Point", "coordinates": [ 134.658378, 34.7987981 ] } },
{ "type": "Feature", "properties": { "内容": "株式会社セイフティサービス【特定福祉用具販売】兵庫県姫路市白浜町宇佐崎北１丁目１３番地", "url": "https://www.kaigokensaku.mhlw.go.jp/28/index.php?action_kouhyou_detail_004_kani=true&JigyosyoCd=2874000082-00&ServiceCd=410&Type=search", "url2": "http://www.safetys-inc.com" }, "geometry": { "type": "Point", "coordinates": [ 134.720838400000048, 34.7853109 ] } },
{ "type": "Feature", "properties": { "内容": "介護ショップひまわり姫路店【特定福祉用具販売】兵庫県姫路市花田町上原田55-1", "url": "https://www.kaigokensaku.mhlw.go.jp/28/index.php?action_kouhyou_detail_004_kani=true&JigyosyoCd=2874001858-00&ServiceCd=410&Type=search", "url2": "https://www.himawari200207.com/" }, "geometry": { "type": "Point", "coordinates": [ 134.730374564418014, 34.834499344030448 ] } },
{ "type": "Feature", "properties": { "内容": "パナソニックエイジフリーショップ　灘【特定福祉用具販売】兵庫県姫路市木場十八反町27", "url": "https://www.kaigokensaku.mhlw.go.jp/28/index.php?action_kouhyou_detail_004_kani=true&JigyosyoCd=2874002203-00&ServiceCd=410&Type=search", "url2": "http://mikisangyo-grp.co.jp/side/age-free-index.htm" }, "geometry": { "type": "Point", "coordinates": [ 134.7220692, 34.7792511 ] } },
{ "type": "Feature", "properties": { "内容": "有限会社　吉田建築設計事務所　あずみ【特定福祉用具販売】兵庫県姫路市三左衛門堀西の町44番地", "url": "https://www.kaigokensaku.mhlw.go.jp/28/index.php?action_kouhyou_detail_004_kani=true&JigyosyoCd=2874003698-00&ServiceCd=410&Type=search", "url2": null }, "geometry": { "type": "Point", "coordinates": [ 134.687499800000012, 34.8172594 ] } },
{ "type": "Feature", "properties": { "内容": "ダスキンヘルスレント姫路ステーション【特定福祉用具販売】兵庫県姫路市飾磨区亀山130-1", "url": "https://www.kaigokensaku.mhlw.go.jp/28/index.php?action_kouhyou_detail_004_kani=true&JigyosyoCd=2874009984-00&ServiceCd=410&Type=search", "url2": "https://healthrent.duskin.jp/" }, "geometry": { "type": "Point", "coordinates": [ 134.6791967, 34.8098485 ] } },
{ "type": "Feature", "properties": { "内容": "介護ショップマーガレット【特定福祉用具販売】兵庫県姫路市南条1丁目126", "url": "https://www.kaigokensaku.mhlw.go.jp/28/index.php?action_kouhyou_detail_004_kani=true&JigyosyoCd=2874010099-00&ServiceCd=410&Type=search", "url2": null }, "geometry": { "type": "Point", "coordinates": [ 134.68888050000001, 34.8109485 ] } },
{ "type": "Feature", "properties": { "内容": "株式会社ヤマシタ姫路営業所【特定福祉用具販売】兵庫県姫路市飾磨区清水三丁目31番地", "url": "https://www.kaigokensaku.mhlw.go.jp/28/index.php?action_kouhyou_detail_004_kani=true&JigyosyoCd=2874000710-00&ServiceCd=410&Type=search", "url2": "http://www.yco.co.jp/" }, "geometry": { "type": "Point", "coordinates": [ 134.678888426576918, 34.801299389994725 ] } },
{ "type": "Feature", "properties": { "内容": "株式会社ケアショップニシキ姫路【特定福祉用具販売】兵庫県姫路市飾磨区英賀宮町2丁目122-1", "url": "https://www.kaigokensaku.mhlw.go.jp/28/index.php?action_kouhyou_detail_004_kani=true&JigyosyoCd=2874004415-00&ServiceCd=410&Type=search", "url2": "nishiki-cc.com" }, "geometry": { "type": "Point", "coordinates": [ 134.6379881, 34.8052492 ] } },
{ "type": "Feature", "properties": { "内容": "姫路医療生協　福祉用具レンタル共立【特定福祉用具販売】姫路市市川橋通2丁目36番地", "url": "https://www.kaigokensaku.mhlw.go.jp/28/index.php?action_kouhyou_detail_004_kani=true&JigyosyoCd=2874005438-00&ServiceCd=410&Type=search", "url2": "rental@himeji-mcoop.or.jp" }, "geometry": { "type": "Point", "coordinates": [ 134.707081444137998, 34.829426108416449 ] } },
{ "type": "Feature", "properties": { "内容": "姫路医療生活協同組合福祉用具レンタルあぼし【特定福祉用具販売】兵庫県姫路市網干区垣内本町553-20", "url": "https://www.kaigokensaku.mhlw.go.jp/28/index.php?action_kouhyou_detail_004_kani=true&JigyosyoCd=2874010834-00&ServiceCd=410&Type=search", "url2": "http://www.himeji-mcoop.or.jp" }, "geometry": { "type": "Point", "coordinates": [ 134.587421299999988, 34.7923484 ] } },
{ "type": "Feature", "properties": { "内容": "株式会社　前後前　福祉住宅相談室【特定福祉用具販売】兵庫県姫路市南条１丁目１２６番地", "url": "https://www.kaigokensaku.mhlw.go.jp/28/index.php?action_kouhyou_detail_004_kani=true&JigyosyoCd=2874001056-00&ServiceCd=410&Type=search", "url2": "http://www.zengozen.co.jp" }, "geometry": { "type": "Point", "coordinates": [ 134.688858200000027, 34.8109523 ] } },
{ "type": "Feature", "properties": { "内容": "福祉用具０９０９【特定福祉用具販売】兵庫県姫路市町田１３３番地１", "url": "https://www.kaigokensaku.mhlw.go.jp/28/index.php?action_kouhyou_detail_004_kani=true&JigyosyoCd=2874008994-00&ServiceCd=410&Type=search", "url2": "https://wakuwaku.com/" }, "geometry": { "type": "Point", "coordinates": [ 134.641705300000012, 34.8643736 ] } },
{ "type": "Feature", "properties": { "内容": "有限会社　ドゥ・ベスト【特定福祉用具販売】兵庫県姫路市網干区浜田７９－３", "url": "https://www.kaigokensaku.mhlw.go.jp/28/index.php?action_kouhyou_detail_004_kani=true&JigyosyoCd=2874001742-00&ServiceCd=410&Type=search", "url2": null }, "geometry": { "type": "Point", "coordinates": [ 134.5782687, 34.7821849 ] } },
{ "type": "Feature", "properties": { "内容": "姫路市社会福祉協議会　福祉の店【特定福祉用具販売】兵庫県姫路市栗山町１５１－２　栗山別館４階", "url": "https://www.kaigokensaku.mhlw.go.jp/28/index.php?action_kouhyou_detail_004_kani=true&JigyosyoCd=2874000793-00&ServiceCd=410&Type=search", "url2": "http://www.himeji-wel.or.jp" }, "geometry": { "type": "Point", "coordinates": [ 134.683048099999951, 34.8168243 ] } },
{ "type": "Feature", "properties": { "内容": "ケアショップおんとく【特定福祉用具販売】姫路市的形町的形1768－25プランドール的形102プランドール的形102", "url": "https://www.kaigokensaku.mhlw.go.jp/28/index.php?action_kouhyou_detail_004_kani=true&JigyosyoCd=2874011154-00&ServiceCd=410&Type=search", "url2": "https://www.ontoku.or.jp/" }, "geometry": { "type": "Point", "coordinates": [ 134.7415248, 34.7783825 ] } },
{ "type": "Feature", "properties": { "内容": "えがお【特定福祉用具販売】兵庫県姫路市網干区津市場６１７番地", "url": "https://www.kaigokensaku.mhlw.go.jp/28/index.php?action_kouhyou_detail_004_kani=true&JigyosyoCd=2874005420-00&ServiceCd=410&Type=search", "url2": null }, "geometry": { "type": "Point", "coordinates": [ 134.582227800000027, 34.7939846 ] } },
{ "type": "Feature", "properties": { "内容": "ヨウグキング姫路【特定福祉用具販売】姫路市下手野4丁目13-55", "url": "https://www.kaigokensaku.mhlw.go.jp/28/index.php?action_kouhyou_detail_004_kani=true&JigyosyoCd=2874008507-00&ServiceCd=410&Type=search", "url2": "www.act1.jp" }, "geometry": { "type": "Point", "coordinates": [ 134.64894670000001, 34.8514419 ] } },
{ "type": "Feature", "properties": { "内容": "パナソニックエイジフリーショップ姫路【特定福祉用具販売】兵庫県姫路市青山５丁目１０番１９号", "url": "https://www.kaigokensaku.mhlw.go.jp/28/index.php?action_kouhyou_detail_004_kani=true&JigyosyoCd=2874002740-00&ServiceCd=410&Type=search", "url2": "http://www.techno-aids.co.jp" }, "geometry": { "type": "Point", "coordinates": [ 134.636314800000036, 34.8453843 ] } },
{ "type": "Feature", "properties": { "内容": "(有）ハミング【特定福祉用具販売】兵庫県尼崎市菜切山町4Ｂ1んち１", "url": "https://www.kaigokensaku.mhlw.go.jp/28/index.php?action_kouhyou_detail_004_kani=true&JigyosyoCd=2873012724-00&ServiceCd=410&Type=search", "url2": "http：www.hummingｰaloha.co.jp" }, "geometry": { "type": "Point", "coordinates": [ 135.3951056, 34.7236057 ] } },
{ "type": "Feature", "properties": { "内容": "ケアサポート西本　阪神営業所【特定福祉用具販売】尼崎市尾浜町2-14-18", "url": "https://www.kaigokensaku.mhlw.go.jp/28/index.php?action_kouhyou_detail_004_kani=true&JigyosyoCd=2873012740-00&ServiceCd=410&Type=search", "url2": "http://www.nishimoto-kobe.com" }, "geometry": { "type": "Point", "coordinates": [ 135.4164423, 34.7367128 ] } },
{ "type": "Feature", "properties": { "内容": "株式会社　ぼっちゃん堂【特定福祉用具販売】兵庫県崎市水堂町4丁目15番11号", "url": "https://www.kaigokensaku.mhlw.go.jp/28/index.php?action_kouhyou_detail_004_kani=true&JigyosyoCd=2873000851-00&ServiceCd=410&Type=search", "url2": "http://www.bochando.com/" }, "geometry": { "type": "Point", "coordinates": [ 135.38645482321337, 34.744703738533914 ] } },
{ "type": "Feature", "properties": { "内容": "株式会社　ビー・ピー・アンド・ピー【特定福祉用具販売】兵庫県尼崎市立花町4丁目3-23", "url": "https://www.kaigokensaku.mhlw.go.jp/28/index.php?action_kouhyou_detail_004_kani=true&JigyosyoCd=2873002493-00&ServiceCd=410&Type=search", "url2": null }, "geometry": { "type": "Point", "coordinates": [ 135.398259899999971, 34.7397109 ] } },
{ "type": "Feature", "properties": { "内容": "株式会社ゴトウ・アズ・プランニング　尼崎店【特定福祉用具販売】兵庫県尼崎市常松２丁目２番31号", "url": "https://www.kaigokensaku.mhlw.go.jp/28/index.php?action_kouhyou_detail_004_kani=true&JigyosyoCd=2873002840-00&ServiceCd=410&Type=search", "url2": "http://www.goto-az.co.jp" }, "geometry": { "type": "Point", "coordinates": [ 135.379866480601322, 34.767802715181801 ] } },
{ "type": "Feature", "properties": { "内容": "介護ショップひまわり阪神店【特定福祉用具販売】兵庫県尼崎市武庫之荘8丁目6番25号", "url": "https://www.kaigokensaku.mhlw.go.jp/28/index.php?action_kouhyou_detail_004_kani=true&JigyosyoCd=2873006619-00&ServiceCd=410&Type=search", "url2": "http://www.himawari200207.com/" }, "geometry": { "type": "Point", "coordinates": [ 135.388663, 34.7648389 ] } },
{ "type": "Feature", "properties": { "内容": "ケア　アマミ　サポート【特定福祉用具販売】武庫川町2-20-1", "url": "https://www.kaigokensaku.mhlw.go.jp/28/index.php?action_kouhyou_detail_004_kani=true&JigyosyoCd=2873012013-00&ServiceCd=410&Type=search", "url2": null }, "geometry": { "type": "Point", "coordinates": [ 135.3865395, 34.716904126223085 ] } },
{ "type": "Feature", "properties": { "内容": "ケアセンターAmi【特定福祉用具販売】崇徳院３丁目５６番地", "url": "https://www.kaigokensaku.mhlw.go.jp/28/index.php?action_kouhyou_detail_004_kani=true&JigyosyoCd=2873012674-00&ServiceCd=410&Type=search", "url2": null }, "geometry": { "type": "Point", "coordinates": [ 135.3972642, 34.7224255 ] } },
{ "type": "Feature", "properties": { "内容": "(株)ポート・リハビリサービス尼崎店福祉用具貸与事業所【特定福祉用具販売】兵庫県尼崎市南塚口町6-2-23けんみんCLUB2F", "url": "https://www.kaigokensaku.mhlw.go.jp/28/index.php?action_kouhyou_detail_004_kani=true&JigyosyoCd=2873000463-00&ServiceCd=410&Type=search", "url2": "https://www.port-rs.co.jp" }, "geometry": { "type": "Point", "coordinates": [ 135.414008913491784, 34.747783183387405 ] } },
{ "type": "Feature", "properties": { "内容": "有限会社　ケアベスト【特定福祉用具販売】尼崎市武庫之荘6-26-7", "url": "https://www.kaigokensaku.mhlw.go.jp/28/index.php?action_kouhyou_detail_004_kani=true&JigyosyoCd=2873000653-00&ServiceCd=410&Type=search", "url2": "https://carebest.jimdofree.com/" }, "geometry": { "type": "Point", "coordinates": [ 135.385655, 34.7621141 ] } },
{ "type": "Feature", "properties": { "内容": "株式会社タカプラ【特定福祉用具販売】兵庫県尼崎市南塚口町4丁目1-30サウンドグレースパートⅢ1F", "url": "https://www.kaigokensaku.mhlw.go.jp/28/index.php?action_kouhyou_detail_004_kani=true&JigyosyoCd=2873001172-00&ServiceCd=410&Type=search", "url2": "http://www.takaplanning.co.jp" }, "geometry": { "type": "Point", "coordinates": [ 135.419268399999964, 34.7466413 ] } },
{ "type": "Feature", "properties": { "内容": "ヨウグキング【特定福祉用具販売】昭和南通３－２６第一松本ビル２Ｆ", "url": "https://www.kaigokensaku.mhlw.go.jp/28/index.php?action_kouhyou_detail_004_kani=true&JigyosyoCd=2873009001-00&ServiceCd=410&Type=search", "url2": "http://yoguking.act1.jp/" }, "geometry": { "type": "Point", "coordinates": [ 135.418066400000043, 34.7197799 ] } },
{ "type": "Feature", "properties": { "内容": "株式会社　みやこ福祉用具【特定福祉用具販売】兵庫県尼崎市七松町２丁目15番7号", "url": "https://www.kaigokensaku.mhlw.go.jp/28/index.php?action_kouhyou_detail_004_kani=true&JigyosyoCd=2873009647-00&ServiceCd=410&Type=search", "url2": null }, "geometry": { "type": "Point", "coordinates": [ 135.401374202208018, 34.736113655274622 ] } },
{ "type": "Feature", "properties": { "内容": "株式会社神戸レンタル尼崎支店【特定福祉用具販売】兵庫県尼崎市東難波町2丁目9-22", "url": "https://www.kaigokensaku.mhlw.go.jp/28/index.php?action_kouhyou_detail_004_kani=true&JigyosyoCd=2873012096-00&ServiceCd=410&Type=search", "url2": "http://kobe-rental.net/" }, "geometry": { "type": "Point", "coordinates": [ 135.409656899999987, 34.7293521 ] } },
{ "type": "Feature", "properties": { "内容": "ダスキンヘルスレント尼崎ステーション【特定福祉用具販売】兵庫県尼崎市東難波5-17-11　グラドアーレミゼ101-102", "url": "https://www.kaigokensaku.mhlw.go.jp/28/index.php?action_kouhyou_detail_004_kani=true&JigyosyoCd=2873012757-00&ServiceCd=410&Type=search", "url2": "https://healthrent.duskin.jp/station/hyogo/amagasaki.html" }, "geometry": { "type": "Point", "coordinates": [ 135.4160923, 34.7216672 ] } },
{ "type": "Feature", "properties": { "内容": "あっぷる尼崎【特定福祉用具販売】尼崎市神田北通4丁目49-1㈱平安阪神支社ビル１F", "url": "https://www.kaigokensaku.mhlw.go.jp/28/index.php?action_kouhyou_detail_004_kani=true&JigyosyoCd=2873000521-00&ServiceCd=410&Type=search", "url2": "https://www.applekaigo.com" }, "geometry": { "type": "Point", "coordinates": [ 135.411414400000012, 34.7212657 ] } },
{ "type": "Feature", "properties": { "内容": "芦風荘福祉用具レンタル事業所【特定福祉用具販売】兵庫県尼崎市西長洲町１丁目３番１号", "url": "https://www.kaigokensaku.mhlw.go.jp/28/index.php?action_kouhyou_detail_004_kani=true&JigyosyoCd=2873003756-00&ServiceCd=410&Type=search", "url2": "http://www.heiseikai.or.jp" }, "geometry": { "type": "Point", "coordinates": [ 135.424333067132807, 34.728629912688405 ] } },
{ "type": "Feature", "properties": { "内容": "有限会社　ヤマサキケアネット【特定福祉用具販売】尼崎市武庫元町1-21-14ヤマサキケアネット本社ビル", "url": "https://www.kaigokensaku.mhlw.go.jp/28/index.php?action_kouhyou_detail_004_kani=true&JigyosyoCd=2873003822-00&ServiceCd=410&Type=search", "url2": "http://yamasaki-care.net/" }, "geometry": { "type": "Point", "coordinates": [ 135.384477416949494, 34.757753497194805 ] } },
{ "type": "Feature", "properties": { "内容": "福祉ジョイント・エース福祉用具貸与事業所【特定福祉用具販売】兵庫県尼崎市東園田町9丁目15-2", "url": "https://www.kaigokensaku.mhlw.go.jp/28/index.php?action_kouhyou_detail_004_kani=true&JigyosyoCd=2873007344-00&ServiceCd=410&Type=search", "url2": null }, "geometry": { "type": "Point", "coordinates": [ 135.447449600000027, 34.7510688 ] } },
{ "type": "Feature", "properties": { "内容": "ライフプランニング【特定福祉用具販売】兵庫県尼崎市杭瀬南新町1-6-18", "url": "https://www.kaigokensaku.mhlw.go.jp/28/index.php?action_kouhyou_detail_004_kani=true&JigyosyoCd=2873008425-00&ServiceCd=410&Type=search", "url2": null }, "geometry": { "type": "Point", "coordinates": [ 135.43827310000006, 34.7172667 ] } },
{ "type": "Feature", "properties": { "内容": "アルスタックウェルフェアサービス【特定福祉用具販売】兵庫県尼崎市西難波町2-25-14", "url": "https://www.kaigokensaku.mhlw.go.jp/28/index.php?action_kouhyou_detail_004_kani=true&JigyosyoCd=2873009050-00&ServiceCd=410&Type=search", "url2": "http://arusutak.com/" }, "geometry": { "type": "Point", "coordinates": [ 135.404504, 34.7266817 ] } },
{ "type": "Feature", "properties": { "内容": "株式会社ヤマシタ尼崎営業所【特定福祉用具販売】兵庫県尼崎市稲葉元町3丁目15-11", "url": "https://www.kaigokensaku.mhlw.go.jp/28/index.php?action_kouhyou_detail_004_kani=true&JigyosyoCd=2873011254-00&ServiceCd=410&Type=search", "url2": "https://www.ycota.jp/area/60137" }, "geometry": { "type": "Point", "coordinates": [ 135.388954500000011, 34.7342325 ] } },
{ "type": "Feature", "properties": { "内容": "フランスベッド株式会社　メディカル尼崎営業所【特定福祉用具販売】東大物町1-3-31", "url": "https://www.kaigokensaku.mhlw.go.jp/28/index.php?action_kouhyou_detail_004_kani=true&JigyosyoCd=2873012898-00&ServiceCd=410&Type=search", "url2": "https://www.francebed.co.jp" }, "geometry": { "type": "Point", "coordinates": [ 135.4268045, 34.7170521 ] } },
{ "type": "Feature", "properties": { "内容": "西長洲荘福祉用具レンタル事業所【特定福祉用具販売】西長洲町３－３－２０特別養護老人ホーム西長洲荘内", "url": "https://www.kaigokensaku.mhlw.go.jp/28/index.php?action_kouhyou_detail_004_kani=true&JigyosyoCd=2873014373-00&ServiceCd=410&Type=search", "url2": "http://www.heiseikai.or.jp" }, "geometry": { "type": "Point", "coordinates": [ 135.417561299999988, 34.7260684 ] } },
{ "type": "Feature", "properties": { "内容": "有限会社　ナチュラルケア【特定福祉用具販売】兵庫県尼崎市立花町4丁目14-28", "url": "https://www.kaigokensaku.mhlw.go.jp/28/index.php?action_kouhyou_detail_004_kani=true&JigyosyoCd=2873001123-00&ServiceCd=410&Type=search", "url2": "http://natural-care.net" }, "geometry": { "type": "Point", "coordinates": [ 135.397938034918184, 34.73958747012145 ] } },
{ "type": "Feature", "properties": { "内容": "ひとがしゅプラス【特定福祉用具販売】尼崎市塚口町3-32-4-103レーベンス壱番館103", "url": "https://www.kaigokensaku.mhlw.go.jp/28/index.php?action_kouhyou_detail_004_kani=true&JigyosyoCd=2873004069-00&ServiceCd=410&Type=search", "url2": "hito-ga-shu.com" }, "geometry": { "type": "Point", "coordinates": [ 135.408278699999983, 34.7553388 ] } },
{ "type": "Feature", "properties": { "内容": "株式会社トーカイ　尼崎営業所【特定福祉用具販売】尼崎市猪名寺1町目22番20号", "url": "https://www.kaigokensaku.mhlw.go.jp/28/index.php?action_kouhyou_detail_004_kani=true&JigyosyoCd=2873008003-00&ServiceCd=410&Type=search", "url2": "http://www.tokai-corp.com/" }, "geometry": { "type": "Point", "coordinates": [ 135.425019900000052, 34.7664667 ] } },
{ "type": "Feature", "properties": { "内容": "有限会社明石福祉介護サービス【特定福祉用具販売】明石市西明石北町３丁目２－１７", "url": "https://www.kaigokensaku.mhlw.go.jp/28/index.php?action_kouhyou_detail_004_kani=true&JigyosyoCd=2872000381-00&ServiceCd=410&Type=search", "url2": "http://akashi-wns.com/about.html" }, "geometry": { "type": "Point", "coordinates": [ 134.964908700000024, 34.6699434 ] } },
{ "type": "Feature", "properties": { "内容": "パナソニックエイジフリーショップ明石【特定福祉用具販売】兵庫県明石市二見町西二見89-7兵庫二見プラザ106-B", "url": "https://www.kaigokensaku.mhlw.go.jp/28/index.php?action_kouhyou_detail_004_kani=true&JigyosyoCd=2872004334-00&ServiceCd=410&Type=search", "url2": "http://sumai.panasonic.jp/agefree/shop/search/shop_detail.php?shop=933" }, "geometry": { "type": "Point", "coordinates": [ 134.8892722, 34.7117716 ] } },
{ "type": "Feature", "properties": { "内容": "株式会社セレクト　兵庫支店【特定福祉用具販売】明石市西新町２丁目１２－２４", "url": "https://www.kaigokensaku.mhlw.go.jp/28/index.php?action_kouhyou_detail_004_kani=true&JigyosyoCd=2872003252-00&ServiceCd=410&Type=search", "url2": "http://www.select-shinsengumi.co.jp/" }, "geometry": { "type": "Point", "coordinates": [ 134.9805662, 34.6519695 ] } },
{ "type": "Feature", "properties": { "内容": "介護サービスどんぐり【特定福祉用具販売】兵庫県明石市大久保町西島399-1ロイヤル大久保南303", "url": "https://www.kaigokensaku.mhlw.go.jp/28/index.php?action_kouhyou_detail_004_kani=true&JigyosyoCd=2872005364-00&ServiceCd=410&Type=search", "url2": null }, "geometry": { "type": "Point", "coordinates": [ 134.9131654, 34.6841123 ] } },
{ "type": "Feature", "properties": { "内容": "フランスベッド株式会社メディカル兵庫営業所【特定福祉用具販売】兵庫県明石市鍛治屋町4-30北條ビル1階", "url": "https://www.kaigokensaku.mhlw.go.jp/28/index.php?action_kouhyou_detail_004_kani=true&JigyosyoCd=2872003229-00&ServiceCd=410&Type=search", "url2": "http://www.francebed.co.jp/" }, "geometry": { "type": "Point", "coordinates": [ 134.994328189549265, 34.64571909798083 ] } },
{ "type": "Feature", "properties": { "内容": "セカンドライフ【特定福祉用具販売】明石市魚住町住吉1丁目11-16", "url": "https://www.kaigokensaku.mhlw.go.jp/28/index.php?action_kouhyou_detail_004_kani=true&JigyosyoCd=2872002544-00&ServiceCd=410&Type=search", "url2": "https://secondlife-care.com/" }, "geometry": { "type": "Point", "coordinates": [ 134.90353274481663, 34.691761055941015 ] } },
{ "type": "Feature", "properties": { "内容": "SASAERUNE【特定福祉用具販売】兵庫県明石市魚住町錦が丘1-12-9-101", "url": "https://www.kaigokensaku.mhlw.go.jp/28/index.php?action_kouhyou_detail_004_kani=true&JigyosyoCd=2872005190-00&ServiceCd=410&Type=search", "url2": null }, "geometry": { "type": "Point", "coordinates": [ 134.9112714, 34.6975017 ] } },
{ "type": "Feature", "properties": { "内容": "アルク福祉用具【特定福祉用具販売】兵庫県明石市二見町西二見１８番地の７５", "url": "https://www.kaigokensaku.mhlw.go.jp/28/index.php?action_kouhyou_detail_004_kani=true&JigyosyoCd=2872004904-00&ServiceCd=410&Type=search", "url2": "https:///www.aruku.website/" }, "geometry": { "type": "Point", "coordinates": [ 134.88980289999995, 34.7141943 ] } },
{ "type": "Feature", "properties": { "内容": "ケアサポート西本　明石営業所【特定福祉用具販売】兵庫県明石市西新町1丁目22-4", "url": "https://www.kaigokensaku.mhlw.go.jp/28/index.php?action_kouhyou_detail_004_kani=true&JigyosyoCd=2872005927-00&ServiceCd=410&Type=search", "url2": "https://www.nishimoto-kobe.com/" }, "geometry": { "type": "Point", "coordinates": [ 134.982401, 34.6520432 ] } },
{ "type": "Feature", "properties": { "内容": "ＳＫサービス【特定福祉用具販売】兵庫県西宮市小松町２丁目5番18号FKマンション１階", "url": "https://www.kaigokensaku.mhlw.go.jp/28/index.php?action_kouhyou_detail_004_kani=true&JigyosyoCd=2870908635-00&ServiceCd=410&Type=search", "url2": "sk-shinkichi.co.jp" }, "geometry": { "type": "Point", "coordinates": [ 135.379365299999989, 34.721868 ] } },
{ "type": "Feature", "properties": { "内容": "ダスキンヘルスレント西宮ステーション【特定福祉用具販売】兵庫県西宮市上大市4丁目8-9", "url": "https://www.kaigokensaku.mhlw.go.jp/28/index.php?action_kouhyou_detail_004_kani=true&JigyosyoCd=2870905011-00&ServiceCd=410&Type=search", "url2": null }, "geometry": { "type": "Point", "coordinates": [ 135.365557800000033, 34.7631625 ] } },
{ "type": "Feature", "properties": { "内容": "兵庫リハビリ株式会社【特定福祉用具販売】西宮市与古道町６番１７号", "url": "https://www.kaigokensaku.mhlw.go.jp/28/index.php?action_kouhyou_detail_004_kani=true&JigyosyoCd=2870900616-00&ServiceCd=410&Type=search", "url2": "http://www.kaigoyouhin-direct.com/" }, "geometry": { "type": "Point", "coordinates": [ 135.3417422, 34.7343356 ] } },
{ "type": "Feature", "properties": { "内容": "有限会社　アイ・アイ【特定福祉用具販売】西宮市高須町1丁目1－2－213メルカードむこがわ", "url": "https://www.kaigokensaku.mhlw.go.jp/28/index.php?action_kouhyou_detail_004_kani=true&JigyosyoCd=2870901580-00&ServiceCd=410&Type=search", "url2": "aifukusi@amber.plala.or.jp" }, "geometry": { "type": "Point", "coordinates": [ 135.370999200000028, 34.7056715 ] } },
{ "type": "Feature", "properties": { "内容": "ラポール福祉用具貸与事業所【特定福祉用具販売】西宮市石在町１１番１１－１０２号", "url": "https://www.kaigokensaku.mhlw.go.jp/28/index.php?action_kouhyou_detail_004_kani=true&JigyosyoCd=2870902117-00&ServiceCd=410&Type=search", "url2": null }, "geometry": { "type": "Point", "coordinates": [ 135.3425866, 34.7292555 ] } },
{ "type": "Feature", "properties": { "内容": "エービーシーケアセンター【特定福祉用具販売】西宮市生瀬町2-8-14", "url": "https://www.kaigokensaku.mhlw.go.jp/28/index.php?action_kouhyou_detail_004_kani=true&JigyosyoCd=2870902471-00&ServiceCd=410&Type=search", "url2": "http://www.abc-cc.jp/" }, "geometry": { "type": "Point", "coordinates": [ 135.328172, 34.8193259 ] } },
{ "type": "Feature", "properties": { "内容": "あんしん生活福祉用具貸与事業所【特定福祉用具販売】兵庫県西宮市甲子園浦風町1-23-1F", "url": "https://www.kaigokensaku.mhlw.go.jp/28/index.php?action_kouhyou_detail_004_kani=true&JigyosyoCd=2870907397-00&ServiceCd=410&Type=search", "url2": "https://sprout-co.jp/" }, "geometry": { "type": "Point", "coordinates": [ 135.358571100000034, 34.7277726 ] } },
{ "type": "Feature", "properties": { "内容": "有限会社　トリニティ【特定福祉用具販売】西宮市津門大箇町2-23平山ビル2階", "url": "https://www.kaigokensaku.mhlw.go.jp/28/index.php?action_kouhyou_detail_004_kani=true&JigyosyoCd=2870902893-00&ServiceCd=410&Type=search", "url2": "http://trinity-web.net" }, "geometry": { "type": "Point", "coordinates": [ 135.354011686757872, 34.735589050617683 ] } },
{ "type": "Feature", "properties": { "内容": "神戸レンタル【特定福祉用具販売】西宮市高木東町１１番３８号", "url": "https://www.kaigokensaku.mhlw.go.jp/28/index.php?action_kouhyou_detail_004_kani=true&JigyosyoCd=2870903859-00&ServiceCd=410&Type=search", "url2": null }, "geometry": { "type": "Point", "coordinates": [ 135.364243, 34.7503982 ] } },
{ "type": "Feature", "properties": { "内容": "株式会社　リブズ【特定福祉用具販売】西宮市若草町2丁目１０－１３", "url": "https://www.kaigokensaku.mhlw.go.jp/28/index.php?action_kouhyou_detail_004_kani=true&JigyosyoCd=2870904154-00&ServiceCd=410&Type=search", "url2": "http://www.lives-ltd.jp" }, "geometry": { "type": "Point", "coordinates": [ 135.375415, 34.7259784 ] } },
{ "type": "Feature", "properties": { "内容": "ライフサポート光【特定福祉用具販売】西宮市里中町2丁目2番9号エミネント多田1F", "url": "https://www.kaigokensaku.mhlw.go.jp/28/index.php?action_kouhyou_detail_004_kani=true&JigyosyoCd=2870904972-00&ServiceCd=410&Type=search", "url2": null }, "geometry": { "type": "Point", "coordinates": [ 135.373566134305094, 34.721763401699704 ] } },
{ "type": "Feature", "properties": { "内容": "アウルサポート【特定福祉用具販売】兵庫県西宮市甲子園浦風町6-20", "url": "https://www.kaigokensaku.mhlw.go.jp/28/index.php?action_kouhyou_detail_004_kani=true&JigyosyoCd=2870906548-00&ServiceCd=410&Type=search", "url2": "https://www.funacli.or.jp/fukurou-day/guide/fukuroudayowlsupport/" }, "geometry": { "type": "Point", "coordinates": [ 135.363022699999988, 34.725911 ] } },
{ "type": "Feature", "properties": { "内容": "羽衣福祉用具センター【特定福祉用具販売】津門稲荷町10-22", "url": "https://www.kaigokensaku.mhlw.go.jp/28/index.php?action_kouhyou_detail_004_kani=true&JigyosyoCd=2870908791-00&ServiceCd=410&Type=search", "url2": "https://baby-leaf.co.jp/?page_id=1249" }, "geometry": { "type": "Point", "coordinates": [ 135.352605399999987, 34.7360261 ] } },
{ "type": "Feature", "properties": { "内容": "西宮市社会福祉事業団　すこやか福祉用具サポートセンター【特定福祉用具販売】兵庫県西宮市林田町７－１７", "url": "https://www.kaigokensaku.mhlw.go.jp/28/index.php?action_kouhyou_detail_004_kani=true&JigyosyoCd=2870900848-00&ServiceCd=410&Type=search", "url2": "https://www.nishinomiya-fukushi.jp/" }, "geometry": { "type": "Point", "coordinates": [ 135.361026600000088, 34.7574529 ] } },
{ "type": "Feature", "properties": { "内容": "有限会社アール・エム　はなまる介護センター【特定福祉用具販売】兵庫県西宮市今津曙町12-3", "url": "https://www.kaigokensaku.mhlw.go.jp/28/index.php?action_kouhyou_detail_004_kani=true&JigyosyoCd=2870901739-00&ServiceCd=410&Type=search", "url2": "http://hanamarukaigo.com/" }, "geometry": { "type": "Point", "coordinates": [ 135.357463199999984, 34.7280725 ] } },
{ "type": "Feature", "properties": { "内容": "西宮市社会福祉事業団　小松福祉用具サポートセンター【特定福祉用具販売】兵庫県西宮市小松北町2-8-1第２１ヒグチビル", "url": "https://www.kaigokensaku.mhlw.go.jp/28/index.php?action_kouhyou_detail_004_kani=true&JigyosyoCd=2870905193-00&ServiceCd=410&Type=search", "url2": "https://www.nishinomiya-fukushi.jp/" }, "geometry": { "type": "Point", "coordinates": [ 135.375773400000099, 34.7242341 ] } },
{ "type": "Feature", "properties": { "内容": "福祉用具こころ【特定福祉用具販売】兵庫県西宮市城ケ堀町2-19", "url": "https://www.kaigokensaku.mhlw.go.jp/28/index.php?action_kouhyou_detail_004_kani=true&JigyosyoCd=2870907207-00&ServiceCd=410&Type=search", "url2": "http://www.ikokoro.co.jp/" }, "geometry": { "type": "Point", "coordinates": [ 135.3398574, 34.7416658 ] } },
{ "type": "Feature", "properties": { "内容": "セカンドライフ阪神支店【特定福祉用具販売】兵庫県西宮市門戸荘2-18ウエルズ21門戸104号", "url": "https://www.kaigokensaku.mhlw.go.jp/28/index.php?action_kouhyou_detail_004_kani=true&JigyosyoCd=2870909054-00&ServiceCd=410&Type=search", "url2": "https://secondlife-care.com/" }, "geometry": { "type": "Point", "coordinates": [ 135.355975932750624, 34.754584965792638 ] } },
{ "type": "Feature", "properties": { "内容": "株式会社みやこ福祉用具　西宮店【特定福祉用具販売】兵庫県西宮市甲子園口4-12-5", "url": "https://www.kaigokensaku.mhlw.go.jp/28/index.php?action_kouhyou_detail_004_kani=true&JigyosyoCd=2870909294-00&ServiceCd=410&Type=search", "url2": null }, "geometry": { "type": "Point", "coordinates": [ 135.369558658895471, 34.736593988393899 ] } },
{ "type": "Feature", "properties": { "内容": "株式会社ランクル【特定福祉用具販売】中須佐町2-25", "url": "https://www.kaigokensaku.mhlw.go.jp/28/index.php?action_kouhyou_detail_004_kani=true&JigyosyoCd=2870909518-00&ServiceCd=410&Type=search", "url2": null }, "geometry": { "type": "Point", "coordinates": [ 135.3461461, 34.7418795 ] } },
{ "type": "Feature", "properties": { "内容": "たいが【特定福祉用具販売】甲子園口3丁目26-9-101", "url": "https://www.kaigokensaku.mhlw.go.jp/28/index.php?action_kouhyou_detail_004_kani=true&JigyosyoCd=2870909542-00&ServiceCd=410&Type=search", "url2": null }, "geometry": { "type": "Point", "coordinates": [ 135.3731238, 34.7347297 ] } },
{ "type": "Feature", "properties": { "内容": "フランスベッド株式会社　メディカル西宮営業所【特定福祉用具販売】兵庫県西宮市西宮浜1-41", "url": "https://www.kaigokensaku.mhlw.go.jp/28/index.php?action_kouhyou_detail_004_kani=true&JigyosyoCd=2870903909-00&ServiceCd=410&Type=search", "url2": "http://www.francebed.co.jp" }, "geometry": { "type": "Point", "coordinates": [ 135.337936600000035, 34.7163601 ] } },
{ "type": "Feature", "properties": { "内容": "アビリティーズ・ケアネット株式会社阪神営業所【特定福祉用具販売】兵庫県西宮市津門大箇町4番10号安田ビルⅡ号館１階", "url": "https://www.kaigokensaku.mhlw.go.jp/28/index.php?action_kouhyou_detail_004_kani=true&JigyosyoCd=2870907595-00&ServiceCd=410&Type=search", "url2": "https://www.abilities.jp/" }, "geometry": { "type": "Point", "coordinates": [ 135.356179699999984, 34.736322 ] } },
{ "type": "Feature", "properties": { "内容": "PID介護サービス【特定福祉用具販売】兵庫県西宮市薬師町2－50", "url": "https://www.kaigokensaku.mhlw.go.jp/28/index.php?action_kouhyou_detail_004_kani=true&JigyosyoCd=2870909344-00&ServiceCd=410&Type=search", "url2": "https://project-id.jp/" }, "geometry": { "type": "Point", "coordinates": [ 135.3631253, 34.7527732 ] } },
{ "type": "Feature", "properties": { "内容": "有限会社　鮎原薬局【特定福祉用具販売】兵庫県洲本市洲本市五色町鮎原西１３番地３", "url": "https://www.kaigokensaku.mhlw.go.jp/28/index.php?action_kouhyou_detail_004_kani=true&JigyosyoCd=2841500578-00&ServiceCd=410&Type=search", "url2": null }, "geometry": { "type": "Point", "coordinates": [ 134.8146567, 34.39821 ] } },
{ "type": "Feature", "properties": { "内容": "ジャック福祉用具ステーション【特定福祉用具販売】兵庫県洲本市中川原町三木田331番地1", "url": "https://www.kaigokensaku.mhlw.go.jp/28/index.php?action_kouhyou_detail_004_kani=true&JigyosyoCd=2871501298-00&ServiceCd=410&Type=search", "url2": "https://www.jack0300.co.jp" }, "geometry": { "type": "Point", "coordinates": [ 134.8661338, 34.3599751 ] } },
{ "type": "Feature", "properties": { "内容": "株式会社　戸田薬局【特定福祉用具販売】兵庫県洲本市物部１丁目７番１１号", "url": "https://www.kaigokensaku.mhlw.go.jp/28/index.php?action_kouhyou_detail_004_kani=true&JigyosyoCd=2841500081-00&ServiceCd=410&Type=search", "url2": null }, "geometry": { "type": "Point", "coordinates": [ 134.887142600000061, 34.3409983 ] } },
{ "type": "Feature", "properties": { "内容": "株式会社ゴトウ・アズ・プランニング甲南営業所【特定福祉用具販売】兵庫県芦屋市打出小槌町4-6打出小槌館芦屋102", "url": "https://www.kaigokensaku.mhlw.go.jp/28/index.php?action_kouhyou_detail_004_kani=true&JigyosyoCd=2871001646-00&ServiceCd=410&Type=search", "url2": "http://www.goto-az.co.jp/" }, "geometry": { "type": "Point", "coordinates": [ 135.312807966915898, 34.732230974183921 ] } },
{ "type": "Feature", "properties": { "内容": "ロジケアあしや【特定福祉用具販売】兵庫県芦屋市大原町4番10号", "url": "https://www.kaigokensaku.mhlw.go.jp/28/index.php?action_kouhyou_detail_004_kani=true&JigyosyoCd=2871001885-00&ServiceCd=410&Type=search", "url2": "http://logicare.co.jp" }, "geometry": { "type": "Point", "coordinates": [ 135.3101485, 34.7358531 ] } },
{ "type": "Feature", "properties": { "内容": "株式会社Ｃｏｒｅ‐Ｓ【特定福祉用具販売】兵庫県伊丹市鴻池５丁目９番３７号", "url": "https://www.kaigokensaku.mhlw.go.jp/28/index.php?action_kouhyou_detail_004_kani=true&JigyosyoCd=2873302638-00&ServiceCd=410&Type=search", "url2": "https://www.smg-core-s.jp/" }, "geometry": { "type": "Point", "coordinates": [ 135.3886694, 34.8003144 ] } },
{ "type": "Feature", "properties": { "内容": "川村義肢株式会社　兵庫営業所【特定福祉用具販売】兵庫県伊丹市森本２－２６８－２", "url": "https://www.kaigokensaku.mhlw.go.jp/28/index.php?action_kouhyou_detail_004_kani=true&JigyosyoCd=2873300137-00&ServiceCd=410&Type=search", "url2": "http://www.kawamura-gishi.co.jp" }, "geometry": { "type": "Point", "coordinates": [ 135.4308277, 34.7804347 ] } },
{ "type": "Feature", "properties": { "内容": "株式会社　ゆずりは【特定福祉用具販売】兵庫県伊丹市岩屋1丁目8-43", "url": "https://www.kaigokensaku.mhlw.go.jp/28/index.php?action_kouhyou_detail_004_kani=true&JigyosyoCd=2873300244-00&ServiceCd=410&Type=search", "url2": "http://www.yuzuriha.co.jp" }, "geometry": { "type": "Point", "coordinates": [ 135.442924193259643, 34.776206512303986 ] } },
{ "type": "Feature", "properties": { "内容": "あじさい居宅介護支援センター伊丹【特定福祉用具販売】兵庫県伊丹市南野3丁目1番18号", "url": "https://www.kaigokensaku.mhlw.go.jp/28/index.php?action_kouhyou_detail_004_kani=true&JigyosyoCd=2873300616-00&ServiceCd=410&Type=search", "url2": null }, "geometry": { "type": "Point", "coordinates": [ 135.4068691, 34.7685275 ] } },
{ "type": "Feature", "properties": { "内容": "介護ショップありがとう【特定福祉用具販売】南野北3-6-15", "url": "https://www.kaigokensaku.mhlw.go.jp/28/index.php?action_kouhyou_detail_004_kani=true&JigyosyoCd=2873303693-00&ServiceCd=410&Type=search", "url2": null }, "geometry": { "type": "Point", "coordinates": [ 135.4010096, 34.7696353 ] } },
{ "type": "Feature", "properties": { "内容": "星優クリニック　福祉用具貸与事業所【特定福祉用具販売】兵庫県伊丹市桜ヶ丘1丁目3-23", "url": "https://www.kaigokensaku.mhlw.go.jp/28/index.php?action_kouhyou_detail_004_kani=true&JigyosyoCd=2813302375-00&ServiceCd=410&Type=search", "url2": "https://seishokai-gr.or.jp" }, "geometry": { "type": "Point", "coordinates": [ 135.410371199999986, 34.7837807 ] } },
{ "type": "Feature", "properties": { "内容": "有限会社フォローシップ【特定福祉用具販売】伊丹市中野北1-6-4-107", "url": "https://www.kaigokensaku.mhlw.go.jp/28/index.php?action_kouhyou_detail_004_kani=true&JigyosyoCd=2873301291-00&ServiceCd=410&Type=search", "url2": null }, "geometry": { "type": "Point", "coordinates": [ 135.382230099999987, 34.7956207 ] } },
{ "type": "Feature", "properties": { "内容": "介護ショップヘルシーライフ兵庫支店【特定福祉用具販売】兵庫県伊丹市荻野6-40ハイツ荻野Ⅱ　1階", "url": "https://www.kaigokensaku.mhlw.go.jp/28/index.php?action_kouhyou_detail_004_kani=true&JigyosyoCd=2873303362-00&ServiceCd=410&Type=search", "url2": "http://www.go-kenko.jp/" }, "geometry": { "type": "Point", "coordinates": [ 135.391284899999988, 34.8086624 ] } },
{ "type": "Feature", "properties": { "内容": "介護支援　あい【特定福祉用具販売】相生市那波大浜町7-3", "url": "https://www.kaigokensaku.mhlw.go.jp/28/index.php?action_kouhyou_detail_004_kani=true&JigyosyoCd=2874200179-00&ServiceCd=410&Type=search", "url2": null }, "geometry": { "type": "Point", "coordinates": [ 134.469361145507861, 34.811758726873968 ] } },
{ "type": "Feature", "properties": { "内容": "リーステップ【特定福祉用具販売】兵庫県相生市赤坂1丁目13番地11号", "url": "https://www.kaigokensaku.mhlw.go.jp/28/index.php?action_kouhyou_detail_004_kani=true&JigyosyoCd=2874200518-00&ServiceCd=410&Type=search", "url2": "https://lstepaioi.wixsite.com/lstep" }, "geometry": { "type": "Point", "coordinates": [ 134.4845823, 34.815456 ] } },
{ "type": "Feature", "properties": { "内容": "株式会社　たんぽぽ　豊岡店【特定福祉用具販売】兵庫県豊岡市日高町土居160-3", "url": "https://www.kaigokensaku.mhlw.go.jp/28/index.php?action_kouhyou_detail_004_kani=true&JigyosyoCd=2874401215-00&ServiceCd=410&Type=search", "url2": "http://www.kktanpopo.com" }, "geometry": { "type": "Point", "coordinates": [ 134.783990223339856, 35.48243585385142 ] } },
{ "type": "Feature", "properties": { "内容": "株式会社ケアネット但馬支店【特定福祉用具販売】兵庫県豊岡市寿町8番26号", "url": "https://www.kaigokensaku.mhlw.go.jp/28/index.php?action_kouhyou_detail_004_kani=true&JigyosyoCd=2874600055-00&ServiceCd=410&Type=search", "url2": "http://www.carenet-y.co.jp/" }, "geometry": { "type": "Point", "coordinates": [ 134.817346639372232, 35.54671486738544 ] } },
{ "type": "Feature", "properties": { "内容": "コヤマリビング　貸与事業所【特定福祉用具販売】兵庫県豊岡市日高町浅倉983", "url": "https://www.kaigokensaku.mhlw.go.jp/28/index.php?action_kouhyou_detail_004_kani=true&JigyosyoCd=2874400977-00&ServiceCd=410&Type=search", "url2": null }, "geometry": { "type": "Point", "coordinates": [ 134.773158599999988, 35.4536541 ] } },
{ "type": "Feature", "properties": { "内容": "介護SHOPベンリー【特定福祉用具販売】兵庫県豊岡市昭和町１番１７号", "url": "https://www.kaigokensaku.mhlw.go.jp/28/index.php?action_kouhyou_detail_004_kani=true&JigyosyoCd=2874400126-00&ServiceCd=410&Type=search", "url2": "https://miraieskip.com/" }, "geometry": { "type": "Point", "coordinates": [ 134.820301, 35.5334653 ] } },
{ "type": "Feature", "properties": { "内容": "マリヤ医科興業株式会社【特定福祉用具販売】兵庫県豊岡市寿町１０－１０", "url": "https://www.kaigokensaku.mhlw.go.jp/28/index.php?action_kouhyou_detail_004_kani=true&JigyosyoCd=2874400167-00&ServiceCd=410&Type=search", "url2": "http://www.mariya-web.jp" }, "geometry": { "type": "Point", "coordinates": [ 134.815670800000021, 35.5471556 ] } },
{ "type": "Feature", "properties": { "内容": "株式会社エイトＭＡＮ豊岡営業所【特定福祉用具販売】上陰225-1", "url": "https://www.kaigokensaku.mhlw.go.jp/28/index.php?action_kouhyou_detail_004_kani=true&JigyosyoCd=2874401645-00&ServiceCd=410&Type=search", "url2": "eightman.info" }, "geometry": { "type": "Point", "coordinates": [ 134.807947372158168, 35.548045598213463 ] } },
{ "type": "Feature", "properties": { "内容": "株式会社　ゴトウ・アズ・プランニング加古川営業所【特定福祉用具販売】加古川市加古川町大野１０５－１", "url": "https://www.kaigokensaku.mhlw.go.jp/28/index.php?action_kouhyou_detail_004_kani=true&JigyosyoCd=2872202672-00&ServiceCd=410&Type=search", "url2": "http://www.goto-az.co.jp" }, "geometry": { "type": "Point", "coordinates": [ 134.85941272407311, 34.782063255384003 ] } },
{ "type": "Feature", "properties": { "内容": "株式会社セルフ【特定福祉用具販売】兵庫県加古川市別府町新野辺2086", "url": "https://www.kaigokensaku.mhlw.go.jp/28/index.php?action_kouhyou_detail_004_kani=true&JigyosyoCd=2872201302-00&ServiceCd=410&Type=search", "url2": "https://doleme.net" }, "geometry": { "type": "Point", "coordinates": [ 134.83982519999995, 34.7341996 ] } },
{ "type": "Feature", "properties": { "内容": "あっぷるレンタル事業所加古川【特定福祉用具販売】加古川市尾上町旭３丁目50", "url": "https://www.kaigokensaku.mhlw.go.jp/28/index.php?action_kouhyou_detail_004_kani=true&JigyosyoCd=2872202359-00&ServiceCd=410&Type=search", "url2": "http://www.apple-117.jp" }, "geometry": { "type": "Point", "coordinates": [ 134.818238400000041, 34.7515201 ] } },
{ "type": "Feature", "properties": { "内容": "エイジサポート【特定福祉用具販売】加古川市尾上町長田524-8", "url": "https://www.kaigokensaku.mhlw.go.jp/28/index.php?action_kouhyou_detail_004_kani=true&JigyosyoCd=2872200841-00&ServiceCd=410&Type=search", "url2": null }, "geometry": { "type": "Point", "coordinates": [ 134.824786391518387, 34.740259100787114 ] } },
{ "type": "Feature", "properties": { "内容": "あさみ生活応援隊【特定福祉用具販売】兵庫県加古川市加古川町粟津661番地の6", "url": "https://www.kaigokensaku.mhlw.go.jp/28/index.php?action_kouhyou_detail_004_kani=true&JigyosyoCd=2872202979-00&ServiceCd=410&Type=search", "url2": "http://hp.kaipoke.biz/bx3/index.html" }, "geometry": { "type": "Point", "coordinates": [ 134.831500516250372, 34.759098156347392 ] } },
{ "type": "Feature", "properties": { "内容": "介護相談室あえる【特定福祉用具販売】野口町北野１２８９－２", "url": "https://www.kaigokensaku.mhlw.go.jp/28/index.php?action_kouhyou_detail_004_kani=true&JigyosyoCd=2872203092-00&ServiceCd=410&Type=search", "url2": "http://www.a-lc.co.jp" }, "geometry": { "type": "Point", "coordinates": [ 134.874645943967721, 34.759531457843728 ] } },
{ "type": "Feature", "properties": { "内容": "関西医療株式会社　福祉用具貸与事業所【特定福祉用具販売】加古川市加古川町備後３９４", "url": "https://www.kaigokensaku.mhlw.go.jp/28/index.php?action_kouhyou_detail_004_kani=true&JigyosyoCd=2872200353-00&ServiceCd=410&Type=search", "url2": "http://kansai-i.co.jp/" }, "geometry": { "type": "Point", "coordinates": [ 134.819527099999959, 34.7576723 ] } },
{ "type": "Feature", "properties": { "内容": "ダスキンヘルスレント東加古川ステーション【特定福祉用具販売】兵庫県加古川市野口町野口６８－１", "url": "https://www.kaigokensaku.mhlw.go.jp/28/index.php?action_kouhyou_detail_004_kani=true&JigyosyoCd=2872200957-00&ServiceCd=410&Type=search", "url2": "http://healthrent.duskin.jp" }, "geometry": { "type": "Point", "coordinates": [ 134.853415021531646, 34.753020688223287 ] } },
{ "type": "Feature", "properties": { "内容": "株式会社　メディカルケア【特定福祉用具販売】兵庫県加古川市加古川町稲屋126", "url": "https://www.kaigokensaku.mhlw.go.jp/28/index.php?action_kouhyou_detail_004_kani=true&JigyosyoCd=2872203647-00&ServiceCd=410&Type=search", "url2": "http://.medical-c.jp" }, "geometry": { "type": "Point", "coordinates": [ 134.819840900000031, 34.7593361 ] } },
{ "type": "Feature", "properties": { "内容": "FIND【特定福祉用具販売】兵庫県加古川市野口町良野686-15", "url": "https://www.kaigokensaku.mhlw.go.jp/28/index.php?action_kouhyou_detail_004_kani=true&JigyosyoCd=2872204207-00&ServiceCd=410&Type=search", "url2": "https://www.fukushiyougu.net/" }, "geometry": { "type": "Point", "coordinates": [ 134.847485400000011, 34.7551438 ] } },
{ "type": "Feature", "properties": { "内容": "テクノエイドセンターあすなろ【特定福祉用具販売】細野町780", "url": "https://www.kaigokensaku.mhlw.go.jp/28/index.php?action_kouhyou_detail_004_kani=true&JigyosyoCd=2874300672-00&ServiceCd=410&Type=search", "url2": "yume-reha.co.jp" }, "geometry": { "type": "Point", "coordinates": [ 134.403293100000013, 34.7562878 ] } },
{ "type": "Feature", "properties": { "内容": "株式会社アスエール　ヘルシーガーデン【特定福祉用具販売】尾崎3161-13ロマーナK内", "url": "https://www.kaigokensaku.mhlw.go.jp/28/index.php?action_kouhyou_detail_004_kani=true&JigyosyoCd=2874300490-00&ServiceCd=410&Type=search", "url2": null }, "geometry": { "type": "Point", "coordinates": [ 134.405972, 34.7414498 ] } },
{ "type": "Feature", "properties": { "内容": "有限会社　和高住宅【特定福祉用具販売】兵庫県赤穂市中浜町11-23", "url": "https://www.kaigokensaku.mhlw.go.jp/28/index.php?action_kouhyou_detail_004_kani=true&JigyosyoCd=2874300664-00&ServiceCd=410&Type=search", "url2": null }, "geometry": { "type": "Point", "coordinates": [ 134.399247380356627, 34.743658296002124 ] } },
{ "type": "Feature", "properties": { "内容": "有限会社　セントラル・メディカル・サービス【特定福祉用具販売】兵庫県赤穂市加里屋字新町９８－１６", "url": "https://www.kaigokensaku.mhlw.go.jp/28/index.php?action_kouhyou_detail_004_kani=true&JigyosyoCd=2874300300-00&ServiceCd=410&Type=search", "url2": "http://www.hakuho.or.jp/ako/cms/" }, "geometry": { "type": "Point", "coordinates": [ 134.386554617305023, 34.756144637654344 ] } },
{ "type": "Feature", "properties": { "内容": "介護ショップ赤とんぼ【特定福祉用具販売】兵庫県西脇市西脇1239-2", "url": "https://www.kaigokensaku.mhlw.go.jp/28/index.php?action_kouhyou_detail_004_kani=true&JigyosyoCd=2871800062-00&ServiceCd=410&Type=search", "url2": "https://www.kaigoshop-akatonbo.com" }, "geometry": { "type": "Point", "coordinates": [ 134.973991299999966, 34.9807676 ] } },
{ "type": "Feature", "properties": { "内容": "聖隷コミュニティケアセンター宝塚店【特定福祉用具販売】宝塚市逆瀬川2-2-8", "url": "https://www.kaigokensaku.mhlw.go.jp/28/index.php?action_kouhyou_detail_004_kani=true&JigyosyoCd=2871100588-00&ServiceCd=410&Type=search", "url2": "http://www.seirei.or.jp/hq/facility/home/tools/takaraduka/index.html" }, "geometry": { "type": "Point", "coordinates": [ 135.350568100000032, 34.7970953 ] } },
{ "type": "Feature", "properties": { "内容": "スマイルサプライ【特定福祉用具販売】宝塚市川面３丁目２３番５号", "url": "https://www.kaigokensaku.mhlw.go.jp/28/index.php?action_kouhyou_detail_004_kani=true&JigyosyoCd=2871101347-00&ServiceCd=410&Type=search", "url2": null }, "geometry": { "type": "Point", "coordinates": [ 135.3429099, 34.8109992 ] } },
{ "type": "Feature", "properties": { "内容": "福祉用具テークケア【特定福祉用具販売】兵庫県宝塚市売布2-11-1ピピアめふ2-109", "url": "https://www.kaigokensaku.mhlw.go.jp/28/index.php?action_kouhyou_detail_004_kani=true&JigyosyoCd=2871103640-00&ServiceCd=410&Type=search", "url2": "http://hp.kaipoke.biz/741/" }, "geometry": { "type": "Point", "coordinates": [ 135.361647599999969, 34.8149459 ] } },
{ "type": "Feature", "properties": { "内容": "デザインワークス【特定福祉用具販売】兵庫県宝塚市寿町8-19", "url": "https://www.kaigokensaku.mhlw.go.jp/28/index.php?action_kouhyou_detail_004_kani=true&JigyosyoCd=2871101818-00&ServiceCd=410&Type=search", "url2": "http//www.dworks-inc.jp" }, "geometry": { "type": "Point", "coordinates": [ 135.365873686508166, 34.812034739143435 ] } },
{ "type": "Feature", "properties": { "内容": "マーレ・アシスト【特定福祉用具販売】兵庫県宝塚市末成町19-44グランデマーレ201", "url": "https://www.kaigokensaku.mhlw.go.jp/28/index.php?action_kouhyou_detail_004_kani=true&JigyosyoCd=2871102147-00&ServiceCd=410&Type=search", "url2": "http://ilmare.jp/" }, "geometry": { "type": "Point", "coordinates": [ 135.3616357, 34.7891854 ] } },
{ "type": "Feature", "properties": { "内容": "宝塚育成事業所【特定福祉用具販売】兵庫県宝塚市安倉西4丁目1番7号", "url": "https://www.kaigokensaku.mhlw.go.jp/28/index.php?action_kouhyou_detail_004_kani=true&JigyosyoCd=2871102691-00&ServiceCd=410&Type=search", "url2": "http://t-ikuseikai.or.jp/top" }, "geometry": { "type": "Point", "coordinates": [ 135.372644199999968, 34.793924 ] } },
{ "type": "Feature", "properties": { "内容": "ライフワン宝塚【特定福祉用具販売】兵庫県宝塚市旭町3丁目1-8-103パレフルール宝塚", "url": "https://www.kaigokensaku.mhlw.go.jp/28/index.php?action_kouhyou_detail_004_kani=true&JigyosyoCd=2871104481-00&ServiceCd=410&Type=search", "url2": "https://www.life-one.jp/" }, "geometry": { "type": "Point", "coordinates": [ 139.629223300000035, 35.7742693 ] } },
{ "type": "Feature", "properties": { "内容": "介護ショップひまわり　宝塚店【特定福祉用具販売】兵庫県宝塚市美幸町10-51　栄レース株式会社内", "url": "https://www.kaigokensaku.mhlw.go.jp/28/index.php?action_kouhyou_detail_004_kani=true&JigyosyoCd=2871104598-00&ServiceCd=410&Type=search", "url2": "https://www.himawari200207.com/" }, "geometry": { "type": "Point", "coordinates": [ 135.3695395, 34.7850611 ] } },
{ "type": "Feature", "properties": { "内容": "介護ショップメルシィ【特定福祉用具販売】兵庫県宝塚市野上2丁目2-32アネックス逆瀬川102号室", "url": "https://www.kaigokensaku.mhlw.go.jp/28/index.php?action_kouhyou_detail_004_kani=true&JigyosyoCd=2871104630-00&ServiceCd=410&Type=search", "url2": null }, "geometry": { "type": "Point", "coordinates": [ 135.3452885, 34.7941007 ] } },
{ "type": "Feature", "properties": { "内容": "株式会社　川　南【特定福祉用具販売】宝塚市川面２丁目1-31", "url": "https://www.kaigokensaku.mhlw.go.jp/28/index.php?action_kouhyou_detail_004_kani=true&JigyosyoCd=2871101321-00&ServiceCd=410&Type=search", "url2": null }, "geometry": { "type": "Point", "coordinates": [ 135.349173400000041, 34.8130517 ] } },
{ "type": "Feature", "properties": { "内容": "神戸レンタル宝塚支店【特定福祉用具販売】安倉南1丁目9番32号", "url": "https://www.kaigokensaku.mhlw.go.jp/28/index.php?action_kouhyou_detail_004_kani=true&JigyosyoCd=2871104499-00&ServiceCd=410&Type=search", "url2": "http://kobe-rental.net/" }, "geometry": { "type": "Point", "coordinates": [ 135.374278800000013, 34.7976444 ] } },
{ "type": "Feature", "properties": { "内容": "ケアサポートきらら【特定福祉用具販売】兵庫県宝塚市大吹町11-35", "url": "https://www.kaigokensaku.mhlw.go.jp/28/index.php?action_kouhyou_detail_004_kani=true&JigyosyoCd=2871102105-00&ServiceCd=410&Type=search", "url2": "http://hp.kaipoke.biz/vcy/" }, "geometry": { "type": "Point", "coordinates": [ 135.3597873, 34.7835193 ] } },
{ "type": "Feature", "properties": { "内容": "ダスキンﾍﾙｽﾚﾝﾄ宝塚ステーション【特定福祉用具販売】宝塚市中筋８丁目２１番38号", "url": "https://www.kaigokensaku.mhlw.go.jp/28/index.php?action_kouhyou_detail_004_kani=true&JigyosyoCd=2871103228-00&ServiceCd=410&Type=search", "url2": "HR-TAKARADUKA@fc.duskin.co.j" }, "geometry": { "type": "Point", "coordinates": [ 135.39259190000007, 34.809703100000014 ] } },
{ "type": "Feature", "properties": { "内容": "ベストスマイルサポート【特定福祉用具販売】兵庫県宝塚市山本東3丁目10-1リーガルコート山本駅前103リーガルコート山本駅前103", "url": "https://www.kaigokensaku.mhlw.go.jp/28/index.php?action_kouhyou_detail_004_kani=true&JigyosyoCd=2871104648-00&ServiceCd=410&Type=search", "url2": "https://bestsmile2015.com/" }, "geometry": { "type": "Point", "coordinates": [ 135.38957798863342, 34.821063023783275 ] } },
{ "type": "Feature", "properties": { "内容": "かいごshopたいこばん【特定福祉用具販売】兵庫県三木市緑が丘町西1丁目6番１９号TOASTMIKI1階", "url": "https://www.kaigokensaku.mhlw.go.jp/28/index.php?action_kouhyou_detail_004_kani=true&JigyosyoCd=2872301433-00&ServiceCd=410&Type=search", "url2": "https://miki-taikoban.jimdoweb.com/%E7%A6%8F%E7%A5%89%E7%94%A8%E5%85%B7%E3%83%AC%E3%83%B3%E3%82%BF%E3%83%AB-%E8%B2%A9%E5%A3%B2/" }, "geometry": { "type": "Point", "coordinates": [ 135.0270741, 34.7732059 ] } },
{ "type": "Feature", "properties": { "内容": "パナソニックエイジフリーショップ川西【特定福祉用具販売】兵庫県川西市小戸2丁目2番22号", "url": "https://www.kaigokensaku.mhlw.go.jp/28/index.php?action_kouhyou_detail_004_kani=true&JigyosyoCd=2873101204-00&ServiceCd=410&Type=search", "url2": null }, "geometry": { "type": "Point", "coordinates": [ 135.418219599999929, 34.8272155 ] } },
{ "type": "Feature", "properties": { "内容": "福祉用具屋健太【特定福祉用具販売】萩原台西1-236", "url": "https://www.kaigokensaku.mhlw.go.jp/28/index.php?action_kouhyou_detail_004_kani=true&JigyosyoCd=2873102400-00&ServiceCd=410&Type=search", "url2": null }, "geometry": { "type": "Point", "coordinates": [ 135.408167400000025, 34.8428248 ] } },
{ "type": "Feature", "properties": { "内容": "介護ショップケアマインド【特定福祉用具販売】けやき坂2-62-22", "url": "https://www.kaigokensaku.mhlw.go.jp/28/index.php?action_kouhyou_detail_004_kani=true&JigyosyoCd=2873102707-00&ServiceCd=410&Type=search", "url2": "www.caremind.co.jp" }, "geometry": { "type": "Point", "coordinates": [ 135.38257550000003, 34.8602339 ] } },
{ "type": "Feature", "properties": { "内容": "株式会社　ココレ【特定福祉用具販売】兵庫県川西市東畦野3丁目15番12号", "url": "https://www.kaigokensaku.mhlw.go.jp/28/index.php?action_kouhyou_detail_004_kani=true&JigyosyoCd=2873103077-00&ServiceCd=410&Type=search", "url2": null }, "geometry": { "type": "Point", "coordinates": [ 135.4100512, 34.8863398 ] } },
{ "type": "Feature", "properties": { "内容": "有限会社　ハートフルケア【特定福祉用具販売】兵庫県川西市出在家町3-3", "url": "https://www.kaigokensaku.mhlw.go.jp/28/index.php?action_kouhyou_detail_004_kani=true&JigyosyoCd=2873100230-00&ServiceCd=410&Type=search", "url2": "http://www.heartfulcare.com" }, "geometry": { "type": "Point", "coordinates": [ 135.421702338761861, 34.836913550995355 ] } },
{ "type": "Feature", "properties": { "内容": "バリアフリーショップ　もみじ【特定福祉用具販売】兵庫県川西市笹部１－３－２１", "url": "https://www.kaigokensaku.mhlw.go.jp/28/index.php?action_kouhyou_detail_004_kani=true&JigyosyoCd=2873100966-00&ServiceCd=410&Type=search", "url2": "http://www.e-momiji.co.jp" }, "geometry": { "type": "Point", "coordinates": [ 135.40719480000007, 34.8945843 ] } },
{ "type": "Feature", "properties": { "内容": "シニアハウスプラン【特定福祉用具販売】兵庫県小野市新部町1539番地2株式会社シニアハウスプラン", "url": "https://www.kaigokensaku.mhlw.go.jp/28/index.php?action_kouhyou_detail_004_kani=true&JigyosyoCd=2871900706-00&ServiceCd=410&Type=search", "url2": "http：//www.senior-house.co.jp" }, "geometry": { "type": "Point", "coordinates": [ 134.922890700000039, 34.879497 ] } },
{ "type": "Feature", "properties": { "内容": "株式会社ワコーテック福祉体験館【特定福祉用具販売】兵庫県小野市河合中町49-6", "url": "https://www.kaigokensaku.mhlw.go.jp/28/index.php?action_kouhyou_detail_004_kani=true&JigyosyoCd=2871900185-00&ServiceCd=410&Type=search", "url2": "http://www.citymarket.co.jp" }, "geometry": { "type": "Point", "coordinates": [ 134.931732199999942, 34.8904697 ] } },
{ "type": "Feature", "properties": { "内容": "八千代ケアサポート株式会社三田店【特定福祉用具販売】兵庫県三田市南が丘1丁目21-8", "url": "https://www.kaigokensaku.mhlw.go.jp/28/index.php?action_kouhyou_detail_004_kani=true&JigyosyoCd=2871200834-00&ServiceCd=410&Type=search", "url2": "http://www.yachiyo-c-s.co.jp" }, "geometry": { "type": "Point", "coordinates": [ 135.221186700000032, 34.8796234 ] } },
{ "type": "Feature", "properties": { "内容": "介援隊三田店【特定福祉用具販売】兵庫県三田市高次1丁目11-5ﾌﾚｲｳﾞｧｰﾊﾟｰｸ1", "url": "https://www.kaigokensaku.mhlw.go.jp/28/index.php?action_kouhyou_detail_004_kani=true&JigyosyoCd=2871200420-00&ServiceCd=410&Type=search", "url2": null }, "geometry": { "type": "Point", "coordinates": [ 135.2331022, 34.888854 ] } },
{ "type": "Feature", "properties": { "内容": "西川株式会社/ネーブルハウス三田事業所【特定福祉用具販売】兵庫県三田市三田町54-5-105", "url": "https://www.kaigokensaku.mhlw.go.jp/28/index.php?action_kouhyou_detail_004_kani=true&JigyosyoCd=2871201444-00&ServiceCd=410&Type=search", "url2": "https://nablehouse.co.jp" }, "geometry": { "type": "Point", "coordinates": [ 135.222692200000012, 34.882899100000031 ] } },
{ "type": "Feature", "properties": { "内容": "ジョイあおやま有限会社【特定福祉用具販売】北条町古坂5丁目13番地夢ポケット加西", "url": "https://www.kaigokensaku.mhlw.go.jp/28/index.php?action_kouhyou_detail_004_kani=true&JigyosyoCd=2872600651-00&ServiceCd=410&Type=search", "url2": null }, "geometry": { "type": "Point", "coordinates": [ 134.85002140000006, 34.9243092 ] } },
{ "type": "Feature", "properties": { "内容": "オレンジ【特定福祉用具販売】兵庫県加西市吉野町137番地の2", "url": "https://www.kaigokensaku.mhlw.go.jp/28/index.php?action_kouhyou_detail_004_kani=true&JigyosyoCd=2872600305-00&ServiceCd=410&Type=search", "url2": "http://total-orange.com/" }, "geometry": { "type": "Point", "coordinates": [ 134.8136409, 34.9214586 ] } },
{ "type": "Feature", "properties": { "内容": "有限会社　ウェルビー【特定福祉用具販売】兵庫県加西市鎮岩町482-1", "url": "https://www.kaigokensaku.mhlw.go.jp/28/index.php?action_kouhyou_detail_004_kani=true&JigyosyoCd=2872600479-00&ServiceCd=410&Type=search", "url2": null }, "geometry": { "type": "Point", "coordinates": [ 134.833884, 34.9067664 ] } },
{ "type": "Feature", "properties": { "内容": "株式会社酒井工務店【特定福祉用具販売】篠山市大野２８１", "url": "https://www.kaigokensaku.mhlw.go.jp/28/index.php?action_kouhyou_detail_004_kani=true&JigyosyoCd=2871400285-00&ServiceCd=410&Type=search", "url2": "https://sakai-koka.com/" }, "geometry": { "type": "Point", "coordinates": [ 135.190422399999989, 35.0872652 ] } },
{ "type": "Feature", "properties": { "内容": "株式会社　吹【特定福祉用具販売】兵庫県丹波篠山市杉33-7", "url": "https://www.kaigokensaku.mhlw.go.jp/28/index.php?action_kouhyou_detail_004_kani=true&JigyosyoCd=2871400293-00&ServiceCd=410&Type=search", "url2": null }, "geometry": { "type": "Point", "coordinates": [ 135.183057, 35.0598786 ] } },
{ "type": "Feature", "properties": { "内容": "有限会社　日昇堂ホームケア【特定福祉用具販売】兵庫県丹波篠山市乾新町26番地", "url": "https://www.kaigokensaku.mhlw.go.jp/28/index.php?action_kouhyou_detail_004_kani=true&JigyosyoCd=2871400186-00&ServiceCd=410&Type=search", "url2": "http://www.nissyoudou-homecare.com/index.html" }, "geometry": { "type": "Point", "coordinates": [ 135.211865200000034, 35.0775411 ] } },
{ "type": "Feature", "properties": { "内容": "真愛介護サービス【特定福祉用具販売】兵庫県養父市上野１０６０", "url": "https://www.kaigokensaku.mhlw.go.jp/28/index.php?action_kouhyou_detail_004_kani=true&JigyosyoCd=2874800614-00&ServiceCd=410&Type=search", "url2": "https://www.sinai-kaigo.com/" }, "geometry": { "type": "Point", "coordinates": [ 134.785345099999972, 35.3787906 ] } },
{ "type": "Feature", "properties": { "内容": "八千代ケアサポート株式会社【特定福祉用具販売】兵庫県丹波市柏原町柏原1393-2", "url": "https://www.kaigokensaku.mhlw.go.jp/28/index.php?action_kouhyou_detail_004_kani=true&JigyosyoCd=2871300337-00&ServiceCd=410&Type=search", "url2": "http://www.yachiyo-c-s.co.jp" }, "geometry": { "type": "Point", "coordinates": [ 135.074110300000029, 35.131686 ] } },
{ "type": "Feature", "properties": { "内容": "株式会社石坪　柏原営業所【特定福祉用具販売】兵庫県丹波市柏原町小南字出口４７－１", "url": "https://www.kaigokensaku.mhlw.go.jp/28/index.php?action_kouhyou_detail_004_kani=true&JigyosyoCd=2871300279-00&ServiceCd=410&Type=search", "url2": "http://www.ishitsubo.co.jp/" }, "geometry": { "type": "Point", "coordinates": [ 135.071638300000018, 35.1271281 ] } },
{ "type": "Feature", "properties": { "内容": "コスモライフ北兵庫【特定福祉用具販売】兵庫県丹波市柏原町南多田４７２－１", "url": "https://www.kaigokensaku.mhlw.go.jp/28/index.php?action_kouhyou_detail_004_kani=true&JigyosyoCd=2871301103-00&ServiceCd=410&Type=search", "url2": "http://cosmo-cosmolife.com" }, "geometry": { "type": "Point", "coordinates": [ 135.062597435582006, 35.141080932965515 ] } },
{ "type": "Feature", "properties": { "内容": "株式会社　ソフトライフ【特定福祉用具販売】兵庫県南あわじ市市円行寺150　三原ショッピングプラザ", "url": "https://www.kaigokensaku.mhlw.go.jp/28/index.php?action_kouhyou_detail_004_kani=true&JigyosyoCd=2871700320-00&ServiceCd=410&Type=search", "url2": "http://softlife.web.fc2.com/" }, "geometry": { "type": "Point", "coordinates": [ 134.778866900000025, 34.2895691 ] } },
{ "type": "Feature", "properties": { "内容": "ケアネットあわじ有限会社【特定福祉用具販売】兵庫県南あわじ市市福永363番地1", "url": "https://www.kaigokensaku.mhlw.go.jp/28/index.php?action_kouhyou_detail_004_kani=true&JigyosyoCd=2871700684-00&ServiceCd=410&Type=search", "url2": "http://nttbj.itp.ne.jp/0120165282/index.html" }, "geometry": { "type": "Point", "coordinates": [ 134.7690761, 34.2894329 ] } },
{ "type": "Feature", "properties": { "内容": "株式会社エイトMAN【特定福祉用具販売】和田山町法興寺387-1", "url": "https://www.kaigokensaku.mhlw.go.jp/28/index.php?action_kouhyou_detail_004_kani=true&JigyosyoCd=2874900349-00&ServiceCd=410&Type=search", "url2": "eightman.info" }, "geometry": { "type": "Point", "coordinates": [ 134.8538031, 35.3251842 ] } },
{ "type": "Feature", "properties": { "内容": "医療法人社団　曽山医院【特定福祉用具販売】兵庫県淡路市志筑1391番地9", "url": "https://www.kaigokensaku.mhlw.go.jp/28/index.php?action_kouhyou_detail_004_kani=true&JigyosyoCd=2811600937-00&ServiceCd=410&Type=search", "url2": "http://www.soyama-clinic.com/" }, "geometry": { "type": "Point", "coordinates": [ 134.89573919999998, 34.4379599 ] } },
{ "type": "Feature", "properties": { "内容": "有限会社ポッポドイ・ケアハウス【特定福祉用具販売】兵庫県淡路市久留麻2048-15", "url": "https://www.kaigokensaku.mhlw.go.jp/28/index.php?action_kouhyou_detail_004_kani=true&JigyosyoCd=2871600231-00&ServiceCd=410&Type=search", "url2": "http://poppodoi.com/" }, "geometry": { "type": "Point", "coordinates": [ 134.989651200000026, 34.5244488 ] } },
{ "type": "Feature", "properties": { "内容": "淡路市社会福祉協議会福祉用具レンタル事業所【特定福祉用具販売】兵庫県淡路市浅野南2-40", "url": "https://www.kaigokensaku.mhlw.go.jp/28/index.php?action_kouhyou_detail_004_kani=true&JigyosyoCd=2871600694-00&ServiceCd=410&Type=search", "url2": "http://www.awaji-csw.or.jp/home" }, "geometry": { "type": "Point", "coordinates": [ 134.913882130977896, 34.532343433044979 ] } },
{ "type": "Feature", "properties": { "内容": "Ｓｋｉｐセゴウ【特定福祉用具販売】兵庫県淡路市久留麻１８２０－１２", "url": "https://www.kaigokensaku.mhlw.go.jp/28/index.php?action_kouhyou_detail_004_kani=true&JigyosyoCd=2871601148-00&ServiceCd=410&Type=search", "url2": "hp.kaipoke.biz/22b/8998/index.0005.html" }, "geometry": { "type": "Point", "coordinates": [ 134.987557, 34.5202187 ] } },
{ "type": "Feature", "properties": { "内容": "株式会社トーカイ淡路営業所【特定福祉用具販売】淡路市志筑新島１０番地7", "url": "https://www.kaigokensaku.mhlw.go.jp/28/index.php?action_kouhyou_detail_004_kani=true&JigyosyoCd=2871601049-00&ServiceCd=410&Type=search", "url2": "http://www.tokai-corp.com/" }, "geometry": { "type": "Point", "coordinates": [ 134.90429180000001, 34.4265278 ] } },
{ "type": "Feature", "properties": { "内容": "つーるとはーと【特定福祉用具販売】兵庫県宍粟市山崎町山崎字山田町200番6", "url": "https://www.kaigokensaku.mhlw.go.jp/28/index.php?action_kouhyou_detail_004_kani=true&JigyosyoCd=2873800755-00&ServiceCd=410&Type=search", "url2": null }, "geometry": { "type": "Point", "coordinates": [ 134.543700899999976, 35.0048469 ] } },
{ "type": "Feature", "properties": { "内容": "ももふく【特定福祉用具販売】兵庫県加東市下滝野1285-23", "url": "https://www.kaigokensaku.mhlw.go.jp/28/index.php?action_kouhyou_detail_004_kani=true&JigyosyoCd=2872500851-00&ServiceCd=410&Type=search", "url2": null }, "geometry": { "type": "Point", "coordinates": [ 134.9504498, 34.9428826 ] } },
{ "type": "Feature", "properties": { "内容": "介護ショップまつおか　加東支店【特定福祉用具販売】兵庫県加東市社1183-2マイフラット社102号", "url": "https://www.kaigokensaku.mhlw.go.jp/28/index.php?action_kouhyou_detail_004_kani=true&JigyosyoCd=2872500919-00&ServiceCd=410&Type=search", "url2": null }, "geometry": { "type": "Point", "coordinates": [ 134.9620598, 34.9158815 ] } },
{ "type": "Feature", "properties": { "内容": "しぃえすまんぼう龍野店【特定福祉用具販売】揖西町南山3丁目68", "url": "https://www.kaigokensaku.mhlw.go.jp/28/index.php?action_kouhyou_detail_004_kani=true&JigyosyoCd=2873601054-00&ServiceCd=410&Type=search", "url2": "http://www.kobe-sanso.co.jp/" }, "geometry": { "type": "Point", "coordinates": [ 134.503089600000067, 34.8362949 ] } },
{ "type": "Feature", "properties": { "内容": "ウェルフェアツールきっと【特定福祉用具販売】兵庫県たつの市御津町黒崎字東綾部１８４２番地１３", "url": "https://www.kaigokensaku.mhlw.go.jp/28/index.php?action_kouhyou_detail_004_kani=true&JigyosyoCd=2873601138-00&ServiceCd=410&Type=search", "url2": "https://www.mirai.monster/" }, "geometry": { "type": "Point", "coordinates": [ 134.557255199999986, 34.775009 ] } },
{ "type": "Feature", "properties": { "内容": "ゆい・まぁる株式会社【特定福祉用具販売】兵庫県たつの市龍野町堂本368-1", "url": "https://www.kaigokensaku.mhlw.go.jp/28/index.php?action_kouhyou_detail_004_kani=true&JigyosyoCd=2873600965-00&ServiceCd=410&Type=search", "url2": "https://yui-maru.jp/company/" }, "geometry": { "type": "Point", "coordinates": [ 134.552388311175463, 34.85229773091357 ] } },
{ "type": "Feature", "properties": { "内容": "株式会社　ゴトウ・アズ・プランニングたつの営業所【特定福祉用具販売】たつの市龍野町日山91-4", "url": "https://www.kaigokensaku.mhlw.go.jp/28/index.php?action_kouhyou_detail_004_kani=true&JigyosyoCd=2873600775-00&ServiceCd=410&Type=search", "url2": "http://www.goto-az.co.jp" }, "geometry": { "type": "Point", "coordinates": [ 134.535013700000036, 34.8594511 ] } },
{ "type": "Feature", "properties": { "内容": "あっぷるレンタル事業所龍野【特定福祉用具販売】たつの市龍野町富永505番地1", "url": "https://www.kaigokensaku.mhlw.go.jp/28/index.php?action_kouhyou_detail_004_kani=true&JigyosyoCd=2873600916-00&ServiceCd=410&Type=search", "url2": "http://www.apple-117.jp/" }, "geometry": { "type": "Point", "coordinates": [ 134.549176100000068, 34.8550936 ] } },
{ "type": "Feature", "properties": { "内容": "ライフワン　たつの【特定福祉用具販売】兵庫県たつの市誉田町広山171-3", "url": "https://www.kaigokensaku.mhlw.go.jp/28/index.php?action_kouhyou_detail_004_kani=true&JigyosyoCd=2873601211-00&ServiceCd=410&Type=search", "url2": "https://www.life-one.jp/" }, "geometry": { "type": "Point", "coordinates": [ 134.562082, 34.8499576 ] } },
{ "type": "Feature", "properties": { "内容": "ひまわり【特定福祉用具販売】兵庫県川辺郡猪名川町柏梨田字ハザマ188-11", "url": "https://www.kaigokensaku.mhlw.go.jp/28/index.php?action_kouhyou_detail_004_kani=true&JigyosyoCd=2873200469-00&ServiceCd=410&Type=search", "url2": "http://loop-himawari.jp" }, "geometry": { "type": "Point", "coordinates": [ 135.375509, 34.8970514 ] } },
{ "type": "Feature", "properties": { "内容": "サンライズ福祉用具サービス【特定福祉用具販売】兵庫県加古郡稲美町六分一1362-83", "url": "https://www.kaigokensaku.mhlw.go.jp/28/index.php?action_kouhyou_detail_004_kani=true&JigyosyoCd=2872800798-00&ServiceCd=410&Type=search", "url2": "https://sunrise-fukushi.com/" }, "geometry": { "type": "Point", "coordinates": [ 134.924072094442749, 34.731112677997899 ] } },
{ "type": "Feature", "properties": { "内容": "株式会社　アミューズ24【特定福祉用具販売】兵庫県神崎郡市川町甘地166-3", "url": "https://www.kaigokensaku.mhlw.go.jp/28/index.php?action_kouhyou_detail_004_kani=true&JigyosyoCd=2873400333-00&ServiceCd=410&Type=search", "url2": "https://amuse24.net" }, "geometry": { "type": "Point", "coordinates": [ 134.758586400000013, 34.9923564 ] } },
{ "type": "Feature", "properties": { "内容": "有限会社　松岡医療器【特定福祉用具販売】兵庫県神崎郡福崎町西田原219-1", "url": "https://www.kaigokensaku.mhlw.go.jp/28/index.php?action_kouhyou_detail_004_kani=true&JigyosyoCd=2873400408-00&ServiceCd=410&Type=search", "url2": "matuoka@air.ocn.ne.jp" }, "geometry": { "type": "Point", "coordinates": [ 134.760442399999988, 34.9581595 ] } },
{ "type": "Feature", "properties": { "内容": "介護ショップ蓮【特定福祉用具販売】兵庫県神崎郡神河町中村41-8", "url": "https://www.kaigokensaku.mhlw.go.jp/28/index.php?action_kouhyou_detail_004_kani=true&JigyosyoCd=2873401323-00&ServiceCd=410&Type=search", "url2": "http://rentunagu.starfree.jp/index.html" }, "geometry": { "type": "Point", "coordinates": [ 134.776778400000012, 35.0715903 ] } },
{ "type": "Feature", "properties": { "内容": "とうじ【特定福祉用具販売】兵庫県揖保郡太子町鵤1324-23", "url": "https://www.kaigokensaku.mhlw.go.jp/28/index.php?action_kouhyou_detail_004_kani=true&JigyosyoCd=2874100932-00&ServiceCd=410&Type=search", "url2": "https://www.tojifukusi.com/cont1/2.html" }, "geometry": { "type": "Point", "coordinates": [ 134.578491915344216, 34.834506255011888 ] } },
{ "type": "Feature", "properties": { "内容": "オレンジ上郡【特定福祉用具販売】兵庫県赤穂郡上郡町竹万2303", "url": "https://www.kaigokensaku.mhlw.go.jp/28/index.php?action_kouhyou_detail_004_kani=true&JigyosyoCd=2873900134-00&ServiceCd=410&Type=search", "url2": "http://total-orange.com/" }, "geometry": { "type": "Point", "coordinates": [ 134.362625200000025, 34.8598507 ] } }
]
}
