{
"type": "FeatureCollection",
"name": "geo_28_4",
"crs": { "type": "name", "properties": { "name": "urn:ogc:def:crs:OGC:1.3:CRS84" } },
"features": [
{ "type": "Feature", "properties": { "ID": 2847280000070, "正式名称": "きくち助産所", "機関区分": 4, "都道府県コード": 28, "市区町村コード": 108, "所在地": "兵庫県神戸市垂水区野田通８番９号", "緯度": 34.635929, "経度": 135.058735, "url": "https://www.iryou.teikyouseido.mhlw.go.jp/znk-web/juminkanja/S2430/initialize?prefCd=28&kikanCd=7280000070&kikanKbn=4", "url2": null, "内容": "きくち助産所【4:助産院】兵庫県神戸市垂水区野田通８番９号" }, "geometry": { "type": "Point", "coordinates": [ 135.058735, 34.635929 ] } },
{ "type": "Feature", "properties": { "ID": 2847280000140, "正式名称": "庄村助産院", "機関区分": 4, "都道府県コード": 28, "市区町村コード": 202, "所在地": "兵庫県尼崎市昭和南通３－１２－２－４０２", "緯度": 34.720531, "経度": 135.41689, "url": "https://www.iryou.teikyouseido.mhlw.go.jp/znk-web/juminkanja/S2430/initialize?prefCd=28&kikanCd=7280000140&kikanKbn=4", "url2": "http://www7b.biglobe.ne.jp/~shomura-josanin/", "内容": "庄村助産院【4:助産院】兵庫県尼崎市昭和南通３－１２－２－４０２" }, "geometry": { "type": "Point", "coordinates": [ 135.41689, 34.720531 ] } },
{ "type": "Feature", "properties": { "ID": 2847280000270, "正式名称": "母乳育児相談所　なるさか", "機関区分": 4, "都道府県コード": 28, "市区町村コード": 204, "所在地": "兵庫県西宮市樋之池町２２－２－３０１", "緯度": 34.751193, "経度": 135.318981, "url": "https://www.iryou.teikyouseido.mhlw.go.jp/znk-web/juminkanja/S2430/initialize?prefCd=28&kikanCd=7280000270&kikanKbn=4", "url2": "narusaka.jp", "内容": "母乳育児相談所　なるさか【4:助産院】兵庫県西宮市樋之池町２２－２－３０１" }, "geometry": { "type": "Point", "coordinates": [ 135.318981, 34.751193 ] } },
{ "type": "Feature", "properties": { "ID": 2847280000470, "正式名称": "まつだ助産院", "機関区分": 4, "都道府県コード": 28, "市区町村コード": 220, "所在地": "兵庫県加西市福住町７４９", "緯度": 34.903585, "経度": 134.811599, "url": "https://www.iryou.teikyouseido.mhlw.go.jp/znk-web/juminkanja/S2430/initialize?prefCd=28&kikanCd=7280000470&kikanKbn=4", "url2": "matsuda-jyosanin.com", "内容": "まつだ助産院【4:助産院】兵庫県加西市福住町７４９" }, "geometry": { "type": "Point", "coordinates": [ 134.811599, 34.903585 ] } },
{ "type": "Feature", "properties": { "ID": 2847280000540, "正式名称": "一般社団法人　くるみ助産院", "機関区分": 4, "都道府県コード": 28, "市区町村コード": 201, "所在地": "兵庫県姫路市玉手４丁目７０－１", "緯度": 34.814375, "経度": 134.657144, "url": "https://www.iryou.teikyouseido.mhlw.go.jp/znk-web/juminkanja/S2430/initialize?prefCd=28&kikanCd=7280000540&kikanKbn=4", "url2": "http://kurumi-josanin.main.jp", "内容": "一般社団法人　くるみ助産院【4:助産院】兵庫県姫路市玉手４丁目７０－１" }, "geometry": { "type": "Point", "coordinates": [ 134.657144, 34.814375 ] } },
{ "type": "Feature", "properties": { "ID": 2847280000560, "正式名称": "いなお助産院", "機関区分": 4, "都道府県コード": 28, "市区町村コード": 102, "所在地": "兵庫県神戸市灘区中原通５－２－２１", "緯度": 34.713452, "経度": 135.221311, "url": "https://www.iryou.teikyouseido.mhlw.go.jp/znk-web/juminkanja/S2430/initialize?prefCd=28&kikanCd=7280000560&kikanKbn=4", "url2": "https://inaobirthhome.jimdofree.com/", "内容": "いなお助産院【4:助産院】兵庫県神戸市灘区中原通５－２－２１" }, "geometry": { "type": "Point", "coordinates": [ 135.221311, 34.713452 ] } },
{ "type": "Feature", "properties": { "ID": 2847280000570, "正式名称": "野の花助産所", "機関区分": 4, "都道府県コード": 28, "市区町村コード": 111, "所在地": "兵庫県神戸市西区玉津町今津６６７－２１", "緯度": 34.673158, "経度": 134.990258, "url": "https://www.iryou.teikyouseido.mhlw.go.jp/znk-web/juminkanja/S2430/initialize?prefCd=28&kikanCd=7280000570&kikanKbn=4", "url2": "http://www.eonet.ne.jp/~nonohana-mw", "内容": "野の花助産所【4:助産院】兵庫県神戸市西区玉津町今津６６７－２１" }, "geometry": { "type": "Point", "coordinates": [ 134.990258, 34.673158 ] } },
{ "type": "Feature", "properties": { "ID": 2847280000640, "正式名称": "しまざき助産院", "機関区分": 4, "都道府県コード": 28, "市区町村コード": 217, "所在地": "兵庫県川西市黒川字寺垣内２３２", "緯度": 34.92404, "経度": 135.44685, "url": "https://www.iryou.teikyouseido.mhlw.go.jp/znk-web/juminkanja/S2430/initialize?prefCd=28&kikanCd=7280000640&kikanKbn=4", "url2": "http://shimazakijyosan.sakura.ne.jp/index.html", "内容": "しまざき助産院【4:助産院】兵庫県川西市黒川字寺垣内２３２" }, "geometry": { "type": "Point", "coordinates": [ 135.44685, 34.92404 ] } },
{ "type": "Feature", "properties": { "ID": 2847280000670, "正式名称": "めばえ母乳相談室", "機関区分": 4, "都道府県コード": 28, "市区町村コード": 101, "所在地": "兵庫県神戸市東灘区住吉本町１－８－１４石本ハイツ１０２", "緯度": 34.721069, "経度": 135.262808, "url": "https://www.iryou.teikyouseido.mhlw.go.jp/znk-web/juminkanja/S2430/initialize?prefCd=28&kikanCd=7280000670&kikanKbn=4", "url2": "http://www.mebae-oketani.com/", "内容": "めばえ母乳相談室【4:助産院】兵庫県神戸市東灘区住吉本町１－８－１４石本ハイツ１０２" }, "geometry": { "type": "Point", "coordinates": [ 135.262808, 34.721069 ] } },
{ "type": "Feature", "properties": { "ID": 2847280000680, "正式名称": "たかもり助産院", "機関区分": 4, "都道府県コード": 28, "市区町村コード": 107, "所在地": "兵庫県神戸市須磨区関守町３－２－２７", "緯度": 34.646117, "経度": 135.110003, "url": "https://www.iryou.teikyouseido.mhlw.go.jp/znk-web/juminkanja/S2430/initialize?prefCd=28&kikanCd=7280000680&kikanKbn=4", "url2": "takamori-jyosanin.com", "内容": "たかもり助産院【4:助産院】兵庫県神戸市須磨区関守町３－２－２７" }, "geometry": { "type": "Point", "coordinates": [ 135.110003, 34.646117 ] } },
{ "type": "Feature", "properties": { "ID": 2847280000730, "正式名称": "母乳育児指導室ゆりかご", "機関区分": 4, "都道府県コード": 28, "市区町村コード": 201, "所在地": "兵庫県姫路市八代７１４－９", "緯度": 34.845111, "経度": 134.698497, "url": "https://www.iryou.teikyouseido.mhlw.go.jp/znk-web/juminkanja/S2430/initialize?prefCd=28&kikanCd=7280000730&kikanKbn=4", "url2": null, "内容": "母乳育児指導室ゆりかご【4:助産院】兵庫県姫路市八代７１４－９" }, "geometry": { "type": "Point", "coordinates": [ 134.698497, 34.845111 ] } },
{ "type": "Feature", "properties": { "ID": 2847280000770, "正式名称": "みさ助産院", "機関区分": 4, "都道府県コード": 28, "市区町村コード": 201, "所在地": "兵庫県姫路市香寺町土師７５５－１", "緯度": 34.928692, "経度": 134.737382, "url": "https://www.iryou.teikyouseido.mhlw.go.jp/znk-web/juminkanja/S2430/initialize?prefCd=28&kikanCd=7280000770&kikanKbn=4", "url2": "http://midwifemap.com/misajosannin/mysite/", "内容": "みさ助産院【4:助産院】兵庫県姫路市香寺町土師７５５－１" }, "geometry": { "type": "Point", "coordinates": [ 134.737382, 34.928692 ] } },
{ "type": "Feature", "properties": { "ID": 2847280000800, "正式名称": "藪内助産院", "機関区分": 4, "都道府県コード": 28, "市区町村コード": 214, "所在地": "兵庫県宝塚市伊孑志３－１０－１２", "緯度": 34.798397, "経度": 135.358919, "url": "https://www.iryou.teikyouseido.mhlw.go.jp/znk-web/juminkanja/S2430/initialize?prefCd=28&kikanCd=7280000800&kikanKbn=4", "url2": "takarazukamidwives.wixsite.com", "内容": "藪内助産院【4:助産院】兵庫県宝塚市伊孑志３－１０－１２" }, "geometry": { "type": "Point", "coordinates": [ 135.358919, 34.798397 ] } },
{ "type": "Feature", "properties": { "ID": 2847280000820, "正式名称": "住岡母乳と育児相談所（ＪＲ芦屋駅前相談所）", "機関区分": 4, "都道府県コード": 28, "市区町村コード": 206, "所在地": "兵庫県芦屋市大原町２－６　ラ・モール芦屋１１３－１", "緯度": 34.735039, "経度": 135.309403, "url": "https://www.iryou.teikyouseido.mhlw.go.jp/znk-web/juminkanja/S2430/initialize?prefCd=28&kikanCd=7280000820&kikanKbn=4", "url2": "www.sumioka8808.com", "内容": "住岡母乳と育児相談所（ＪＲ芦屋駅前相談所）【4:助産院】兵庫県芦屋市大原町２－６　ラ・モール芦屋１１３－１" }, "geometry": { "type": "Point", "coordinates": [ 135.309403, 34.735039 ] } },
{ "type": "Feature", "properties": { "ID": 2847280000840, "正式名称": "うえだ助産所", "機関区分": 4, "都道府県コード": 28, "市区町村コード": 481, "所在地": "兵庫県赤穂郡上郡町尾長谷９２０", "緯度": 34.885022, "経度": 134.379939, "url": "https://www.iryou.teikyouseido.mhlw.go.jp/znk-web/juminkanja/S2430/initialize?prefCd=28&kikanCd=7280000840&kikanKbn=4", "url2": null, "内容": "うえだ助産所【4:助産院】兵庫県赤穂郡上郡町尾長谷９２０" }, "geometry": { "type": "Point", "coordinates": [ 134.379939, 34.885022 ] } },
{ "type": "Feature", "properties": { "ID": 2847280000850, "正式名称": "なおみ助産院", "機関区分": 4, "都道府県コード": 28, "市区町村コード": 215, "所在地": "兵庫県三木市久留美１７８９", "緯度": 34.779796, "経度": 135.017532, "url": "https://www.iryou.teikyouseido.mhlw.go.jp/znk-web/juminkanja/S2430/initialize?prefCd=28&kikanCd=7280000850&kikanKbn=4", "url2": "https://naomijosanin.jimdofree.com/", "内容": "なおみ助産院【4:助産院】兵庫県三木市久留美１７８９" }, "geometry": { "type": "Point", "coordinates": [ 135.017532, 34.779796 ] } },
{ "type": "Feature", "properties": { "ID": 2847280000900, "正式名称": "産後ケアハウスｗｉｔｈゆっぽ", "機関区分": 4, "都道府県コード": 28, "市区町村コード": 219, "所在地": "兵庫県三田市母子字向井田２１２８", "緯度": 35.021456, "経度": 135.234407, "url": "https://www.iryou.teikyouseido.mhlw.go.jp/znk-web/juminkanja/S2430/initialize?prefCd=28&kikanCd=7280000900&kikanKbn=4", "url2": null, "内容": "産後ケアハウスｗｉｔｈゆっぽ【4:助産院】兵庫県三田市母子字向井田２１２８" }, "geometry": { "type": "Point", "coordinates": [ 135.234407, 35.021456 ] } },
{ "type": "Feature", "properties": { "ID": 2847280000920, "正式名称": "マミーズケアハウス", "機関区分": 4, "都道府県コード": 28, "市区町村コード": 217, "所在地": "兵庫県川西市大和西２丁目２－７", "緯度": 34.88618, "経度": 135.416994, "url": "https://www.iryou.teikyouseido.mhlw.go.jp/znk-web/juminkanja/S2430/initialize?prefCd=28&kikanCd=7280000920&kikanKbn=4", "url2": "https://mamanomikata.jp", "内容": "マミーズケアハウス【4:助産院】兵庫県川西市大和西２丁目２－７" }, "geometry": { "type": "Point", "coordinates": [ 135.416994, 34.88618 ] } },
{ "type": "Feature", "properties": { "ID": 2847280000960, "正式名称": "百合助産院", "機関区分": 4, "都道府県コード": 28, "市区町村コード": 209, "所在地": "兵庫県豊岡市三宅８８９", "緯度": 35.523325, "経度": 134.866371, "url": "https://www.iryou.teikyouseido.mhlw.go.jp/znk-web/juminkanja/S2430/initialize?prefCd=28&kikanCd=7280000960&kikanKbn=4", "url2": "https://yuri-koala-room.jimdosite.com/", "内容": "百合助産院【4:助産院】兵庫県豊岡市三宅８８９" }, "geometry": { "type": "Point", "coordinates": [ 134.866371, 35.523325 ] } },
{ "type": "Feature", "properties": { "ID": 2847280000970, "正式名称": "みそら助産院", "機関区分": 4, "都道府県コード": 28, "市区町村コード": 216, "所在地": "兵庫県高砂市米田町塩市１－１４", "緯度": 34.781014, "経度": 134.8053, "url": "https://www.iryou.teikyouseido.mhlw.go.jp/znk-web/juminkanja/S2430/initialize?prefCd=28&kikanCd=7280000970&kikanKbn=4", "url2": "http://www.midwifemap.com/mysite/misora-josanin/", "内容": "みそら助産院【4:助産院】兵庫県高砂市米田町塩市１－１４" }, "geometry": { "type": "Point", "coordinates": [ 134.8053, 34.781014 ] } },
{ "type": "Feature", "properties": { "ID": 2847280001010, "正式名称": "まきの助産院", "機関区分": 4, "都道府県コード": 28, "市区町村コード": 201, "所在地": "兵庫県姫路市別所町佐土新", "緯度": 34.819958, "経度": 134.75316, "url": "https://www.iryou.teikyouseido.mhlw.go.jp/znk-web/juminkanja/S2430/initialize?prefCd=28&kikanCd=7280001010&kikanKbn=4", "url2": "makinomidwiferyhome.amebaownd.com", "内容": "まきの助産院【4:助産院】兵庫県姫路市別所町佐土新" }, "geometry": { "type": "Point", "coordinates": [ 134.75316, 34.819958 ] } },
{ "type": "Feature", "properties": { "ID": 2847280001040, "正式名称": "芦田　美智代　助産所", "機関区分": 4, "都道府県コード": 28, "市区町村コード": 223, "所在地": "兵庫県丹波市氷上町上成松３４３番地", "緯度": 35.171331, "経度": 135.028003, "url": "https://www.iryou.teikyouseido.mhlw.go.jp/znk-web/juminkanja/S2430/initialize?prefCd=28&kikanCd=7280001040&kikanKbn=4", "url2": null, "内容": "芦田　美智代　助産所【4:助産院】兵庫県丹波市氷上町上成松３４３番地" }, "geometry": { "type": "Point", "coordinates": [ 135.028003, 35.171331 ] } },
{ "type": "Feature", "properties": { "ID": 2847280001060, "正式名称": "産後ケアハウス杉原ｈａｒｅ", "機関区分": 4, "都道府県コード": 28, "市区町村コード": 102, "所在地": "兵庫県神戸市灘区曾和町２丁目５－４", "緯度": 34.722417, "経度": 135.233739, "url": "https://www.iryou.teikyouseido.mhlw.go.jp/znk-web/juminkanja/S2430/initialize?prefCd=28&kikanCd=7280001060&kikanKbn=4", "url2": "http://harecare.jp", "内容": "産後ケアハウス杉原ｈａｒｅ【4:助産院】兵庫県神戸市灘区曾和町２丁目５－４" }, "geometry": { "type": "Point", "coordinates": [ 135.233739, 34.722417 ] } },
{ "type": "Feature", "properties": { "ID": 2847280001090, "正式名称": "ウアノア助産院", "機関区分": 4, "都道府県コード": 28, "市区町村コード": 201, "所在地": "兵庫県姫路市飾磨区上野田４丁目１１１番地１", "緯度": 34.806556, "経度": 134.686487, "url": "https://www.iryou.teikyouseido.mhlw.go.jp/znk-web/juminkanja/S2430/initialize?prefCd=28&kikanCd=7280001090&kikanKbn=4", "url2": "https://uanoabirthhouse.amebaownd.com/", "内容": "ウアノア助産院【4:助産院】兵庫県姫路市飾磨区上野田４丁目１１１番地１" }, "geometry": { "type": "Point", "coordinates": [ 134.686487, 34.806556 ] } },
{ "type": "Feature", "properties": { "ID": 2847280001100, "正式名称": "うぉーむ助産院", "機関区分": 4, "都道府県コード": 28, "市区町村コード": 207, "所在地": "兵庫県伊丹市北河原１－７－８", "緯度": 34.786774, "経度": 135.421137, "url": "https://www.iryou.teikyouseido.mhlw.go.jp/znk-web/juminkanja/S2430/initialize?prefCd=28&kikanCd=7280001100&kikanKbn=4", "url2": "https://warmmhome.com", "内容": "うぉーむ助産院【4:助産院】兵庫県伊丹市北河原１－７－８" }, "geometry": { "type": "Point", "coordinates": [ 135.421137, 34.786774 ] } },
{ "type": "Feature", "properties": { "ID": 2847280001110, "正式名称": "さくら助産院", "機関区分": 4, "都道府県コード": 28, "市区町村コード": 226, "所在地": "兵庫県淡路市志筑新島６－９", "緯度": 34.4268, "経度": 134.903286, "url": "https://www.iryou.teikyouseido.mhlw.go.jp/znk-web/juminkanja/S2430/initialize?prefCd=28&kikanCd=7280001110&kikanKbn=4", "url2": "https://sakura-midwifery-home.com/", "内容": "さくら助産院【4:助産院】兵庫県淡路市志筑新島６－９" }, "geometry": { "type": "Point", "coordinates": [ 134.903286, 34.4268 ] } },
{ "type": "Feature", "properties": { "ID": 2847280001150, "正式名称": "なぎ・和　助産院", "機関区分": 4, "都道府県コード": 28, "市区町村コード": 108, "所在地": "兵庫県神戸市垂水区美山台", "緯度": 34.637444, "経度": 135.071034, "url": "https://www.iryou.teikyouseido.mhlw.go.jp/znk-web/juminkanja/S2430/initialize?prefCd=28&kikanCd=7280001150&kikanKbn=4", "url2": "https://naginagibaby111.wixsite.com/--nagi", "内容": "なぎ・和　助産院【4:助産院】兵庫県神戸市垂水区美山台" }, "geometry": { "type": "Point", "coordinates": [ 135.071034, 34.637444 ] } },
{ "type": "Feature", "properties": { "ID": 2847280001180, "正式名称": "住岡母乳と育児相談所（三条相談所）", "機関区分": 4, "都道府県コード": 28, "市区町村コード": 206, "所在地": "兵庫県芦屋市三条町１０－１５", "緯度": 34.735061, "経度": 135.29565, "url": "https://www.iryou.teikyouseido.mhlw.go.jp/znk-web/juminkanja/S2430/initialize?prefCd=28&kikanCd=7280001180&kikanKbn=4", "url2": "http://www.cam.hi-ho.ne.jp/mady/", "内容": "住岡母乳と育児相談所（三条相談所）【4:助産院】兵庫県芦屋市三条町１０－１５" }, "geometry": { "type": "Point", "coordinates": [ 135.29565, 34.735061 ] } },
{ "type": "Feature", "properties": { "ID": 2847280001200, "正式名称": "住岡母乳と育児相談所ＡＮＮＥＸ", "機関区分": 4, "都道府県コード": 28, "市区町村コード": 206, "所在地": "兵庫県芦屋市三条町１０−６", "緯度": 34.73487, "経度": 135.29637, "url": "https://www.iryou.teikyouseido.mhlw.go.jp/znk-web/juminkanja/S2430/initialize?prefCd=28&kikanCd=7280001200&kikanKbn=4", "url2": "https://sumioka8808.com/annex/", "内容": "住岡母乳と育児相談所ＡＮＮＥＸ【4:助産院】兵庫県芦屋市三条町１０−６" }, "geometry": { "type": "Point", "coordinates": [ 135.29637, 34.73487 ] } },
{ "type": "Feature", "properties": { "ID": 2847280001260, "正式名称": "アミプラ助産院", "機関区分": 4, "都道府県コード": 28, "市区町村コード": 222, "所在地": "兵庫県養父市八鹿町坂本３４０−２", "緯度": 35.419791, "経度": 134.799487, "url": "https://www.iryou.teikyouseido.mhlw.go.jp/znk-web/juminkanja/S2430/initialize?prefCd=28&kikanCd=7280001260&kikanKbn=4", "url2": null, "内容": "アミプラ助産院【4:助産院】兵庫県養父市八鹿町坂本３４０−２" }, "geometry": { "type": "Point", "coordinates": [ 134.799487, 35.419791 ] } },
{ "type": "Feature", "properties": { "ID": 2847280001560, "正式名称": "幸代助産院", "機関区分": 4, "都道府県コード": 28, "市区町村コード": 223, "所在地": "兵庫県丹波市柏原町北山２１０", "緯度": 35.138017, "経度": 135.044921, "url": "https://www.iryou.teikyouseido.mhlw.go.jp/znk-web/juminkanja/S2430/initialize?prefCd=28&kikanCd=7280001560&kikanKbn=4", "url2": null, "内容": "幸代助産院【4:助産院】兵庫県丹波市柏原町北山２１０" }, "geometry": { "type": "Point", "coordinates": [ 135.044921, 35.138017 ] } },
{ "type": "Feature", "properties": { "ID": 2847280001570, "正式名称": "産前産後ケアの家　ＪＩＫＫＡ", "機関区分": 4, "都道府県コード": 28, "市区町村コード": 221, "所在地": "兵庫県丹波篠山市市野々２９８", "緯度": 35.076775, "経度": 135.21968, "url": "https://www.iryou.teikyouseido.mhlw.go.jp/znk-web/juminkanja/S2430/initialize?prefCd=28&kikanCd=7280001570&kikanKbn=4", "url2": null, "内容": "産前産後ケアの家　ＪＩＫＫＡ【4:助産院】兵庫県丹波篠山市市野々２９８" }, "geometry": { "type": "Point", "coordinates": [ 135.21968, 35.076775 ] } }
]
}
