{
"type": "FeatureCollection",
"name": "geo_28_定期巡回・随時対応型訪問介護看護",
"crs": { "type": "name", "properties": { "name": "urn:ogc:def:crs:OGC:1.3:CRS84" } },
"features": [
{ "type": "Feature", "properties": { "内容": "住吉定期巡回・随時対応型訪問介護看護センター【定期巡回・随時対応型訪問介護看護】兵庫県神戸市東灘区住吉本町３丁目７番41号", "url": "https://www.kaigokensaku.mhlw.go.jp/28/index.php?action_kouhyou_detail_004_kani=true&JigyosyoCd=2890100189-00&ServiceCd=760&Type=search", "url2": "http://www.krh-sumiyoshi.com" }, "geometry": { "type": "Point", "coordinates": [ 135.259049900000036, 34.7240993 ] } },
{ "type": "Feature", "properties": { "内容": "やさしい手東灘定期巡回・随時対応型訪問介護事業所【定期巡回・随時対応型訪問介護看護】兵庫県神戸市東灘区青木3-1-43潮騒の家", "url": "https://www.kaigokensaku.mhlw.go.jp/28/index.php?action_kouhyou_detail_004_kani=true&JigyosyoCd=2890100346-00&ServiceCd=760&Type=search", "url2": "http://www.yasashiite.com/subdomains/section/530/" }, "geometry": { "type": "Point", "coordinates": [ 135.282841700000063, 34.7143256 ] } },
{ "type": "Feature", "properties": { "内容": "コウダイケアコールセンタ－神戸東【定期巡回・随時対応型訪問介護看護】兵庫県神戸市東灘区岡本3丁目10番16号アメニティコート岡本109号", "url": "https://www.kaigokensaku.mhlw.go.jp/28/index.php?action_kouhyou_detail_004_kani=true&JigyosyoCd=2890100445-00&ServiceCd=760&Type=search", "url2": "https://www.koudai-care.co.jp" }, "geometry": { "type": "Point", "coordinates": [ 135.2710899, 34.7277407 ] } },
{ "type": "Feature", "properties": { "内容": "うみのほし定期巡回・随時対応型訪問介護看護事業所【定期巡回・随時対応型訪問介護看護】兵庫県神戸市篠原北町3丁目11-15-2階", "url": "https://www.kaigokensaku.mhlw.go.jp/28/index.php?action_kouhyou_detail_004_kani=true&JigyosyoCd=2890200070-00&ServiceCd=760&Type=search", "url2": "http://www.kobe-kaiseikai.com" }, "geometry": { "type": "Point", "coordinates": [ 135.224883733831007, 34.724596744236649 ] } },
{ "type": "Feature", "properties": { "内容": "コウダイケアコールセンター灘【定期巡回・随時対応型訪問介護看護】神戸市灘区永手町3丁目2番16号有本ビル2F", "url": "https://www.kaigokensaku.mhlw.go.jp/28/index.php?action_kouhyou_detail_004_kani=true&JigyosyoCd=2890200203-00&ServiceCd=760&Type=search", "url2": "https://koudai-care.co.jp/" }, "geometry": { "type": "Point", "coordinates": [ 135.2390835, 34.7159329 ] } },
{ "type": "Feature", "properties": { "内容": "定期巡回つむぎ【定期巡回・随時対応型訪問介護看護】兵庫県神戸市灘区大石東町５－２－５大石ファーストビル２階", "url": "https://www.kaigokensaku.mhlw.go.jp/28/index.php?action_kouhyou_detail_004_kani=true&JigyosyoCd=2890200260-00&ServiceCd=760&Type=search", "url2": "https://www.positive-plustep.com/" }, "geometry": { "type": "Point", "coordinates": [ 135.234300600000012, 34.7067684 ] } },
{ "type": "Feature", "properties": { "内容": "コウダイケアコールセンター兵庫【定期巡回・随時対応型訪問介護看護】兵庫県神戸市兵庫区水木通2丁目２番17番地エルア・ジャスモ１F", "url": "https://www.kaigokensaku.mhlw.go.jp/28/index.php?action_kouhyou_detail_004_kani=true&JigyosyoCd=2890500149-00&ServiceCd=760&Type=search", "url2": "https://koudai-care.co.jp/" }, "geometry": { "type": "Point", "coordinates": [ 135.166608200000042, 34.6756508 ] } },
{ "type": "Feature", "properties": { "内容": "コウダイケアコールセンター湊川【定期巡回・随時対応型訪問介護看護】兵庫県神戸市兵庫区荒田町2丁目20県営上湊川高層住宅1105号室", "url": "https://www.kaigokensaku.mhlw.go.jp/28/index.php?action_kouhyou_detail_004_kani=true&JigyosyoCd=2890500263-00&ServiceCd=760&Type=search", "url2": "https://koudai-care.co.jp/" }, "geometry": { "type": "Point", "coordinates": [ 135.165387399999986, 34.6815892 ] } },
{ "type": "Feature", "properties": { "内容": "スマイル新開地定期巡回・随時対応型訪問介護看護【定期巡回・随時対応型訪問介護看護】湊町2丁目4-15-201", "url": "https://www.kaigokensaku.mhlw.go.jp/28/index.php?action_kouhyou_detail_004_kani=true&JigyosyoCd=2890500321-00&ServiceCd=760&Type=search", "url2": "https://hinode.or.jp/establishment/teiki-shinkaichi/" }, "geometry": { "type": "Point", "coordinates": [ 139.982923699999986, 35.6951048 ] } },
{ "type": "Feature", "properties": { "内容": "訪問介護事業所かなえ場【定期巡回・随時対応型訪問介護看護】神戸市長田区庄田町3丁目４−８9号室", "url": "https://www.kaigokensaku.mhlw.go.jp/28/index.php?action_kouhyou_detail_004_kani=true&JigyosyoCd=2890600238-00&ServiceCd=760&Type=search", "url2": null }, "geometry": { "type": "Point", "coordinates": [ 135.150565199999988, 34.653038100000011 ] } },
{ "type": "Feature", "properties": { "内容": "定期巡回・随時対応あおいそら長田【定期巡回・随時対応型訪問介護看護】西代通1-5-12グリーンビラ西代401号", "url": "https://www.kaigokensaku.mhlw.go.jp/28/index.php?action_kouhyou_detail_004_kani=true&JigyosyoCd=2890600402-00&ServiceCd=760&Type=search", "url2": "http://www.homecare-kobe.com" }, "geometry": { "type": "Point", "coordinates": [ 135.1409543, 34.6614783 ] } },
{ "type": "Feature", "properties": { "内容": "駒どり巡回サービス新長田【定期巡回・随時対応型訪問介護看護】二葉町5丁目1-1アスタくにづか5番館　111", "url": "https://www.kaigokensaku.mhlw.go.jp/28/index.php?action_kouhyou_detail_004_kani=true&JigyosyoCd=2890600501-00&ServiceCd=760&Type=search", "url2": "http://komadory.com" }, "geometry": { "type": "Point", "coordinates": [ 135.148208, 34.6523395 ] } },
{ "type": "Feature", "properties": { "内容": "駒どり巡回サービス【定期巡回・随時対応型訪問介護看護】兵庫県神戸市須磨区白川台3丁目63-1白川台会館2階", "url": "https://www.kaigokensaku.mhlw.go.jp/28/index.php?action_kouhyou_detail_004_kani=true&JigyosyoCd=2890700111-00&ServiceCd=760&Type=search", "url2": "http//komadory.com" }, "geometry": { "type": "Point", "coordinates": [ 135.100483708598318, 34.690029175995605 ] } },
{ "type": "Feature", "properties": { "内容": "駒どり巡回サービス須磨南【定期巡回・随時対応型訪問介護看護】兵庫県神戸市須磨区飛松町3-5-11-1F", "url": "https://www.kaigokensaku.mhlw.go.jp/28/index.php?action_kouhyou_detail_004_kani=true&JigyosyoCd=2890700194-00&ServiceCd=760&Type=search", "url2": null }, "geometry": { "type": "Point", "coordinates": [ 135.132898499999982, 34.6610258 ] } },
{ "type": "Feature", "properties": { "内容": "オーピーホーム須磨定期巡回【定期巡回・随時対応型訪問介護看護】兵庫県神戸市須磨区白川台６１－２アニモン白川４０３号アニモン白川", "url": "https://www.kaigokensaku.mhlw.go.jp/28/index.php?action_kouhyou_detail_004_kani=true&JigyosyoCd=2890700376-00&ServiceCd=760&Type=search", "url2": "http://www.obh2525.or.jp" }, "geometry": { "type": "Point", "coordinates": [ 135.0996649, 34.6887304 ] } },
{ "type": "Feature", "properties": { "内容": "KOBE須磨きらくえん定期巡回・随時対応型訪問介護看護【定期巡回・随時対応型訪問介護看護】兵庫県神戸市須磨区妙法寺字3－1", "url": "https://www.kaigokensaku.mhlw.go.jp/28/index.php?action_kouhyou_detail_004_kani=true&JigyosyoCd=2890700392-00&ServiceCd=760&Type=search", "url2": "http://www.kirakuen.or.jp" }, "geometry": { "type": "Point", "coordinates": [ 135.123729200000014, 34.6759015 ] } },
{ "type": "Feature", "properties": { "内容": "ｃｏｍｐｌｅｔｅ【定期巡回・随時対応型訪問介護看護】神戸市須磨区白川台6-12-18", "url": "https://www.kaigokensaku.mhlw.go.jp/28/index.php?action_kouhyou_detail_004_kani=true&JigyosyoCd=2890700467-00&ServiceCd=760&Type=search", "url2": "https://homecare-complete.jp" }, "geometry": { "type": "Point", "coordinates": [ 135.1011709, 34.6939899 ] } },
{ "type": "Feature", "properties": { "内容": "スマイル鷹取定期巡回・随時対応型訪問介護看護【定期巡回・随時対応型訪問介護看護】神戸市須磨区千歳町4丁目1-12-201SKビル2階201号", "url": "https://www.kaigokensaku.mhlw.go.jp/28/index.php?action_kouhyou_detail_004_kani=true&JigyosyoCd=2890700475-00&ServiceCd=760&Type=search", "url2": "https://hinode.or.jp/establishment/teiki-takatori/" }, "geometry": { "type": "Point", "coordinates": [ 135.13715160000001, 34.654103 ] } },
{ "type": "Feature", "properties": { "内容": "スマイル白川台定期巡回随時対応型訪問介護看護【定期巡回・随時対応型訪問介護看護】兵庫県神戸市須磨区白川台1丁目36番地の1光山ビル101", "url": "https://www.kaigokensaku.mhlw.go.jp/28/index.php?action_kouhyou_detail_004_kani=true&JigyosyoCd=2890700483-00&ServiceCd=760&Type=search", "url2": "https://hinode.or.jp/about/hakuaifukushikai/" }, "geometry": { "type": "Point", "coordinates": [ 135.096599700000013, 34.6897577 ] } },
{ "type": "Feature", "properties": { "内容": "オービーホーム垂水定期巡回【定期巡回・随時対応型訪問介護看護】神戸市垂水区名谷町字猿倉273-7", "url": "https://www.kaigokensaku.mhlw.go.jp/28/index.php?action_kouhyou_detail_004_kani=true&JigyosyoCd=2890800663-00&ServiceCd=760&Type=search", "url2": "http://www.obh2525.or.jp" }, "geometry": { "type": "Point", "coordinates": [ 135.062634457573694, 34.64995847464386 ] } },
{ "type": "Feature", "properties": { "内容": "定期巡回ステーションはーとふる神戸垂水【定期巡回・随時対応型訪問介護看護】兵庫県神戸市垂水区北舞子４丁目７番３５号はーとふる神戸垂水", "url": "https://www.kaigokensaku.mhlw.go.jp/28/index.php?action_kouhyou_detail_004_kani=true&JigyosyoCd=2890800689-00&ServiceCd=760&Type=search", "url2": "https://royalhome.heartfulcare.com/" }, "geometry": { "type": "Point", "coordinates": [ 135.036979602516169, 34.64309700814804 ] } },
{ "type": "Feature", "properties": { "内容": "スマイル青山台定期巡回・随時対応型訪問介護看護【定期巡回・随時対応型訪問介護看護】神戸市垂水区青山台1丁目4-7", "url": "https://www.kaigokensaku.mhlw.go.jp/28/index.php?action_kouhyou_detail_004_kani=true&JigyosyoCd=2890800796-00&ServiceCd=760&Type=search", "url2": "https://hinode.or.jp/establishment/teiki-aoyamadai/" }, "geometry": { "type": "Point", "coordinates": [ 135.07645930000001, 34.6408921 ] } },
{ "type": "Feature", "properties": { "内容": "エルフ　あんしんセンター・垂水【定期巡回・随時対応型訪問介護看護】兵庫県神戸市垂水区西脇1丁目4-9-1", "url": "https://www.kaigokensaku.mhlw.go.jp/28/index.php?action_kouhyou_detail_004_kani=true&JigyosyoCd=2890800671-00&ServiceCd=760&Type=search", "url2": null }, "geometry": { "type": "Point", "coordinates": [ 135.0375057, 34.6545056 ] } },
{ "type": "Feature", "properties": { "内容": "スマイル星が丘定期巡回随時対応型訪問介護看護【定期巡回・随時対応型訪問介護看護】兵庫県神戸市垂水区星が丘3丁目4-26", "url": "https://www.kaigokensaku.mhlw.go.jp/28/index.php?action_kouhyou_detail_004_kani=true&JigyosyoCd=2890800804-00&ServiceCd=760&Type=search", "url2": null }, "geometry": { "type": "Point", "coordinates": [ 135.048738799999967, 34.643046900000023 ] } },
{ "type": "Feature", "properties": { "内容": "さくらホーム定期巡回・随時対応型訪問介護看護事業所【定期巡回・随時対応型訪問介護看護】兵庫県神戸市北区山田町小部字惣六畑山8－18", "url": "https://www.kaigokensaku.mhlw.go.jp/28/index.php?action_kouhyou_detail_004_kani=true&JigyosyoCd=2895000251-00&ServiceCd=760&Type=search", "url2": "http://www.yasuragi-swc.or.jp" }, "geometry": { "type": "Point", "coordinates": [ 135.160785300000043, 34.7371245 ] } },
{ "type": "Feature", "properties": { "内容": "コウダイケアコールセンター神戸北【定期巡回・随時対応型訪問介護看護】兵庫県神戸市北区鈴蘭台西町1丁目１６－３", "url": "https://www.kaigokensaku.mhlw.go.jp/28/index.php?action_kouhyou_detail_004_kani=true&JigyosyoCd=2895000418-00&ServiceCd=760&Type=search", "url2": "https://www.koudai-care.co.jp" }, "geometry": { "type": "Point", "coordinates": [ 135.1430618, 34.7262016 ] } },
{ "type": "Feature", "properties": { "内容": "なでしこ藤原台【定期巡回・随時対応型訪問介護看護】兵庫県神戸市北区藤原台中町5丁目1番3号", "url": "https://www.kaigokensaku.mhlw.go.jp/28/index.php?action_kouhyou_detail_004_kani=true&JigyosyoCd=2895000160-00&ServiceCd=760&Type=search", "url2": "http://fujinosato.info/" }, "geometry": { "type": "Point", "coordinates": [ 135.214662800000042, 34.82252350000001 ] } },
{ "type": "Feature", "properties": { "内容": "コウダイケアコールセンター【定期巡回・随時対応型訪問介護看護】兵庫県神戸市中央区八幡通3丁目1番14号サンシポートビル3階", "url": "https://www.kaigokensaku.mhlw.go.jp/28/index.php?action_kouhyou_detail_004_kani=true&JigyosyoCd=2895100093-00&ServiceCd=760&Type=search", "url2": "https://koudai-care.co.jp/" }, "geometry": { "type": "Point", "coordinates": [ 135.1978527, 34.6903941 ] } },
{ "type": "Feature", "properties": { "内容": "山陽ケアセンター神戸定期巡回随時対応型訪問介護看護事業所【定期巡回・随時対応型訪問介護看護】兵庫県神戸市中央区野崎通6丁目2番28号", "url": "https://www.kaigokensaku.mhlw.go.jp/28/index.php?action_kouhyou_detail_004_kani=true&JigyosyoCd=2895100176-00&ServiceCd=760&Type=search", "url2": "https://sanyo-medical.com/" }, "geometry": { "type": "Point", "coordinates": [ 135.2051842, 34.7087428 ] } },
{ "type": "Feature", "properties": { "内容": "ぷらすてっぷ定期巡回・随時対応型訪問介護看護【定期巡回・随時対応型訪問介護看護】兵庫県神戸市中央区熊内橋通6-1-17", "url": "https://www.kaigokensaku.mhlw.go.jp/28/index.php?action_kouhyou_detail_004_kani=true&JigyosyoCd=2895100135-00&ServiceCd=760&Type=search", "url2": null }, "geometry": { "type": "Point", "coordinates": [ 135.199149910630922, 34.70432642531231 ] } },
{ "type": "Feature", "properties": { "内容": "スマイル春日野道定期巡回・随時対応型訪問介護看護【定期巡回・随時対応型訪問介護看護】日暮通2丁目4-18　2F", "url": "https://www.kaigokensaku.mhlw.go.jp/28/index.php?action_kouhyou_detail_004_kani=true&JigyosyoCd=2895100234-00&ServiceCd=760&Type=search", "url2": "https://hinode.or.jp/establishment/teiki-kasuganomichi/" }, "geometry": { "type": "Point", "coordinates": [ 135.206594599999988, 34.7004404 ] } },
{ "type": "Feature", "properties": { "内容": "正峰会あんしんケアコールセンター【定期巡回・随時対応型訪問介護看護】兵庫県神戸市西区丸塚1丁目22-17", "url": "https://www.kaigokensaku.mhlw.go.jp/28/index.php?action_kouhyou_detail_004_kani=true&JigyosyoCd=2895200174-00&ServiceCd=760&Type=search", "url2": "https://seihoukai-grp.jp/facility_post/seihoukai-acc" }, "geometry": { "type": "Point", "coordinates": [ 134.986583700000011, 34.6821354 ] } },
{ "type": "Feature", "properties": { "内容": "定期巡回サービス　サンビラこうべ【定期巡回・随時対応型訪問介護看護】兵庫県神戸市西区神出町宝勢774-173", "url": "https://www.kaigokensaku.mhlw.go.jp/28/index.php?action_kouhyou_detail_004_kani=true&JigyosyoCd=2895200356-00&ServiceCd=760&Type=search", "url2": "https://www.ontoku.or.jp/facilities/sunvilla-teikijunkai/" }, "geometry": { "type": "Point", "coordinates": [ 134.972544, 34.729151 ] } },
{ "type": "Feature", "properties": { "内容": "スマイル高塚台定期巡回随時対応型訪問介護【定期巡回・随時対応型訪問介護看護】兵庫県神戸市西区高塚台３丁目２－４", "url": "https://www.kaigokensaku.mhlw.go.jp/28/index.php?action_kouhyou_detail_004_kani=true&JigyosyoCd=2895200604-00&ServiceCd=760&Type=search", "url2": null }, "geometry": { "type": "Point", "coordinates": [ 135.0218554, 34.7314437 ] } },
{ "type": "Feature", "properties": { "内容": "スマイル有瀬定期巡回随時訪問型介護看護【定期巡回・随時対応型訪問介護看護】伊川谷町有瀬147-25", "url": "https://www.kaigokensaku.mhlw.go.jp/28/index.php?action_kouhyou_detail_004_kani=true&JigyosyoCd=2895200596-00&ServiceCd=760&Type=search", "url2": "https://hinode.or.jp/establishment/teiki-arise/" }, "geometry": { "type": "Point", "coordinates": [ 135.0349703, 34.6639429 ] } },
{ "type": "Feature", "properties": { "内容": "やさしい手持子定期巡回・随時対応型訪問介護看護事業所【定期巡回・随時対応型訪問介護看護】持子2-122", "url": "https://www.kaigokensaku.mhlw.go.jp/28/index.php?action_kouhyou_detail_004_kani=true&JigyosyoCd=2895200109-00&ServiceCd=760&Type=search", "url2": "http://www.yasashiite.com/subdomains/section/479/" }, "geometry": { "type": "Point", "coordinates": [ 134.982465899999966, 34.6694157 ] } },
{ "type": "Feature", "properties": { "内容": "ケアサポート　ゆめハウス【定期巡回・随時対応型訪問介護看護】兵庫県神戸市西区狩場台3丁目9-10", "url": "https://www.kaigokensaku.mhlw.go.jp/28/index.php?action_kouhyou_detail_004_kani=true&JigyosyoCd=2895200455-00&ServiceCd=760&Type=search", "url2": "http://yume-house.org" }, "geometry": { "type": "Point", "coordinates": [ 135.032429799999989, 34.7207255 ] } },
{ "type": "Feature", "properties": { "内容": "定期巡回サービス汐里【定期巡回・随時対応型訪問介護看護】兵庫県姫路市的形町的形1768-28プランドール的形101", "url": "https://www.kaigokensaku.mhlw.go.jp/28/index.php?action_kouhyou_detail_004_kani=true&JigyosyoCd=2894001318-00&ServiceCd=760&Type=search", "url2": "https://www.ontoku.or.jp/" }, "geometry": { "type": "Point", "coordinates": [ 134.7391323, 34.7753639 ] } },
{ "type": "Feature", "properties": { "内容": "定期巡回・随時対応サービス　中部【定期巡回・随時対応型訪問介護看護】兵庫県姫路市双葉町2番地", "url": "https://www.kaigokensaku.mhlw.go.jp/28/index.php?action_kouhyou_detail_004_kani=true&JigyosyoCd=2894000500-00&ServiceCd=760&Type=search", "url2": "http://www.himeji-mcoop.or.jp" }, "geometry": { "type": "Point", "coordinates": [ 134.710402064418105, 34.831431733898647 ] } },
{ "type": "Feature", "properties": { "内容": "定期巡回・随時対応サービス東部【定期巡回・随時対応型訪問介護看護】兵庫県姫路市別所町別所2丁目179番地1", "url": "https://www.kaigokensaku.mhlw.go.jp/28/index.php?action_kouhyou_detail_004_kani=true&JigyosyoCd=2894000542-00&ServiceCd=760&Type=search", "url2": "http://www.himeji-mcoop.or.jp" }, "geometry": { "type": "Point", "coordinates": [ 134.753734844180286, 34.806243323272881 ] } },
{ "type": "Feature", "properties": { "内容": "定期巡回・随時対応サービス北部【定期巡回・随時対応型訪問介護看護】兵庫県姫路市砥堀630番地", "url": "https://www.kaigokensaku.mhlw.go.jp/28/index.php?action_kouhyou_detail_004_kani=true&JigyosyoCd=2894000856-00&ServiceCd=760&Type=search", "url2": "http://www.himeji-mcoop.or.jp" }, "geometry": { "type": "Point", "coordinates": [ 134.726675, 34.8687718 ] } },
{ "type": "Feature", "properties": { "内容": "定期巡回・随時対応サービスあぼし【定期巡回・随時対応型訪問介護看護】兵庫県姫路市網干区垣内本町553-20", "url": "https://www.kaigokensaku.mhlw.go.jp/28/index.php?action_kouhyou_detail_004_kani=true&JigyosyoCd=2894000716-00&ServiceCd=760&Type=search", "url2": "http://www.himeji-mcoop.or.jp" }, "geometry": { "type": "Point", "coordinates": [ 134.587495381614616, 34.792388759351354 ] } },
{ "type": "Feature", "properties": { "内容": "定期巡回　Life【定期巡回・随時対応型訪問介護看護】兵庫県姫路市大津区天満290-6", "url": "https://www.kaigokensaku.mhlw.go.jp/28/index.php?action_kouhyou_detail_004_kani=true&JigyosyoCd=2894000682-00&ServiceCd=760&Type=search", "url2": "http://www.fides.dti.ne.jp/^leben" }, "geometry": { "type": "Point", "coordinates": [ 134.606396899999936, 34.8020028 ] } },
{ "type": "Feature", "properties": { "内容": "夢の里定期巡回【定期巡回・随時対応型訪問介護看護】姫路市夢前町戸倉1105-38", "url": "https://www.kaigokensaku.mhlw.go.jp/28/index.php?action_kouhyou_detail_004_kani=true&JigyosyoCd=2894001474-00&ServiceCd=760&Type=search", "url2": "https://www.houjyu-kai.or.jp" }, "geometry": { "type": "Point", "coordinates": [ 134.6340959, 34.9624351 ] } },
{ "type": "Feature", "properties": { "内容": "それいゆ定期巡回・随時対応型訪問介護看護今在家【定期巡回・随時対応型訪問介護看護】兵庫県姫路市苫編南2-27", "url": "https://www.kaigokensaku.mhlw.go.jp/28/index.php?action_kouhyou_detail_004_kani=true&JigyosyoCd=2894001037-00&ServiceCd=760&Type=search", "url2": "https://hinode.or.jp/establishment/solail_imazaike/" }, "geometry": { "type": "Point", "coordinates": [ 134.651043734887708, 34.815570073197449 ] } },
{ "type": "Feature", "properties": { "内容": "定期巡回　かつはら【定期巡回・随時対応型訪問介護看護】兵庫県姫路市勝原区下太田573", "url": "https://www.kaigokensaku.mhlw.go.jp/28/index.php?action_kouhyou_detail_004_kani=true&JigyosyoCd=2894000963-00&ServiceCd=760&Type=search", "url2": "http://www.katuhara.or.jp" }, "geometry": { "type": "Point", "coordinates": [ 134.595157299999983, 34.8213414 ] } },
{ "type": "Feature", "properties": { "内容": "定期巡回　あんしん24【定期巡回・随時対応型訪問介護看護】兵庫県尼崎市金楽寺町2丁目7番7号喜楽苑地域ケアセンター　あんしん24", "url": "https://www.kaigokensaku.mhlw.go.jp/28/index.php?action_kouhyou_detail_004_kani=true&JigyosyoCd=2893000402-00&ServiceCd=760&Type=search", "url2": "www.kirakuen.or.jp" }, "geometry": { "type": "Point", "coordinates": [ 135.427798700000039, 34.7245741 ] } },
{ "type": "Feature", "properties": { "内容": "シニアスタイル立花定期巡回事業所【定期巡回・随時対応型訪問介護看護】兵庫県尼崎市浜田町3-62ピトレスクエア206", "url": "https://www.kaigokensaku.mhlw.go.jp/28/index.php?action_kouhyou_detail_004_kani=true&JigyosyoCd=2893000824-00&ServiceCd=760&Type=search", "url2": "https://senior-style.co.jp/" }, "geometry": { "type": "Point", "coordinates": [ 135.398596099999963, 34.729414699999985 ] } },
{ "type": "Feature", "properties": { "内容": "シニアスタイル東園田定期巡回事業所【定期巡回・随時対応型訪問介護看護】兵庫県尼崎市東園田町5丁目38-8ハイム英和1F", "url": "https://www.kaigokensaku.mhlw.go.jp/28/index.php?action_kouhyou_detail_004_kani=true&JigyosyoCd=2893001376-00&ServiceCd=760&Type=search", "url2": "https://senior-style.co.jp/homecare/" }, "geometry": { "type": "Point", "coordinates": [ 135.448734878044519, 34.753810978533529 ] } },
{ "type": "Feature", "properties": { "内容": "スピンケア24つむぎ明石【定期巡回・随時対応型訪問介護看護】兵庫県明石市林崎町2-1-12", "url": "https://www.kaigokensaku.mhlw.go.jp/28/index.php?action_kouhyou_detail_004_kani=true&JigyosyoCd=2892000916-00&ServiceCd=760&Type=search", "url2": "https://www.spin-tumugi.jp/" }, "geometry": { "type": "Point", "coordinates": [ 134.969554, 34.650179799999982 ] } },
{ "type": "Feature", "properties": { "内容": "定期巡回ステーションずっといえ【定期巡回・随時対応型訪問介護看護】兵庫県明石市大久保町大久保町165-27オーセンティックスクエア大久保103", "url": "https://www.kaigokensaku.mhlw.go.jp/28/index.php?action_kouhyou_detail_004_kani=true&JigyosyoCd=2892000791-00&ServiceCd=760&Type=search", "url2": "https://zuttie.co.jp/" }, "geometry": { "type": "Point", "coordinates": [ 134.939301593301195, 34.677048194472405 ] } },
{ "type": "Feature", "properties": { "内容": "スピンケア24つむぎ二見町【定期巡回・随時対応型訪問介護看護】兵庫県明石市二見町西二見1268-1ラフェスタ二見501号室", "url": "https://www.kaigokensaku.mhlw.go.jp/28/index.php?action_kouhyou_detail_004_kani=true&JigyosyoCd=2892000783-00&ServiceCd=760&Type=search", "url2": null }, "geometry": { "type": "Point", "coordinates": [ 134.8735601, 34.7043091 ] } },
{ "type": "Feature", "properties": { "内容": "それいゆ定期巡回・随時対応型訪問介護看護朝霧【定期巡回・随時対応型訪問介護看護】兵庫県明石市相生町２丁目６－５　３８ヤングビル６０１３８ヤングビル６０１", "url": "https://www.kaigokensaku.mhlw.go.jp/28/index.php?action_kouhyou_detail_004_kani=true&JigyosyoCd=2892000312-00&ServiceCd=760&Type=search", "url2": "https://hinode.or.jp/establishment/teiki-asagiri/" }, "geometry": { "type": "Point", "coordinates": [ 134.998248623897297, 34.645278929668045 ] } },
{ "type": "Feature", "properties": { "内容": "カサブランカ定期巡回訪問介護ステーション【定期巡回・随時対応型訪問介護看護】兵庫県明石市魚住町住吉4-4-3", "url": "https://www.kaigokensaku.mhlw.go.jp/28/index.php?action_kouhyou_detail_004_kani=true&JigyosyoCd=2892000502-00&ServiceCd=760&Type=search", "url2": "http://www.kaigo-casablanca.co.jp/" }, "geometry": { "type": "Point", "coordinates": [ 134.897334099999966, 34.6942456 ] } },
{ "type": "Feature", "properties": { "内容": "やさしい手　和坂定期巡回・随時対応型訪問介護看護事業所【定期巡回・随時対応型訪問介護看護】和坂1丁目15番38号", "url": "https://www.kaigokensaku.mhlw.go.jp/28/index.php?action_kouhyou_detail_004_kani=true&JigyosyoCd=2892000254-00&ServiceCd=760&Type=search", "url2": "http://www.yasashiite.com" }, "geometry": { "type": "Point", "coordinates": [ 134.974813700000027, 34.6624744 ] } },
{ "type": "Feature", "properties": { "内容": "明石仁十病院ホームヘルプステーション【定期巡回・随時対応型訪問介護看護】兵庫県明石市魚住町清水１６２８－１", "url": "https://www.kaigokensaku.mhlw.go.jp/28/index.php?action_kouhyou_detail_004_kani=true&JigyosyoCd=2892000395-00&ServiceCd=760&Type=search", "url2": "http://simizunoie.com/homehelper.html" }, "geometry": { "type": "Point", "coordinates": [ 134.901061098147579, 34.713696532846583 ] } },
{ "type": "Feature", "properties": { "内容": "SOMPOケア　夙川香櫨園　定期巡回【定期巡回・随時対応型訪問介護看護】兵庫県西宮市堀切町5-5", "url": "https://www.kaigokensaku.mhlw.go.jp/28/index.php?action_kouhyou_detail_004_kani=true&JigyosyoCd=2890900513-00&ServiceCd=760&Type=search", "url2": null }, "geometry": { "type": "Point", "coordinates": [ 135.326032055819695, 34.730914308290515 ] } },
{ "type": "Feature", "properties": { "内容": "定期巡回・随時対応型訪問介護看護わたなべ【定期巡回・随時対応型訪問介護看護】兵庫県西宮市室川町11-23サービス付き高齢者住宅ひだまり", "url": "https://www.kaigokensaku.mhlw.go.jp/28/index.php?action_kouhyou_detail_004_kani=true&JigyosyoCd=2890900323-00&ServiceCd=760&Type=search", "url2": "http://www.n-watanabe-hosp.jp/koumeikai/hidamari/" }, "geometry": { "type": "Point", "coordinates": [ 135.34362520000002, 34.7443375 ] } },
{ "type": "Feature", "properties": { "内容": "第２シルバーコースト甲子園定期巡回随時対応サービス【定期巡回・随時対応型訪問介護看護】兵庫県西宮市枝川町17-55", "url": "https://www.kaigokensaku.mhlw.go.jp/28/index.php?action_kouhyou_detail_004_kani=true&JigyosyoCd=2890900240-00&ServiceCd=760&Type=search", "url2": "http://www.enshokai.com/" }, "geometry": { "type": "Point", "coordinates": [ 135.358031819059306, 34.711232812598936 ] } },
{ "type": "Feature", "properties": { "内容": "SOMPOケア甲東園定期巡回【定期巡回・随時対応型訪問介護看護】兵庫県西宮市段上町8-8-27そんぽの家S甲東園", "url": "https://www.kaigokensaku.mhlw.go.jp/28/index.php?action_kouhyou_detail_004_kani=true&JigyosyoCd=2890900521-00&ServiceCd=760&Type=search", "url2": "https://corporate.sompocare.com/" }, "geometry": { "type": "Point", "coordinates": [ 135.3663464, 34.7662256 ] } },
{ "type": "Feature", "properties": { "内容": "SOMPOケア武庫川定期巡回【定期巡回・随時対応型訪問介護看護】兵庫県西宮市笠屋町17番33号", "url": "https://www.kaigokensaku.mhlw.go.jp/28/index.php?action_kouhyou_detail_004_kani=true&JigyosyoCd=2890900539-00&ServiceCd=760&Type=search", "url2": "https://www.sompocare.com" }, "geometry": { "type": "Point", "coordinates": [ 135.3751955, 34.7134071 ] } },
{ "type": "Feature", "properties": { "内容": "シニアスタイル西宮北口定期巡回事業所【定期巡回・随時対応型訪問介護看護】兵庫県西宮市大屋町14-15", "url": "https://www.kaigokensaku.mhlw.go.jp/28/index.php?action_kouhyou_detail_004_kani=true&JigyosyoCd=2890900604-00&ServiceCd=760&Type=search", "url2": "https://senior-style.co.jp/homecare/" }, "geometry": { "type": "Point", "coordinates": [ 135.364691487207807, 34.744168460871222 ] } },
{ "type": "Feature", "properties": { "内容": "定期巡回サービスあ・うん【定期巡回・随時対応型訪問介護看護】兵庫県西宮市上田西町３－２３", "url": "https://www.kaigokensaku.mhlw.go.jp/28/index.php?action_kouhyou_detail_004_kani=true&JigyosyoCd=2890900695-00&ServiceCd=760&Type=search", "url2": "https://three-cheers.co.jp" }, "geometry": { "type": "Point", "coordinates": [ 135.371434599999986, 34.71105780000002 ] } },
{ "type": "Feature", "properties": { "内容": "エイプレイス兵庫西宮【定期巡回・随時対応型訪問介護看護】兵庫県西宮市段上町1-10-28", "url": "https://www.kaigokensaku.mhlw.go.jp/28/index.php?action_kouhyou_detail_004_kani=true&JigyosyoCd=2890900844-00&ServiceCd=760&Type=search", "url2": "https://isla-grande.com/" }, "geometry": { "type": "Point", "coordinates": [ 135.36351350000001, 34.7680664 ] } },
{ "type": "Feature", "properties": { "内容": "オアシス西宮定期巡回・随時対応型訪問介護看護事業所【定期巡回・随時対応型訪問介護看護】兵庫県西宮市江上町８－２１", "url": "https://www.kaigokensaku.mhlw.go.jp/28/index.php?action_kouhyou_detail_004_kani=true&JigyosyoCd=2890900281-00&ServiceCd=760&Type=search", "url2": "http:/oasis.nishinomiya.t/ja-oasis.com" }, "geometry": { "type": "Point", "coordinates": [ 135.33947, 34.7411377 ] } },
{ "type": "Feature", "properties": { "内容": "エレガーノ西宮　定期巡回・随時対応型訪問介護看護事業所【定期巡回・随時対応型訪問介護看護】兵庫県西宮市津門大塚町11-58エレガーノ西宮", "url": "https://www.kaigokensaku.mhlw.go.jp/28/index.php?action_kouhyou_detail_004_kani=true&JigyosyoCd=2890900752-00&ServiceCd=760&Type=search", "url2": "https://www.s-carelife.co.jp/" }, "geometry": { "type": "Point", "coordinates": [ 135.357238700000011, 34.7379781 ] } },
{ "type": "Feature", "properties": { "内容": "ルミエール【定期巡回・随時対応型訪問介護看護】兵庫県芦屋市高浜町１番７号高浜町ライフサポートステーション３階", "url": "https://www.kaigokensaku.mhlw.go.jp/28/index.php?action_kouhyou_detail_004_kani=true&JigyosyoCd=2891000164-00&ServiceCd=760&Type=search", "url2": "https://yamanokokai.or.jp" }, "geometry": { "type": "Point", "coordinates": [ 135.316197500000044, 34.7239984 ] } },
{ "type": "Feature", "properties": { "内容": "ロジケアあしや【定期巡回・随時対応型訪問介護看護】兵庫県芦屋市大原町4番10号", "url": "https://www.kaigokensaku.mhlw.go.jp/28/index.php?action_kouhyou_detail_004_kani=true&JigyosyoCd=2891000081-00&ServiceCd=760&Type=search", "url2": "http://logicare.co.jp" }, "geometry": { "type": "Point", "coordinates": [ 135.310147883419859, 34.735873328966285 ] } },
{ "type": "Feature", "properties": { "内容": "星優定期巡回随時対応型訪問介護看護ステーション【定期巡回・随時対応型訪問介護看護】兵庫県伊丹市桜ケ丘1丁目3番23号星優クリニック", "url": "https://www.kaigokensaku.mhlw.go.jp/28/index.php?action_kouhyou_detail_004_kani=true&JigyosyoCd=2893300265-00&ServiceCd=760&Type=search", "url2": "http://seishokai-gr.or.jp/" }, "geometry": { "type": "Point", "coordinates": [ 135.410296300000027, 34.783700699999983 ] } },
{ "type": "Feature", "properties": { "内容": "伊丹ゆうあい定期巡回随時対応型訪問介護看護【定期巡回・随時対応型訪問介護看護】兵庫県伊丹市荒牧６丁目16番2号", "url": "https://www.kaigokensaku.mhlw.go.jp/28/index.php?action_kouhyou_detail_004_kani=true&JigyosyoCd=2893300406-00&ServiceCd=760&Type=search", "url2": "http://seishokai-gr.or.jp/" }, "geometry": { "type": "Point", "coordinates": [ 135.387684799999988, 34.8123349 ] } },
{ "type": "Feature", "properties": { "内容": "定期巡回・随時対応型訪問介護看護　ｸﾞﾘｰﾝﾊｳｽ【定期巡回・随時対応型訪問介護看護】兵庫県相生市双葉２丁目19-4ホスピスケア相生　１階", "url": "https://www.kaigokensaku.mhlw.go.jp/28/index.php?action_kouhyou_detail_004_kani=true&JigyosyoCd=2894200092-00&ServiceCd=760&Type=search", "url2": "http://www.midori-fukushi.com" }, "geometry": { "type": "Point", "coordinates": [ 134.479417936770687, 34.816505949282465 ] } },
{ "type": "Feature", "properties": { "内容": "げんき【定期巡回・随時対応型訪問介護看護】兵庫県兵庫県豊岡市庄168", "url": "https://www.kaigokensaku.mhlw.go.jp/28/index.php?action_kouhyou_detail_004_kani=true&JigyosyoCd=2894400320-00&ServiceCd=760&Type=search", "url2": "http://www.genki-kaigo-service.jp/" }, "geometry": { "type": "Point", "coordinates": [ 134.777741099999986, 35.5427127 ] } },
{ "type": "Feature", "properties": { "内容": "介護看護あんしんサポートセンター豊岡【定期巡回・随時対応型訪問介護看護】兵庫県豊岡市京町5-21", "url": "https://www.kaigokensaku.mhlw.go.jp/28/index.php?action_kouhyou_detail_004_kani=true&JigyosyoCd=2894400338-00&ServiceCd=760&Type=search", "url2": "https://goodlife-sp.com/" }, "geometry": { "type": "Point", "coordinates": [ 134.822860996295162, 35.541172975271095 ] } },
{ "type": "Feature", "properties": { "内容": "定期巡回・随時対応型訪問介護看護らら【定期巡回・随時対応型訪問介護看護】兵庫県加古川市加古川町中津216-3ラポール中津102", "url": "https://www.kaigokensaku.mhlw.go.jp/28/index.php?action_kouhyou_detail_004_kani=true&JigyosyoCd=2892200821-00&ServiceCd=760&Type=search", "url2": null }, "geometry": { "type": "Point", "coordinates": [ 134.844365399999987, 34.775549 ] } },
{ "type": "Feature", "properties": { "内容": "それいゆ定期巡回・随時対応型訪問介護別府【定期巡回・随時対応型訪問介護看護】兵庫県加古川市平岡町新在家1456-1", "url": "https://www.kaigokensaku.mhlw.go.jp/28/index.php?action_kouhyou_detail_004_kani=true&JigyosyoCd=2892200425-00&ServiceCd=760&Type=search", "url2": "http://www.hakuaif.or.jp/facilities/befu_smile.html" }, "geometry": { "type": "Point", "coordinates": [ 134.871237874031067, 34.746584691881509 ] } },
{ "type": "Feature", "properties": { "内容": "やすらぎ定期巡回サービス【定期巡回・随時対応型訪問介護看護】加古川市神野町石守1632-1", "url": "https://www.kaigokensaku.mhlw.go.jp/28/index.php?action_kouhyou_detail_004_kani=true&JigyosyoCd=2892200573-00&ServiceCd=760&Type=search", "url2": null }, "geometry": { "type": "Point", "coordinates": [ 134.883170699999937, 34.7723792 ] } },
{ "type": "Feature", "properties": { "内容": "せいりょう園ホームヘルパーステーション【定期巡回・随時対応型訪問介護看護】兵庫県加古川市野口町長砂95-32", "url": "https://www.kaigokensaku.mhlw.go.jp/28/index.php?action_kouhyou_detail_004_kani=true&JigyosyoCd=2892200433-00&ServiceCd=760&Type=search", "url2": "http://www.seiryoen.or.jp" }, "geometry": { "type": "Point", "coordinates": [ 134.848657399999979, 34.7494204 ] } },
{ "type": "Feature", "properties": { "内容": "加古川さくら園定期巡回・随時対応型訪問介護看護【定期巡回・随時対応型訪問介護看護】兵庫県加古川市東神吉町神吉字北山1844－5", "url": "https://www.kaigokensaku.mhlw.go.jp/28/index.php?action_kouhyou_detail_004_kani=true&JigyosyoCd=2892200813-00&ServiceCd=760&Type=search", "url2": "http://www.kakogawa-sakuraen.com/" }, "geometry": { "type": "Point", "coordinates": [ 134.8294941, 34.7951032 ] } },
{ "type": "Feature", "properties": { "内容": "定期巡回こみなみ加古川【定期巡回・随時対応型訪問介護看護】加古川町大野字狐塚1416番", "url": "https://www.kaigokensaku.mhlw.go.jp/28/index.php?action_kouhyou_detail_004_kani=true&JigyosyoCd=2892200615-00&ServiceCd=760&Type=search", "url2": "http://kominami.co.jp" }, "geometry": { "type": "Point", "coordinates": [ 134.861897239884911, 34.773743008739238 ] } },
{ "type": "Feature", "properties": { "内容": "スピンケア24つむぎ尾上町【定期巡回・随時対応型訪問介護看護】兵庫県加古川市尾上町口里341-5", "url": "https://www.kaigokensaku.mhlw.go.jp/28/index.php?action_kouhyou_detail_004_kani=true&JigyosyoCd=2892200714-00&ServiceCd=760&Type=search", "url2": null }, "geometry": { "type": "Point", "coordinates": [ 134.829931043225457, 34.740519370010411 ] } },
{ "type": "Feature", "properties": { "内容": "あさひサポートセンター【定期巡回・随時対応型訪問介護看護】兵庫県西脇市西脇1107", "url": "https://www.kaigokensaku.mhlw.go.jp/28/index.php?action_kouhyou_detail_004_kani=true&JigyosyoCd=2891800076-00&ServiceCd=760&Type=search", "url2": "http://naitomedics.co.jp/" }, "geometry": { "type": "Point", "coordinates": [ 134.968008300000065, 34.9882612 ] } },
{ "type": "Feature", "properties": { "内容": "桜丘あんしんケアコールセンター【定期巡回・随時対応型訪問介護看護】兵庫県西脇市黒田庄町田高313-126", "url": "https://www.kaigokensaku.mhlw.go.jp/28/index.php?action_kouhyou_detail_004_kani=true&JigyosyoCd=2891800084-00&ServiceCd=760&Type=search", "url2": "https://sakuragaoka-anshincallcenter.jimdo.com/" }, "geometry": { "type": "Point", "coordinates": [ 134.993226323375438, 35.055889719581401 ] } },
{ "type": "Feature", "properties": { "内容": "ステップこはま２４ｈケアステーション【定期巡回・随時対応型訪問介護看護】兵庫県宝塚市小浜４丁目５番６号", "url": "https://www.kaigokensaku.mhlw.go.jp/28/index.php?action_kouhyou_detail_004_kani=true&JigyosyoCd=2891100162-00&ServiceCd=760&Type=search", "url2": "www.takarazuka-fukushi.or.jp/" }, "geometry": { "type": "Point", "coordinates": [ 135.366075, 34.8049447 ] } },
{ "type": "Feature", "properties": { "内容": "宝塚市社会福祉協議会　スミレン小林巡回サービス24Ｈ【定期巡回・随時対応型訪問介護看護】兵庫県宝塚市小林4丁目7-472Ｆ", "url": "https://www.kaigokensaku.mhlw.go.jp/28/index.php?action_kouhyou_detail_004_kani=true&JigyosyoCd=2891100329-00&ServiceCd=760&Type=search", "url2": "https://t.shakyo.org/" }, "geometry": { "type": "Point", "coordinates": [ 135.3571063, 34.7923453 ] } },
{ "type": "Feature", "properties": { "内容": "宝塚ちどり定期巡回ステーション【定期巡回・随時対応型訪問介護看護】兵庫県宝塚市亀井町10番30号", "url": "https://www.kaigokensaku.mhlw.go.jp/28/index.php?action_kouhyou_detail_004_kani=true&JigyosyoCd=2891100360-00&ServiceCd=760&Type=search", "url2": "https://www.chidori.or.jp/facility/takaraduka/" }, "geometry": { "type": "Point", "coordinates": [ 135.3635971, 34.7928876 ] } },
{ "type": "Feature", "properties": { "内容": "中山ちどり定期巡回ステーション【定期巡回・随時対応型訪問介護看護】兵庫県宝塚市中山桜台1丁目7番1号", "url": "https://www.kaigokensaku.mhlw.go.jp/28/index.php?action_kouhyou_detail_004_kani=true&JigyosyoCd=2891100311-00&ServiceCd=760&Type=search", "url2": "http://www.chidori.or.jp" }, "geometry": { "type": "Point", "coordinates": [ 135.3681619, 34.8307036 ] } },
{ "type": "Feature", "properties": { "内容": "定期巡回サービス　宝塚清光苑【定期巡回・随時対応型訪問介護看護】仁川団地4-15", "url": "https://www.kaigokensaku.mhlw.go.jp/28/index.php?action_kouhyou_detail_004_kani=true&JigyosyoCd=2891100188-00&ServiceCd=760&Type=search", "url2": "http:/well-seikokai.jp" }, "geometry": { "type": "Point", "coordinates": [ 135.350866251589963, 34.781455758157776 ] } },
{ "type": "Feature", "properties": { "内容": "三木すみれ定期巡回・随時対応型訪問介護看護【定期巡回・随時対応型訪問介護看護】兵庫県三木市志染町吉田1241-53", "url": "https://www.kaigokensaku.mhlw.go.jp/28/index.php?action_kouhyou_detail_004_kani=true&JigyosyoCd=2892300175-00&ServiceCd=760&Type=search", "url2": "https://miki-sumire-v.jp/" }, "geometry": { "type": "Point", "coordinates": [ 135.018752299999989, 34.7886929 ] } },
{ "type": "Feature", "properties": { "内容": "ふぁ～みんヘルパーステーション【定期巡回・随時対応型訪問介護看護】兵庫県高砂市阿弥陀町阿弥陀1146番地", "url": "https://www.kaigokensaku.mhlw.go.jp/28/index.php?action_kouhyou_detail_004_kani=true&JigyosyoCd=2872100161-00&ServiceCd=760&Type=search", "url2": null }, "geometry": { "type": "Point", "coordinates": [ 134.780126, 34.7957082 ] } },
{ "type": "Feature", "properties": { "内容": "ふぁ～みんヘルパーステーション【定期巡回・随時対応型訪問介護看護】兵庫県高砂市阿弥陀町阿弥陀1146", "url": "https://www.kaigokensaku.mhlw.go.jp/28/index.php?action_kouhyou_detail_004_kani=true&JigyosyoCd=2892100161-00&ServiceCd=760&Type=search", "url2": null }, "geometry": { "type": "Point", "coordinates": [ 134.780126, 34.7957082 ] } },
{ "type": "Feature", "properties": { "内容": "粟生逢花苑定期巡回・随時対応型訪問介護看護事業所【定期巡回・随時対応型訪問介護看護】兵庫県小野市粟生町字前田3610-1", "url": "https://www.kaigokensaku.mhlw.go.jp/28/index.php?action_kouhyou_detail_004_kani=true&JigyosyoCd=2891900108-00&ServiceCd=760&Type=search", "url2": "https://www.aoyama-med.gr.jp/ontokuwelfare/" }, "geometry": { "type": "Point", "coordinates": [ 134.908423, 34.856892 ] } },
{ "type": "Feature", "properties": { "内容": "定期巡回こみなみ小野【定期巡回・随時対応型訪問介護看護】小野市天神町字後山1183番79", "url": "https://www.kaigokensaku.mhlw.go.jp/28/index.php?action_kouhyou_detail_004_kani=true&JigyosyoCd=2891900140-00&ServiceCd=760&Type=search", "url2": "http://kominami.co.jp/" }, "geometry": { "type": "Point", "coordinates": [ 134.948158776920536, 34.849706551268241 ] } },
{ "type": "Feature", "properties": { "内容": "ユピテル三田【定期巡回・随時対応型訪問介護看護】兵庫県三田市中町7-34", "url": "https://www.kaigokensaku.mhlw.go.jp/28/index.php?action_kouhyou_detail_004_kani=true&JigyosyoCd=2871200396-00&ServiceCd=760&Type=search", "url2": null }, "geometry": { "type": "Point", "coordinates": [ 135.228894800000035, 34.8857769 ] } },
{ "type": "Feature", "properties": { "内容": "ミクチサポートセンター【定期巡回・随時対応型訪問介護看護】北条町古坂7丁目62", "url": "https://www.kaigokensaku.mhlw.go.jp/28/index.php?action_kouhyou_detail_004_kani=true&JigyosyoCd=2892600079-00&ServiceCd=760&Type=search", "url2": "https://naitomedics.co.jp/" }, "geometry": { "type": "Point", "coordinates": [ 134.843112266958741, 34.927552699443979 ] } },
{ "type": "Feature", "properties": { "内容": "定期巡回ステーション津名やすらぎの里【定期巡回・随時対応型訪問介護看護】兵庫県淡路市大町下65-1津名やすらぎの里", "url": "https://www.kaigokensaku.mhlw.go.jp/28/index.php?action_kouhyou_detail_004_kani=true&JigyosyoCd=2891600187-00&ServiceCd=760&Type=search", "url2": "http://www.nojigiku.or.jp/pages/25/" }, "geometry": { "type": "Point", "coordinates": [ 134.8577115, 34.4366647 ] } },
{ "type": "Feature", "properties": { "内容": "定期巡回・随時対応型訪問介護看護しそうの杜【定期巡回・随時対応型訪問介護看護】兵庫県宍粟市山崎町川戸１８２１", "url": "https://www.kaigokensaku.mhlw.go.jp/28/index.php?action_kouhyou_detail_004_kani=true&JigyosyoCd=2893800066-00&ServiceCd=760&Type=search", "url2": "https://www.ontoku.or.jp/" }, "geometry": { "type": "Point", "coordinates": [ 134.541652500000026, 34.9800281 ] } },
{ "type": "Feature", "properties": { "内容": "定期巡回こみなみうれし野【定期巡回・随時対応型訪問介護看護】兵庫県加東市山国574", "url": "https://www.kaigokensaku.mhlw.go.jp/28/index.php?action_kouhyou_detail_004_kani=true&JigyosyoCd=2892500105-00&ServiceCd=760&Type=search", "url2": "http://www.kominami.co.jp" }, "geometry": { "type": "Point", "coordinates": [ 134.983705768053397, 34.908938805272598 ] } },
{ "type": "Feature", "properties": { "内容": "みのり農業協同組合　加東ケアセンター【定期巡回・随時対応型訪問介護看護】兵庫県加東市沢部613", "url": "https://www.kaigokensaku.mhlw.go.jp/28/index.php?action_kouhyou_detail_004_kani=true&JigyosyoCd=2892500097-00&ServiceCd=760&Type=search", "url2": "https://www.ja-minori.jp" }, "geometry": { "type": "Point", "coordinates": [ 134.954680300000064, 34.8956721 ] } },
{ "type": "Feature", "properties": { "内容": "定期巡回・随時対応型訪問介護看護事業所　祗園【定期巡回・随時対応型訪問介護看護】兵庫県たつの市神岡町東觜崎543番地", "url": "https://www.kaigokensaku.mhlw.go.jp/28/index.php?action_kouhyou_detail_004_kani=true&JigyosyoCd=2893600110-00&ServiceCd=760&Type=search", "url2": "http://www.kuwanomien.jp" }, "geometry": { "type": "Point", "coordinates": [ 134.556135978613042, 34.882333964588781 ] } },
{ "type": "Feature", "properties": { "内容": "スマイルサポートセンター国岡定期巡回・随時対応型訪問介護看護【定期巡回・随時対応型訪問介護看護】兵庫県加古郡稲美町国岡2丁目8-1", "url": "https://www.kaigokensaku.mhlw.go.jp/28/index.php?action_kouhyou_detail_004_kani=true&JigyosyoCd=2892800117-00&ServiceCd=760&Type=search", "url2": null }, "geometry": { "type": "Point", "coordinates": [ 134.909761917968751, 34.7477164416619 ] } },
{ "type": "Feature", "properties": { "内容": "愛の里安心サポートセンター【定期巡回・随時対応型訪問介護看護】神崎郡福崎町大貫2321-1", "url": "https://www.kaigokensaku.mhlw.go.jp/28/index.php?action_kouhyou_detail_004_kani=true&JigyosyoCd=2893400081-00&ServiceCd=760&Type=search", "url2": null }, "geometry": { "type": "Point", "coordinates": [ 134.783779200000026, 34.9522299 ] } },
{ "type": "Feature", "properties": { "内容": "スマイルサポートセンター太子定期巡回・随時対応型訪問介護看護【定期巡回・随時対応型訪問介護看護】兵庫県揖保郡太子町蓮常寺69-1", "url": "https://www.kaigokensaku.mhlw.go.jp/28/index.php?action_kouhyou_detail_004_kani=true&JigyosyoCd=2894100052-00&ServiceCd=760&Type=search", "url2": "https://hinode.or.jp" }, "geometry": { "type": "Point", "coordinates": [ 134.576835, 34.8242442 ] } },
{ "type": "Feature", "properties": { "内容": "社会福祉法人　兵庫県社会福祉事業団　ラウンド・ケア・サービス　あさひ【定期巡回・随時対応型訪問介護看護】兵庫県佐用郡佐用町平福138－1", "url": "https://www.kaigokensaku.mhlw.go.jp/28/index.php?action_kouhyou_detail_004_kani=true&JigyosyoCd=2893700100-00&ServiceCd=760&Type=search", "url2": "http://www.hwc.or.jp/asahigaoka/" }, "geometry": { "type": "Point", "coordinates": [ 134.371012599999972, 35.049584 ] } }
]
}
