{
"type": "FeatureCollection",
"name": "geo_28_訪問リハビリテーション",
"crs": { "type": "name", "properties": { "name": "urn:ogc:def:crs:OGC:1.3:CRS84" } },
"features": [
{ "type": "Feature", "properties": { "内容": "市橋クリニック　訪問リハビリテーション【訪問リハビリテーション】兵庫県神戸市東灘区深江北町5丁目7番15号", "url": "https://www.kaigokensaku.mhlw.go.jp/28/index.php?action_kouhyou_detail_004_kani=true&JigyosyoCd=2810104618-00&ServiceCd=140&Type=search", "url2": "http://www.daichikai.or.jp/ichihashi/" }, "geometry": { "type": "Point", "coordinates": [ 135.289369500000021, 34.7227917 ] } },
{ "type": "Feature", "properties": { "内容": "医療法人社団　御影ごきげんクリニック【訪問リハビリテーション】神戸市東灘区御影郡家2丁目16-10", "url": "https://www.kaigokensaku.mhlw.go.jp/28/index.php?action_kouhyou_detail_004_kani=true&JigyosyoCd=2810106795-00&ServiceCd=140&Type=search", "url2": "http://www.mk-gokigen.com/" }, "geometry": { "type": "Point", "coordinates": [ 135.253703099999967, 34.724340900000023 ] } },
{ "type": "Feature", "properties": { "内容": "介護老人保健施設アネシス御影【訪問リハビリテーション】御影石町1-1-32介護老人保健施設アネシス御影", "url": "https://www.kaigokensaku.mhlw.go.jp/28/index.php?action_kouhyou_detail_004_kani=true&JigyosyoCd=2850180056-00&ServiceCd=140&Type=search", "url2": "http://www.kouyukai.jp/" }, "geometry": { "type": "Point", "coordinates": [ 135.253673, 34.7093538 ] } },
{ "type": "Feature", "properties": { "内容": "医療法人　明倫会　宮地病院【訪問リハビリテーション】兵庫県神戸市東灘区本山中町4丁目1番8号", "url": "https://www.kaigokensaku.mhlw.go.jp/28/index.php?action_kouhyou_detail_004_kani=true&JigyosyoCd=2810102703-00&ServiceCd=140&Type=search", "url2": "http://meirinkai.or.jp/miyaji/section/depts/rehabilitation/visit_rha" }, "geometry": { "type": "Point", "coordinates": [ 135.281045100000028, 34.7250052 ] } },
{ "type": "Feature", "properties": { "内容": "仁科整形外科【訪問リハビリテーション】神戸市東灘区北青木2-6-7", "url": "https://www.kaigokensaku.mhlw.go.jp/28/index.php?action_kouhyou_detail_004_kani=true&JigyosyoCd=2810104766-00&ServiceCd=140&Type=search", "url2": "http://www.keijin-kai.com/" }, "geometry": { "type": "Point", "coordinates": [ 135.2827896, 34.719228 ] } },
{ "type": "Feature", "properties": { "内容": "細井整形外科【訪問リハビリテーション】青木6丁目6-11井上ビル2階", "url": "https://www.kaigokensaku.mhlw.go.jp/28/index.php?action_kouhyou_detail_004_kani=true&JigyosyoCd=2810106290-00&ServiceCd=140&Type=search", "url2": "https://hosoi-seikei.com" }, "geometry": { "type": "Point", "coordinates": [ 135.281273100000021, 34.7171143 ] } },
{ "type": "Feature", "properties": { "内容": "医療法人社団吉野医院　吉野脳神経外科クリニック【訪問リハビリテーション】兵庫県神戸市東灘区森南町1丁目6-2F甲南山手ビル2階", "url": "https://www.kaigokensaku.mhlw.go.jp/28/index.php?action_kouhyou_detail_004_kani=true&JigyosyoCd=2810106340-00&ServiceCd=140&Type=search", "url2": "http://yoshino-reha.com/" }, "geometry": { "type": "Point", "coordinates": [ 135.293927199999985, 34.7290356 ] } },
{ "type": "Feature", "properties": { "内容": "おかだ整形外科【訪問リハビリテーション】魚崎中町１－９－１１－２０１YMビル魚崎中町", "url": "https://www.kaigokensaku.mhlw.go.jp/28/index.php?action_kouhyou_detail_004_kani=true&JigyosyoCd=2810107074-00&ServiceCd=140&Type=search", "url2": "okadaseikei.com" }, "geometry": { "type": "Point", "coordinates": [ 135.2762271, 34.7155741 ] } },
{ "type": "Feature", "properties": { "内容": "やなぎ整形外科クリニック【訪問リハビリテーション】兵庫県神戸市東灘区魚崎南町5-13-1", "url": "https://www.kaigokensaku.mhlw.go.jp/28/index.php?action_kouhyou_detail_004_kani=true&JigyosyoCd=2810105573-00&ServiceCd=140&Type=search", "url2": "http://www.yanagi.asia/" }, "geometry": { "type": "Point", "coordinates": [ 135.2697474, 34.7103595 ] } },
{ "type": "Feature", "properties": { "内容": "ろっこう医療生活協同組合うはらクリニック【訪問リハビリテーション】兵庫県神戸市東灘区魚崎北町5-6-12", "url": "https://www.kaigokensaku.mhlw.go.jp/28/index.php?action_kouhyou_detail_004_kani=true&JigyosyoCd=2810106464-00&ServiceCd=140&Type=search", "url2": "https://uhara-cl.jp/" }, "geometry": { "type": "Point", "coordinates": [ 135.27421480000001, 34.7199851 ] } },
{ "type": "Feature", "properties": { "内容": "医療法人愛和会金沢病院【訪問リハビリテーション】神戸市灘区神ノ木通４丁目２番１５号", "url": "https://www.kaigokensaku.mhlw.go.jp/28/index.php?action_kouhyou_detail_004_kani=true&JigyosyoCd=2810201406-00&ServiceCd=140&Type=search", "url2": "https://kanazawa-hp.jp/" }, "geometry": { "type": "Point", "coordinates": [ 135.229054899999937, 34.7140449 ] } },
{ "type": "Feature", "properties": { "内容": "医療法人財団　神戸海星病院【訪問リハビリテーション】兵庫県神戸市灘区篠原北町３丁目11番15号", "url": "https://www.kaigokensaku.mhlw.go.jp/28/index.php?action_kouhyou_detail_004_kani=true&JigyosyoCd=2810203659-00&ServiceCd=140&Type=search", "url2": "https://www.kobe-kaisei.org/" }, "geometry": { "type": "Point", "coordinates": [ 135.225663, 34.7237838 ] } },
{ "type": "Feature", "properties": { "内容": "六甲病院【訪問リハビリテーション】神戸市灘区土山町5番1号", "url": "https://www.kaigokensaku.mhlw.go.jp/28/index.php?action_kouhyou_detail_004_kani=true&JigyosyoCd=2810206348-00&ServiceCd=140&Type=search", "url2": "https//rokkouhp.jp" }, "geometry": { "type": "Point", "coordinates": [ 135.2424095, 34.7251915 ] } },
{ "type": "Feature", "properties": { "内容": "カネディアンヒル介護老人保健施設　訪問リハビリテーション【訪問リハビリテーション】神戸市灘区長峰台２－３－１", "url": "https://www.kaigokensaku.mhlw.go.jp/28/index.php?action_kouhyou_detail_004_kani=true&JigyosyoCd=2850280039-00&ServiceCd=140&Type=search", "url2": "http://i-souseikai.jp/" }, "geometry": { "type": "Point", "coordinates": [ 135.222121600000037, 34.7260213 ] } },
{ "type": "Feature", "properties": { "内容": "かえでホームケアクリニック【訪問リハビリテーション】神戸市灘区八幡町3丁目4-5", "url": "https://www.kaigokensaku.mhlw.go.jp/28/index.php?action_kouhyou_detail_004_kani=true&JigyosyoCd=2810205449-00&ServiceCd=140&Type=search", "url2": "https://www.kaede-hcc.com/" }, "geometry": { "type": "Point", "coordinates": [ 135.235661099999987, 34.7184482 ] } },
{ "type": "Feature", "properties": { "内容": "医療法人　康雄会　西病院【訪問リハビリテーション】神戸市灘区備後町３丁目２－１８", "url": "https://www.kaigokensaku.mhlw.go.jp/28/index.php?action_kouhyou_detail_004_kani=true&JigyosyoCd=2810203121-00&ServiceCd=140&Type=search", "url2": "http://www.koyukai.or.jp" }, "geometry": { "type": "Point", "coordinates": [ 135.240234800000053, 34.7143893 ] } },
{ "type": "Feature", "properties": { "内容": "田所病院【訪問リハビリテーション】兵庫県神戸市灘区船寺通1-2-1", "url": "https://www.kaigokensaku.mhlw.go.jp/28/index.php?action_kouhyou_detail_004_kani=true&JigyosyoCd=2810205274-00&ServiceCd=140&Type=search", "url2": "https://tadokorohp.or.jp/" }, "geometry": { "type": "Point", "coordinates": [ 135.2304164, 34.706948 ] } },
{ "type": "Feature", "properties": { "内容": "中井病院訪問リハビリテーション【訪問リハビリテーション】大内通6-1-3", "url": "https://www.kaigokensaku.mhlw.go.jp/28/index.php?action_kouhyou_detail_004_kani=true&JigyosyoCd=2810205068-00&ServiceCd=140&Type=search", "url2": "http://www.nakai-hp.jp/" }, "geometry": { "type": "Point", "coordinates": [ 135.2218201, 34.7100554 ] } },
{ "type": "Feature", "properties": { "内容": "ろっこう医療生活協同組合灘診療所【訪問リハビリテーション】神戸市灘区水道筋6-6-3", "url": "https://www.kaigokensaku.mhlw.go.jp/28/index.php?action_kouhyou_detail_004_kani=true&JigyosyoCd=2810205217-00&ServiceCd=140&Type=search", "url2": "http://www.nada-cl.jp/" }, "geometry": { "type": "Point", "coordinates": [ 135.220055600000023, 34.7111785 ] } },
{ "type": "Feature", "properties": { "内容": "ろっこう医療生活協同組合六甲道診療所【訪問リハビリテーション】兵庫県神戸市灘区桜口町4-5-12", "url": "https://www.kaigokensaku.mhlw.go.jp/28/index.php?action_kouhyou_detail_004_kani=true&JigyosyoCd=2810203980-00&ServiceCd=140&Type=search", "url2": "https://cl-rokkomichi.com/" }, "geometry": { "type": "Point", "coordinates": [ 135.240049546032679, 34.712986551842803 ] } },
{ "type": "Feature", "properties": { "内容": "神戸百年記念病院【訪問リハビリテーション】神戸市兵庫区御崎町1丁目9番1号", "url": "https://www.kaigokensaku.mhlw.go.jp/28/index.php?action_kouhyou_detail_004_kani=true&JigyosyoCd=2810506762-00&ServiceCd=140&Type=search", "url2": "www.kobe-century-mh.or.jp" }, "geometry": { "type": "Point", "coordinates": [ 135.168672199999946, 34.6588134 ] } },
{ "type": "Feature", "properties": { "内容": "介護老人保健施設アネシス兵庫【訪問リハビリテーション】兵庫県神戸市兵庫区吉田町1丁目8-21", "url": "https://www.kaigokensaku.mhlw.go.jp/28/index.php?action_kouhyou_detail_004_kani=true&JigyosyoCd=2850580032-00&ServiceCd=140&Type=search", "url2": "www.i-souseikai.jp" }, "geometry": { "type": "Point", "coordinates": [ 135.1704277, 34.6534221 ] } },
{ "type": "Feature", "properties": { "内容": "介護老人保健施設　鵠芭【訪問リハビリテーション】兵庫県神戸市兵庫区湊川町6丁目4-12", "url": "https://www.kaigokensaku.mhlw.go.jp/28/index.php?action_kouhyou_detail_004_kani=true&JigyosyoCd=2850580081-00&ServiceCd=140&Type=search", "url2": "https://konshinkai.or.jp/tazuha" }, "geometry": { "type": "Point", "coordinates": [ 135.1603409, 34.6828828 ] } },
{ "type": "Feature", "properties": { "内容": "社会医療法人榮昌会　吉田病院【訪問リハビリテーション】兵庫県神戸市兵庫区大開通9丁目2番6号", "url": "https://www.kaigokensaku.mhlw.go.jp/28/index.php?action_kouhyou_detail_004_kani=true&JigyosyoCd=2810505830-00&ServiceCd=140&Type=search", "url2": "https://www.yoshida-hp.or.jp/" }, "geometry": { "type": "Point", "coordinates": [ 135.160701099999983, 34.6690659 ] } },
{ "type": "Feature", "properties": { "内容": "医療法人社団　大有会　井上病院【訪問リハビリテーション】兵庫県神戸市兵庫区上沢通3丁目1番4号", "url": "https://www.kaigokensaku.mhlw.go.jp/28/index.php?action_kouhyou_detail_004_kani=true&JigyosyoCd=2810505632-00&ServiceCd=140&Type=search", "url2": "https://taiyukai.jp" }, "geometry": { "type": "Point", "coordinates": [ 135.163875, 34.67742 ] } },
{ "type": "Feature", "properties": { "内容": "社会医療法人社団　正峰会　神戸大山病院【訪問リハビリテーション】水木通１０丁目１番１２号", "url": "https://www.kaigokensaku.mhlw.go.jp/28/index.php?action_kouhyou_detail_004_kani=true&JigyosyoCd=2810507067-00&ServiceCd=140&Type=search", "url2": "http://www.seihoukai.com/kobe-ohyama/" }, "geometry": { "type": "Point", "coordinates": [ 135.158566620901553, 34.669414067377815 ] } },
{ "type": "Feature", "properties": { "内容": "介護老人保健施設　兵庫みどり苑【訪問リハビリテーション】大開通２丁目２番地１号介護老人保健施設　兵庫みどり苑", "url": "https://www.kaigokensaku.mhlw.go.jp/28/index.php?action_kouhyou_detail_004_kani=true&JigyosyoCd=2850580024-00&ServiceCd=140&Type=search", "url2": "http://www.sendankai.or.jp" }, "geometry": { "type": "Point", "coordinates": [ 135.169077499999958, 34.6750481 ] } },
{ "type": "Feature", "properties": { "内容": "神戸協同病院【訪問リハビリテーション】神戸市長田区久保町2丁目4-7", "url": "https://www.kaigokensaku.mhlw.go.jp/28/index.php?action_kouhyou_detail_004_kani=true&JigyosyoCd=2810603643-00&ServiceCd=140&Type=search", "url2": "http://kobe-iseikyo.or.jp" }, "geometry": { "type": "Point", "coordinates": [ 135.1497273, 34.655641 ] } },
{ "type": "Feature", "properties": { "内容": "適寿リハビリテーション病院【訪問リハビリテーション】兵庫県神戸市長田区花山町2丁目11番32号", "url": "https://www.kaigokensaku.mhlw.go.jp/28/index.php?action_kouhyou_detail_004_kani=true&JigyosyoCd=2810604625-00&ServiceCd=140&Type=search", "url2": "http://www.tekiju.com/" }, "geometry": { "type": "Point", "coordinates": [ 135.13495480000006, 34.6860573 ] } },
{ "type": "Feature", "properties": { "内容": "介護老人保健施設　神戸長者町白寿苑【訪問リハビリテーション】神戸市長田区長者町19-1", "url": "https://www.kaigokensaku.mhlw.go.jp/28/index.php?action_kouhyou_detail_004_kani=true&JigyosyoCd=2850680030-00&ServiceCd=140&Type=search", "url2": "http://www.nojigiku.or.jp" }, "geometry": { "type": "Point", "coordinates": [ 135.132135699999907, 34.6814108 ] } },
{ "type": "Feature", "properties": { "内容": "医療法人一輝会　荻原記念病院【訪問リハビリテーション】兵庫県神戸市長田区大橋町7丁目1番1", "url": "https://www.kaigokensaku.mhlw.go.jp/28/index.php?action_kouhyou_detail_004_kani=true&JigyosyoCd=2810606562-00&ServiceCd=140&Type=search", "url2": "https://kinen.ikkikai.or.jp/" }, "geometry": { "type": "Point", "coordinates": [ 135.1445663, 34.6542798 ] } },
{ "type": "Feature", "properties": { "内容": "医療法人社団　本山整形外科【訪問リハビリテーション】兵庫県神戸市長田区浪松町2-2-19藤原ビル１F", "url": "https://www.kaigokensaku.mhlw.go.jp/28/index.php?action_kouhyou_detail_004_kani=true&JigyosyoCd=2810605911-00&ServiceCd=140&Type=search", "url2": "http://motoyama.cute.coocan.jp/" }, "geometry": { "type": "Point", "coordinates": [ 135.134944100000013, 34.6504473 ] } },
{ "type": "Feature", "properties": { "内容": "宮井歯科医院在宅訪問事業部【訪問リハビリテーション】兵庫県神戸市須磨区竜が台5丁目11-3", "url": "https://www.kaigokensaku.mhlw.go.jp/28/index.php?action_kouhyou_detail_004_kani=true&JigyosyoCd=2830700700-00&ServiceCd=140&Type=search", "url2": null }, "geometry": { "type": "Point", "coordinates": [ 135.08850659999996, 34.6733275 ] } },
{ "type": "Feature", "properties": { "内容": "介護老人保健施設すま松の郷【訪問リハビリテーション】妙法寺字樫原2-1", "url": "https://www.kaigokensaku.mhlw.go.jp/28/index.php?action_kouhyou_detail_004_kani=true&JigyosyoCd=2850780053-00&ServiceCd=140&Type=search", "url2": "https://shouzenkai.or.jp" }, "geometry": { "type": "Point", "coordinates": [ 135.123105533729557, 34.671179977924346 ] } },
{ "type": "Feature", "properties": { "内容": "介護老人保健施設オラージュ須磨【訪問リハビリテーション】若草町3-622-11", "url": "https://www.kaigokensaku.mhlw.go.jp/28/index.php?action_kouhyou_detail_004_kani=true&JigyosyoCd=2850780061-00&ServiceCd=140&Type=search", "url2": "http://i-souseikai.jp/" }, "geometry": { "type": "Point", "coordinates": [ 135.115503600000011, 34.6920899 ] } },
{ "type": "Feature", "properties": { "内容": "医療法人社団　医修会　長谷川医院【訪問リハビリテーション】月見山本町1丁目5番34号", "url": "https://www.kaigokensaku.mhlw.go.jp/28/index.php?action_kouhyou_detail_004_kani=true&JigyosyoCd=2810702676-00&ServiceCd=140&Type=search", "url2": "http://ishuukai-hasegawaiin.com/" }, "geometry": { "type": "Point", "coordinates": [ 135.1233822, 34.6491429 ] } },
{ "type": "Feature", "properties": { "内容": "星島整形外科・リハビリテーション【訪問リハビリテーション】兵庫件鉤米垂水区天ノ下町５−３", "url": "https://www.kaigokensaku.mhlw.go.jp/28/index.php?action_kouhyou_detail_004_kani=true&JigyosyoCd=2810806089-00&ServiceCd=140&Type=search", "url2": "https://www.kobe-med.net/seikei/" }, "geometry": { "type": "Point", "coordinates": [ 135.051753, 34.6305966 ] } },
{ "type": "Feature", "properties": { "内容": "医療法人社団新国内科医院【訪問リハビリテーション】兵庫県神戸市垂水区小束山本町2丁目10番26号", "url": "https://www.kaigokensaku.mhlw.go.jp/28/index.php?action_kouhyou_detail_004_kani=true&JigyosyoCd=2810804019-00&ServiceCd=140&Type=search", "url2": "https://www.niikuni.or.jp" }, "geometry": { "type": "Point", "coordinates": [ 135.0618385, 34.6647996 ] } },
{ "type": "Feature", "properties": { "内容": "立花整形外科【訪問リハビリテーション】兵庫県神戸市垂水区神陵台2丁目3-15ひまわりビル", "url": "https://www.kaigokensaku.mhlw.go.jp/28/index.php?action_kouhyou_detail_004_kani=true&JigyosyoCd=2810804209-00&ServiceCd=140&Type=search", "url2": "http://tachibana-riha.jimdo.com/" }, "geometry": { "type": "Point", "coordinates": [ 135.03562809999994, 34.6627503 ] } },
{ "type": "Feature", "properties": { "内容": "ふたば訪問診療クリニック訪問リハビリテーション【訪問リハビリテーション】神戸市垂水区福田4丁目3番21号", "url": "https://www.kaigokensaku.mhlw.go.jp/28/index.php?action_kouhyou_detail_004_kani=true&JigyosyoCd=2810805842-00&ServiceCd=140&Type=search", "url2": "https://www.tarumi-cl.futabakai1983.or.jp/" }, "geometry": { "type": "Point", "coordinates": [ 135.0654625, 34.645791200000026 ] } },
{ "type": "Feature", "properties": { "内容": "介護老人保健施設フローラルヴィラ垂水【訪問リハビリテーション】兵庫県神戸市垂水区下畑町西砂山301-1", "url": "https://www.kaigokensaku.mhlw.go.jp/28/index.php?action_kouhyou_detail_004_kani=true&JigyosyoCd=2850880051-00&ServiceCd=140&Type=search", "url2": "https://seihoukai-grp.jp" }, "geometry": { "type": "Point", "coordinates": [ 135.093509600000061, 34.6470556 ] } },
{ "type": "Feature", "properties": { "内容": "垂水すみれ苑訪問リハビリテーション【訪問リハビリテーション】兵庫県神戸市垂水区名谷町字猿倉241-5垂水すみれ苑", "url": "https://www.kaigokensaku.mhlw.go.jp/28/index.php?action_kouhyou_detail_004_kani=true&JigyosyoCd=2850880085-00&ServiceCd=140&Type=search", "url2": "http//www.sumire.or.jp/" }, "geometry": { "type": "Point", "coordinates": [ 135.0590894, 34.6512471 ] } },
{ "type": "Feature", "properties": { "内容": "池垣クリニック【訪問リハビリテーション】天の下町11-7", "url": "https://www.kaigokensaku.mhlw.go.jp/28/index.php?action_kouhyou_detail_004_kani=true&JigyosyoCd=2810804258-00&ServiceCd=140&Type=search", "url2": "http://www.reference.co.jp/maeda/" }, "geometry": { "type": "Point", "coordinates": [ 135.051241399999981, 34.6312433 ] } },
{ "type": "Feature", "properties": { "内容": "井尻整形外科【訪問リハビリテーション】日向1丁目4番1号レバンテ垂水1番館2階", "url": "https://www.kaigokensaku.mhlw.go.jp/28/index.php?action_kouhyou_detail_004_kani=true&JigyosyoCd=2810804076-00&ServiceCd=140&Type=search", "url2": "http://ijiri.jp" }, "geometry": { "type": "Point", "coordinates": [ 135.05573830000003, 34.6304795 ] } },
{ "type": "Feature", "properties": { "内容": "しゃかいふくしほうじんおんしざいだんさいせいかいひょうごけんびょういん【訪問リハビリテーション】藤原台中町５－１－１", "url": "https://www.kaigokensaku.mhlw.go.jp/28/index.php?action_kouhyou_detail_004_kani=true&JigyosyoCd=2815001538-00&ServiceCd=140&Type=search", "url2": "https://saiseikai.info/" }, "geometry": { "type": "Point", "coordinates": [ 135.2138166, 34.8185865 ] } },
{ "type": "Feature", "properties": { "内容": "医療法人甲風会　有馬温泉病院【訪問リハビリテーション】兵庫県神戸市北区有馬町字山田山1819番地の2", "url": "https://www.kaigokensaku.mhlw.go.jp/28/index.php?action_kouhyou_detail_004_kani=true&JigyosyoCd=2815000498-00&ServiceCd=140&Type=search", "url2": "https://aohos.com/" }, "geometry": { "type": "Point", "coordinates": [ 135.2581563, 34.7988496 ] } },
{ "type": "Feature", "properties": { "内容": "恕和会　松田病院【訪問リハビリテーション】兵庫県神戸市北区松が枝町3-1-74", "url": "https://www.kaigokensaku.mhlw.go.jp/28/index.php?action_kouhyou_detail_004_kani=true&JigyosyoCd=2815002221-00&ServiceCd=140&Type=search", "url2": "www.jyowakai.or.jp" }, "geometry": { "type": "Point", "coordinates": [ 135.154412900000011, 34.7583522 ] } },
{ "type": "Feature", "properties": { "内容": "真星病院【訪問リハビリテーション】神戸市北区山田町上谷上字古々谷12-3", "url": "https://www.kaigokensaku.mhlw.go.jp/28/index.php?action_kouhyou_detail_004_kani=true&JigyosyoCd=2815002965-00&ServiceCd=140&Type=search", "url2": "https://www.mahoshi.com" }, "geometry": { "type": "Point", "coordinates": [ 135.191570899999988, 34.7584211 ] } },
{ "type": "Feature", "properties": { "内容": "医療法人社団　吉野医院【訪問リハビリテーション】鈴蘭台東町1丁目9-1", "url": "https://www.kaigokensaku.mhlw.go.jp/28/index.php?action_kouhyou_detail_004_kani=true&JigyosyoCd=2815003278-00&ServiceCd=140&Type=search", "url2": "https://yoshinoiin.com/" }, "geometry": { "type": "Point", "coordinates": [ 135.146717299999978, 34.7226315 ] } },
{ "type": "Feature", "properties": { "内容": "恒生かのこ病院【訪問リハビリテーション】神戸市北区鹿の子台北町8-11-1", "url": "https://www.kaigokensaku.mhlw.go.jp/28/index.php?action_kouhyou_detail_004_kani=true&JigyosyoCd=2815003724-00&ServiceCd=140&Type=search", "url2": "http://kanoko-hp.jp/index.html" }, "geometry": { "type": "Point", "coordinates": [ 135.2189405, 34.8570738 ] } },
{ "type": "Feature", "properties": { "内容": "青い空の郷指定(介護予防)訪問リハビリテーション【訪問リハビリテーション】長尾町上津4663番地の3", "url": "https://www.kaigokensaku.mhlw.go.jp/28/index.php?action_kouhyou_detail_004_kani=true&JigyosyoCd=2855080020-00&ServiceCd=140&Type=search", "url2": "support@aoisoranosato.kita.kobe.jp" }, "geometry": { "type": "Point", "coordinates": [ 135.1659914, 34.8888861 ] } },
{ "type": "Feature", "properties": { "内容": "介護老人保健施設シルバーステイあじさい【訪問リハビリテーション】神戸市北区緑町8丁目12番地1号介護老人保健施設シルバーステイあじさい", "url": "https://www.kaigokensaku.mhlw.go.jp/28/index.php?action_kouhyou_detail_004_kani=true&JigyosyoCd=2855080061-00&ServiceCd=140&Type=search", "url2": "http：//www.hokuto-hp.or.jp" }, "geometry": { "type": "Point", "coordinates": [ 135.155289945998021, 34.751453189460754 ] } },
{ "type": "Feature", "properties": { "内容": "介護老人保健施設　リハ・神戸【訪問リハビリテーション】神戸市北区しあわせの村1-19", "url": "https://www.kaigokensaku.mhlw.go.jp/28/index.php?action_kouhyou_detail_004_kani=true&JigyosyoCd=2855080079-00&ServiceCd=140&Type=search", "url2": "http://www.kzc.jp/rehakobe" }, "geometry": { "type": "Point", "coordinates": [ 135.114969, 34.7054023 ] } },
{ "type": "Feature", "properties": { "内容": "介護老人保健施設うらら【訪問リハビリテーション】兵庫県神戸市北区淡河町淡河５７４", "url": "https://www.kaigokensaku.mhlw.go.jp/28/index.php?action_kouhyou_detail_004_kani=true&JigyosyoCd=2855080095-00&ServiceCd=140&Type=search", "url2": "http://www.roken-urara.jp" }, "geometry": { "type": "Point", "coordinates": [ 135.100097900000037, 34.8124594 ] } },
{ "type": "Feature", "properties": { "内容": "介護老人保健施設　あすなろ旭【訪問リハビリテーション】神戸市北区西大池1丁目31番28号", "url": "https://www.kaigokensaku.mhlw.go.jp/28/index.php?action_kouhyou_detail_004_kani=true&JigyosyoCd=2855080103-00&ServiceCd=140&Type=search", "url2": "http://www.asunaro-asahi.com/" }, "geometry": { "type": "Point", "coordinates": [ 135.1981103, 34.7785219 ] } },
{ "type": "Feature", "properties": { "内容": "しんじょう医院【訪問リハビリテーション】兵庫県神戸市北区北五葉1-5-1-307", "url": "https://www.kaigokensaku.mhlw.go.jp/28/index.php?action_kouhyou_detail_004_kani=true&JigyosyoCd=2815003260-00&ServiceCd=140&Type=search", "url2": "http://www.shinjo-clinic.com" }, "geometry": { "type": "Point", "coordinates": [ 135.1337182, 34.7272034 ] } },
{ "type": "Feature", "properties": { "内容": "医療法人社団澪標会　もえぎクリニック【訪問リハビリテーション】有野中町1丁目10番18号PAL　DEUX305号室", "url": "https://www.kaigokensaku.mhlw.go.jp/28/index.php?action_kouhyou_detail_004_kani=true&JigyosyoCd=2815003872-00&ServiceCd=140&Type=search", "url2": null }, "geometry": { "type": "Point", "coordinates": [ 135.2235891, 34.8212302 ] } },
{ "type": "Feature", "properties": { "内容": "松本ﾎｰﾑﾒﾃﾞｨｶﾙｸﾘﾆｯｸ【訪問リハビリテーション】兵庫県神戸市北区唐櫃50-1", "url": "https://www.kaigokensaku.mhlw.go.jp/28/index.php?action_kouhyou_detail_004_kani=true&JigyosyoCd=2815003054-00&ServiceCd=140&Type=search", "url2": "https://www.ikeikai.or.jp/matsumoto_hmc/" }, "geometry": { "type": "Point", "coordinates": [ 135.221836, 34.7984817 ] } },
{ "type": "Feature", "properties": { "内容": "医療法人社団一秀会春日病院【訪問リハビリテーション】兵庫県神戸市北区大脇台3-1", "url": "https://www.kaigokensaku.mhlw.go.jp/28/index.php?action_kouhyou_detail_004_kani=true&JigyosyoCd=2815003559-00&ServiceCd=140&Type=search", "url2": "https://www.kasuga.gr.jp" }, "geometry": { "type": "Point", "coordinates": [ 135.1608953, 34.7375211 ] } },
{ "type": "Feature", "properties": { "内容": "介護老人保健施設カトレア六甲【訪問リハビリテーション】兵庫県神戸市北区唐櫃台4丁目39-1", "url": "https://www.kaigokensaku.mhlw.go.jp/28/index.php?action_kouhyou_detail_004_kani=true&JigyosyoCd=2855080129-00&ServiceCd=140&Type=search", "url2": "http://www.imwg.or.jp/" }, "geometry": { "type": "Point", "coordinates": [ 135.210523, 34.7868206 ] } },
{ "type": "Feature", "properties": { "内容": "医療法人社団　三聖会　三聖病院【訪問リハビリテーション】兵庫県神戸市中央区琴ノ緒町４丁目２番５号", "url": "https://www.kaigokensaku.mhlw.go.jp/28/index.php?action_kouhyou_detail_004_kani=true&JigyosyoCd=2815105198-00&ServiceCd=140&Type=search", "url2": "http://www.sanseihospital.com/" }, "geometry": { "type": "Point", "coordinates": [ 135.195767240475476, 34.69628495261454 ] } },
{ "type": "Feature", "properties": { "内容": "神戸マリナーズ厚生会病院【訪問リハビリテーション】兵庫県神戸市中央区中山手通7-3-18", "url": "https://www.kaigokensaku.mhlw.go.jp/28/index.php?action_kouhyou_detail_004_kani=true&JigyosyoCd=2815107251-00&ServiceCd=140&Type=search", "url2": "http://www.kobe-mariners.or.jp" }, "geometry": { "type": "Point", "coordinates": [ 135.177659899999981, 34.6900522 ] } },
{ "type": "Feature", "properties": { "内容": "一般財団法人神戸マリナーズ厚生会　ポートアイランド病院【訪問リハビリテーション】兵庫県神戸市中央区港島中町4-6", "url": "https://www.kaigokensaku.mhlw.go.jp/28/index.php?action_kouhyou_detail_004_kani=true&JigyosyoCd=2815107517-00&ServiceCd=140&Type=search", "url2": "http://www.pi.kobe-mariners.or.jp/" }, "geometry": { "type": "Point", "coordinates": [ 135.209071969311481, 34.668682327914325 ] } },
{ "type": "Feature", "properties": { "内容": "神戸平成病院【訪問リハビリテーション】兵庫県神戸市中央区上筒井通6-2-43", "url": "https://www.kaigokensaku.mhlw.go.jp/28/index.php?action_kouhyou_detail_004_kani=true&JigyosyoCd=2815108044-00&ServiceCd=140&Type=search", "url2": "www.kobehp.jp" }, "geometry": { "type": "Point", "coordinates": [ 135.206546, 34.7077408 ] } },
{ "type": "Feature", "properties": { "内容": "しおかぜメモリークリニック【訪問リハビリテーション】多聞通２丁目１番９号", "url": "https://www.kaigokensaku.mhlw.go.jp/28/index.php?action_kouhyou_detail_004_kani=true&JigyosyoCd=2815109117-00&ServiceCd=140&Type=search", "url2": "https://shiokaze-mc.jp" }, "geometry": { "type": "Point", "coordinates": [ 135.1773868, 34.6815161 ] } },
{ "type": "Feature", "properties": { "内容": "介護老人保健施設　プリエール【訪問リハビリテーション】神戸市中央区籠池通5丁目1-2", "url": "https://www.kaigokensaku.mhlw.go.jp/28/index.php?action_kouhyou_detail_004_kani=true&JigyosyoCd=2855180069-00&ServiceCd=140&Type=search", "url2": "https://priere.ojikai.or.jp" }, "geometry": { "type": "Point", "coordinates": [ 135.206257, 34.7099977 ] } },
{ "type": "Feature", "properties": { "内容": "介護老人保健施設サニーピア【訪問リハビリテーション】波止場町3番12号", "url": "https://www.kaigokensaku.mhlw.go.jp/28/index.php?action_kouhyou_detail_004_kani=true&JigyosyoCd=2855180010-00&ServiceCd=140&Type=search", "url2": "http://www.sunny-pier.or.jp/" }, "geometry": { "type": "Point", "coordinates": [ 135.188894800000014, 34.6850138 ] } },
{ "type": "Feature", "properties": { "内容": "春日野会病院【訪問リハビリテーション】兵庫県神戸市中央区野崎通4丁目1-2", "url": "https://www.kaigokensaku.mhlw.go.jp/28/index.php?action_kouhyou_detail_004_kani=true&JigyosyoCd=2815100702-00&ServiceCd=140&Type=search", "url2": "https://kasuganokai.com/" }, "geometry": { "type": "Point", "coordinates": [ 135.206299206745939, 34.708749140856888 ] } },
{ "type": "Feature", "properties": { "内容": "やまだ整形外科クリニック【訪問リハビリテーション】兵庫県神戸市中央区割塚通7－2－1コンフォート春日野2階", "url": "https://www.kaigokensaku.mhlw.go.jp/28/index.php?action_kouhyou_detail_004_kani=true&JigyosyoCd=2815108069-00&ServiceCd=140&Type=search", "url2": "https://yamada-ortho.chanyama.com/" }, "geometry": { "type": "Point", "coordinates": [ 135.2071544, 34.7042988 ] } },
{ "type": "Feature", "properties": { "内容": "武富整形外科【訪問リハビリテーション】神戸市中央区中山手通１丁目24-4ドラゴンビル4階", "url": "https://www.kaigokensaku.mhlw.go.jp/28/index.php?action_kouhyou_detail_004_kani=true&JigyosyoCd=2815109505-00&ServiceCd=140&Type=search", "url2": "https://www.taketomi-seikei.com/" }, "geometry": { "type": "Point", "coordinates": [ 135.1916845, 34.6970479 ] } },
{ "type": "Feature", "properties": { "内容": "介護老人保健施設　いつでも夢を【訪問リハビリテーション】兵庫県神戸市中央区下山手通７丁目１７－１", "url": "https://www.kaigokensaku.mhlw.go.jp/28/index.php?action_kouhyou_detail_004_kani=true&JigyosyoCd=2855180051-00&ServiceCd=140&Type=search", "url2": "http://www.itsuyume.jp/" }, "geometry": { "type": "Point", "coordinates": [ 135.176312899999971, 34.6873025 ] } },
{ "type": "Feature", "properties": { "内容": "橋本整形外科リウマチクリニック【訪問リハビリテーション】兵庫県神戸市西区小山3-7-3山幸ビル２F", "url": "https://www.kaigokensaku.mhlw.go.jp/28/index.php?action_kouhyou_detail_004_kani=true&JigyosyoCd=2815202029-00&ServiceCd=140&Type=search", "url2": null }, "geometry": { "type": "Point", "coordinates": [ 134.9829985, 34.6822654 ] } },
{ "type": "Feature", "properties": { "内容": "医療法人博愛会広野高原病院【訪問リハビリテーション】兵庫県神戸市西区北山台３丁目１番１号", "url": "https://www.kaigokensaku.mhlw.go.jp/28/index.php?action_kouhyou_detail_004_kani=true&JigyosyoCd=2815200049-00&ServiceCd=140&Type=search", "url2": "http://hironokougen.jp/" }, "geometry": { "type": "Point", "coordinates": [ 135.036259299999983, 34.7647279 ] } },
{ "type": "Feature", "properties": { "内容": "由井クリニック【訪問リハビリテーション】兵庫県神戸市西区糀台5丁目10番地の2西神センタービル3階", "url": "https://www.kaigokensaku.mhlw.go.jp/28/index.php?action_kouhyou_detail_004_kani=true&JigyosyoCd=2815202391-00&ServiceCd=140&Type=search", "url2": "http://www.yuiclinic.jp/" }, "geometry": { "type": "Point", "coordinates": [ 135.0166561, 34.719929 ] } },
{ "type": "Feature", "properties": { "内容": "偕生病院【訪問リハビリテーション】兵庫県神戸市西区持子3丁目2－2", "url": "https://www.kaigokensaku.mhlw.go.jp/28/index.php?action_kouhyou_detail_004_kani=true&JigyosyoCd=2815202631-00&ServiceCd=140&Type=search", "url2": "http://www.kaiseibyoin.com/" }, "geometry": { "type": "Point", "coordinates": [ 134.981952, 34.6736458 ] } },
{ "type": "Feature", "properties": { "内容": "医療法人社団　石原内科・リハビリテーション科【訪問リハビリテーション】神戸市西区白水3丁目１−６", "url": "https://www.kaigokensaku.mhlw.go.jp/28/index.php?action_kouhyou_detail_004_kani=true&JigyosyoCd=2815203282-00&ServiceCd=140&Type=search", "url2": "http://doctor-shihara.com" }, "geometry": { "type": "Point", "coordinates": [ 135.004708599999958, 34.6683713 ] } },
{ "type": "Feature", "properties": { "内容": "岩岡の郷在宅支援診療所（訪問リハビリ）【訪問リハビリテーション】兵庫県神戸市西区岩岡町岩岡656-2", "url": "https://www.kaigokensaku.mhlw.go.jp/28/index.php?action_kouhyou_detail_004_kani=true&JigyosyoCd=2815203753-00&ServiceCd=140&Type=search", "url2": "https://www.chikusakai.jp/" }, "geometry": { "type": "Point", "coordinates": [ 134.9465519, 34.7171792 ] } },
{ "type": "Feature", "properties": { "内容": "あつい整形外科・リウマチ科【訪問リハビリテーション】兵庫県神戸市西区押部谷町栄328", "url": "https://www.kaigokensaku.mhlw.go.jp/28/index.php?action_kouhyou_detail_004_kani=true&JigyosyoCd=2815202599-00&ServiceCd=140&Type=search", "url2": null }, "geometry": { "type": "Point", "coordinates": [ 135.058605, 34.7543154 ] } },
{ "type": "Feature", "properties": { "内容": "医療法人社団菫会　伊川谷病院【訪問リハビリテーション】池上2丁目4番地の2", "url": "https://www.kaigokensaku.mhlw.go.jp/28/index.php?action_kouhyou_detail_004_kani=true&JigyosyoCd=2815203050-00&ServiceCd=140&Type=search", "url2": "https://ikawadani.jp/" }, "geometry": { "type": "Point", "coordinates": [ 139.7020192, 35.5808268 ] } },
{ "type": "Feature", "properties": { "内容": "老人保健施設ひらの【訪問リハビリテーション】兵庫県神戸市西区平野町大畑6-1", "url": "https://www.kaigokensaku.mhlw.go.jp/28/index.php?action_kouhyou_detail_004_kani=true&JigyosyoCd=2855280059-00&ServiceCd=140&Type=search", "url2": "http://www.seijinkai.or.jp/hirano/" }, "geometry": { "type": "Point", "coordinates": [ 134.994191799999953, 34.715694 ] } },
{ "type": "Feature", "properties": { "内容": "医療法人社団　さいとう整形外科【訪問リハビリテーション】兵庫県神戸市西区桜が丘中町４丁目ー９−７", "url": "https://www.kaigokensaku.mhlw.go.jp/28/index.php?action_kouhyou_detail_004_kani=true&JigyosyoCd=2815203746-00&ServiceCd=140&Type=search", "url2": null }, "geometry": { "type": "Point", "coordinates": [ 135.0613482, 34.7432471 ] } },
{ "type": "Feature", "properties": { "内容": "あらき整形外科デイケア【訪問リハビリテーション】神戸市西区王塚台7丁目33番", "url": "https://www.kaigokensaku.mhlw.go.jp/28/index.php?action_kouhyou_detail_004_kani=true&JigyosyoCd=2815203431-00&ServiceCd=140&Type=search", "url2": "https://araki-seikei.com" }, "geometry": { "type": "Point", "coordinates": [ 134.979822603826364, 34.673064982299849 ] } },
{ "type": "Feature", "properties": { "内容": "医療法人社団　中神クリニック【訪問リハビリテーション】神戸市西区狩場台3-9-8", "url": "https://www.kaigokensaku.mhlw.go.jp/28/index.php?action_kouhyou_detail_004_kani=true&JigyosyoCd=2815203241-00&ServiceCd=140&Type=search", "url2": "https://www.nakagamicl.com/" }, "geometry": { "type": "Point", "coordinates": [ 135.033108239286776, 34.720797710603087 ] } },
{ "type": "Feature", "properties": { "内容": "はるな整形外科内科【訪問リハビリテーション】兵庫県姫路市飾東町庄125番地1", "url": "https://www.kaigokensaku.mhlw.go.jp/28/index.php?action_kouhyou_detail_004_kani=true&JigyosyoCd=2814021792-00&ServiceCd=140&Type=search", "url2": "https://www.haruna-grp.com" }, "geometry": { "type": "Point", "coordinates": [ 134.73099430000002, 34.8396474 ] } },
{ "type": "Feature", "properties": { "内容": "姫路地蔵温泉　みやもと診療所【訪問リハビリテーション】兵庫県姫路市豊富町神谷3041-2", "url": "https://www.kaigokensaku.mhlw.go.jp/28/index.php?action_kouhyou_detail_004_kani=true&JigyosyoCd=2814007809-00&ServiceCd=140&Type=search", "url2": null }, "geometry": { "type": "Point", "coordinates": [ 134.782642613105736, 34.876620950556664 ] } },
{ "type": "Feature", "properties": { "内容": "医療法人　松浦会　光が丘老人保健施設【訪問リハビリテーション】兵庫県姫路市御国野町国分寺267", "url": "https://www.kaigokensaku.mhlw.go.jp/28/index.php?action_kouhyou_detail_004_kani=true&JigyosyoCd=2854080013-00&ServiceCd=140&Type=search", "url2": "http://www.hikari-gaoka.jp" }, "geometry": { "type": "Point", "coordinates": [ 134.732309, 34.8249584 ] } },
{ "type": "Feature", "properties": { "内容": "社会医療法人恵風会老人保健施設老人ケアセンター緑ヶ丘【訪問リハビリテーション】兵庫県姫路市西今宿５丁目３番８号", "url": "https://www.kaigokensaku.mhlw.go.jp/28/index.php?action_kouhyou_detail_004_kani=true&JigyosyoCd=2854080039-00&ServiceCd=140&Type=search", "url2": "http://www.keifukai.or.jp" }, "geometry": { "type": "Point", "coordinates": [ 134.6612561, 34.8453456 ] } },
{ "type": "Feature", "properties": { "内容": "入江病院　訪問リハビリテーション【訪問リハビリテーション】姫路市飾磨区英賀春日町2-25", "url": "https://www.kaigokensaku.mhlw.go.jp/28/index.php?action_kouhyou_detail_004_kani=true&JigyosyoCd=2814005563-00&ServiceCd=140&Type=search", "url2": "http://www.irie.or.jp" }, "geometry": { "type": "Point", "coordinates": [ 134.642940100000033, 34.8103548 ] } },
{ "type": "Feature", "properties": { "内容": "花北整形外科クリニック【訪問リハビリテーション】兵庫県姫路市増位新町1丁目24番地ミラキタシティ花北105", "url": "https://www.kaigokensaku.mhlw.go.jp/28/index.php?action_kouhyou_detail_004_kani=true&JigyosyoCd=2814021925-00&ServiceCd=140&Type=search", "url2": "https;//www.hanakita-seikei.com" }, "geometry": { "type": "Point", "coordinates": [ 134.7078728, 34.8564341 ] } },
{ "type": "Feature", "properties": { "内容": "ヘルスコープあぼし診療所　訪問リハビリテーション【訪問リハビリテーション】兵庫県姫路市網干区和久2-2", "url": "https://www.kaigokensaku.mhlw.go.jp/28/index.php?action_kouhyou_detail_004_kani=true&JigyosyoCd=2814008468-00&ServiceCd=140&Type=search", "url2": "ｈｔｔｐ：//himeji-mcoop.or.jp" }, "geometry": { "type": "Point", "coordinates": [ 134.584740799999963, 34.808972 ] } },
{ "type": "Feature", "properties": { "内容": "中谷病院【訪問リハビリテーション】兵庫県姫路市飾磨区細江2501", "url": "https://www.kaigokensaku.mhlw.go.jp/28/index.php?action_kouhyou_detail_004_kani=true&JigyosyoCd=2814009615-00&ServiceCd=140&Type=search", "url2": "http://www.kenyu-kai.com/" }, "geometry": { "type": "Point", "coordinates": [ 134.670449, 34.799998 ] } },
{ "type": "Feature", "properties": { "内容": "姫路医療生活協同組合共立病院【訪問リハビリテーション】兵庫県姫路市市川台3丁目12番地", "url": "https://www.kaigokensaku.mhlw.go.jp/28/index.php?action_kouhyou_detail_004_kani=true&JigyosyoCd=2814005795-00&ServiceCd=140&Type=search", "url2": "http://himeji-mcoop.or.jp/" }, "geometry": { "type": "Point", "coordinates": [ 134.7159792, 34.8345752 ] } },
{ "type": "Feature", "properties": { "内容": "介護老人保健施設マリア・ヴィラ【訪問リハビリテーション】兵庫県姫路市仁豊野650番地", "url": "https://www.kaigokensaku.mhlw.go.jp/28/index.php?action_kouhyou_detail_004_kani=true&JigyosyoCd=2854080047-00&ServiceCd=140&Type=search", "url2": "http://www.himemaria.or.jp" }, "geometry": { "type": "Point", "coordinates": [ 134.732268, 34.8777008 ] } },
{ "type": "Feature", "properties": { "内容": "医療法人社団　綱島会　厚生病院【訪問リハビリテーション】兵庫県姫路市御立西4丁目1番25号", "url": "https://www.kaigokensaku.mhlw.go.jp/28/index.php?action_kouhyou_detail_004_kani=true&JigyosyoCd=2814008187-00&ServiceCd=140&Type=search", "url2": "http://www.kousei-hp.jp/" }, "geometry": { "type": "Point", "coordinates": [ 134.660053699999906, 34.8616574 ] } },
{ "type": "Feature", "properties": { "内容": "特定医療法人　光寿会　城陽江尻病院　訪問リハビリテーション【訪問リハビリテーション】兵庫県姫路市北条1丁目275番地2階", "url": "https://www.kaigokensaku.mhlw.go.jp/28/index.php?action_kouhyou_detail_004_kani=true&JigyosyoCd=2814005241-00&ServiceCd=140&Type=search", "url2": null }, "geometry": { "type": "Point", "coordinates": [ 134.6936888, 34.8215194 ] } },
{ "type": "Feature", "properties": { "内容": "石橋内科広畑センチュリー病院【訪問リハビリテーション】姫路市広畑区正門通4-2-1", "url": "https://www.kaigokensaku.mhlw.go.jp/28/index.php?action_kouhyou_detail_004_kani=true&JigyosyoCd=2814008740-00&ServiceCd=140&Type=search", "url2": "http://www.1484naika.jp/" }, "geometry": { "type": "Point", "coordinates": [ 134.6293091, 34.7975806 ] } },
{ "type": "Feature", "properties": { "内容": "医療法人　岡田病院【訪問リハビリテーション】兵庫県尼崎市西難波町4丁目5番18号", "url": "https://www.kaigokensaku.mhlw.go.jp/28/index.php?action_kouhyou_detail_004_kani=true&JigyosyoCd=2813002702-00&ServiceCd=140&Type=search", "url2": "http://www.okadahospital.com/" }, "geometry": { "type": "Point", "coordinates": [ 135.407373099999973, 34.7237904 ] } },
{ "type": "Feature", "properties": { "内容": "医療法人朗源会　おおくま病院【訪問リハビリテーション】兵庫県尼崎市昭和通2丁目12番8号", "url": "https://www.kaigokensaku.mhlw.go.jp/28/index.php?action_kouhyou_detail_004_kani=true&JigyosyoCd=2813008857-00&ServiceCd=140&Type=search", "url2": "https://ookuma-hp.jp/" }, "geometry": { "type": "Point", "coordinates": [ 135.423127899134329, 34.719975356966735 ] } },
{ "type": "Feature", "properties": { "内容": "田島診療所【訪問リハビリテーション】尼崎市西立花町２丁目１４－８", "url": "https://www.kaigokensaku.mhlw.go.jp/28/index.php?action_kouhyou_detail_004_kani=true&JigyosyoCd=2813022775-00&ServiceCd=140&Type=search", "url2": "http://himawari.coop/himawari/" }, "geometry": { "type": "Point", "coordinates": [ 135.395840799999974, 34.735813899999989 ] } },
{ "type": "Feature", "properties": { "内容": "医療法人社団　西日本平郁会　三和クリニック【訪問リハビリテーション】尼崎市昭和通７丁目２４２番地", "url": "https://www.kaigokensaku.mhlw.go.jp/28/index.php?action_kouhyou_detail_004_kani=true&JigyosyoCd=2813023138-00&ServiceCd=140&Type=search", "url2": "https://sanwaclinic.com/" }, "geometry": { "type": "Point", "coordinates": [ 135.408275799999956, 34.7227488 ] } },
{ "type": "Feature", "properties": { "内容": "医療法人社団亀井整形外科医院【訪問リハビリテーション】尼崎市塚口町6丁目43-1", "url": "https://www.kaigokensaku.mhlw.go.jp/28/index.php?action_kouhyou_detail_004_kani=true&JigyosyoCd=2813024102-00&ServiceCd=140&Type=search", "url2": "http://www.kamei-seikei.com/" }, "geometry": { "type": "Point", "coordinates": [ 135.407727600000044, 34.7599756 ] } },
{ "type": "Feature", "properties": { "内容": "園田病院【訪問リハビリテーション】兵庫県尼崎市東園田町2丁目48-7", "url": "https://www.kaigokensaku.mhlw.go.jp/28/index.php?action_kouhyou_detail_004_kani=true&JigyosyoCd=2813003106-00&ServiceCd=140&Type=search", "url2": "https://www.sonodamedic.or.jp/medic/" }, "geometry": { "type": "Point", "coordinates": [ 135.448445600000014, 34.757898 ] } },
{ "type": "Feature", "properties": { "内容": "医療法人社団深江医院【訪問リハビリテーション】七松町１－１０－２０", "url": "https://www.kaigokensaku.mhlw.go.jp/28/index.php?action_kouhyou_detail_004_kani=true&JigyosyoCd=2813009137-00&ServiceCd=140&Type=search", "url2": "www.fukae-clinic.com" }, "geometry": { "type": "Point", "coordinates": [ 135.398443300000054, 34.7355863 ] } },
{ "type": "Feature", "properties": { "内容": "畠中整形外科・リハビリテーション科【訪問リハビリテーション】兵庫県尼崎市大庄西町１丁目１０番１５号", "url": "https://www.kaigokensaku.mhlw.go.jp/28/index.php?action_kouhyou_detail_004_kani=true&JigyosyoCd=2813024854-00&ServiceCd=140&Type=search", "url2": "kiseikai.flips.jp" }, "geometry": { "type": "Point", "coordinates": [ 135.3880117, 34.7181986 ] } },
{ "type": "Feature", "properties": { "内容": "さわだ整形外科　訪問リハビリテーション【訪問リハビリテーション】塚口町1丁目12-8青山塚口ビル2階", "url": "https://www.kaigokensaku.mhlw.go.jp/28/index.php?action_kouhyou_detail_004_kani=true&JigyosyoCd=2813025265-00&ServiceCd=140&Type=search", "url2": "https://sawadaseikei-reha.jp/" }, "geometry": { "type": "Point", "coordinates": [ 135.414727, 34.751367 ] } },
{ "type": "Feature", "properties": { "内容": "医療法人社団さくらいクリニック【訪問リハビリテーション】兵庫県尼崎市武庫元町１丁目２５−１４", "url": "https://www.kaigokensaku.mhlw.go.jp/28/index.php?action_kouhyou_detail_004_kani=true&JigyosyoCd=2813025448-00&ServiceCd=140&Type=search", "url2": "http://www.reference.jp/sakurai" }, "geometry": { "type": "Point", "coordinates": [ 135.382486, 34.7577589 ] } },
{ "type": "Feature", "properties": { "内容": "西川整形外科リハビリクリニック【訪問リハビリテーション】兵庫県尼崎市武庫之荘本町1丁目1-4", "url": "https://www.kaigokensaku.mhlw.go.jp/28/index.php?action_kouhyou_detail_004_kani=true&JigyosyoCd=2813026347-00&ServiceCd=140&Type=search", "url2": "http://www.nishikawa-seikei.com" }, "geometry": { "type": "Point", "coordinates": [ 135.394296, 34.756634100000021 ] } },
{ "type": "Feature", "properties": { "内容": "かいと整形外科リハビリクリニック【訪問リハビリテーション】兵庫県尼崎市長洲西通1丁目4番15号", "url": "https://www.kaigokensaku.mhlw.go.jp/28/index.php?action_kouhyou_detail_004_kani=true&JigyosyoCd=2813027741-00&ServiceCd=140&Type=search", "url2": "https://kaitocl.com" }, "geometry": { "type": "Point", "coordinates": [ 135.429566599999987, 34.7306841 ] } },
{ "type": "Feature", "properties": { "内容": "医療法人社団はらクリニック【訪問リハビリテーション】南竹谷町2-37サンライフ若草1階", "url": "https://www.kaigokensaku.mhlw.go.jp/28/index.php?action_kouhyou_detail_004_kani=true&JigyosyoCd=2813028012-00&ServiceCd=140&Type=search", "url2": "https://hara-med.com/" }, "geometry": { "type": "Point", "coordinates": [ 135.4041813, 34.7175614 ] } },
{ "type": "Feature", "properties": { "内容": "尼崎医療生協介護老人保健施設ひだまりの里【訪問リハビリテーション】兵庫県尼崎市南武庫之荘11-12-1あおぞら会館２階", "url": "https://www.kaigokensaku.mhlw.go.jp/28/index.php?action_kouhyou_detail_004_kani=true&JigyosyoCd=2853080139-00&ServiceCd=140&Type=search", "url2": "http://www.amagasaki.coop/jigyousyo/hidamari/" }, "geometry": { "type": "Point", "coordinates": [ 135.385977899999943, 34.739832799999981 ] } },
{ "type": "Feature", "properties": { "内容": "桂クリニック【訪問リハビリテーション】兵庫県尼崎市西難波町5-6-22", "url": "https://www.kaigokensaku.mhlw.go.jp/28/index.php?action_kouhyou_detail_004_kani=true&JigyosyoCd=2813022155-00&ServiceCd=140&Type=search", "url2": "http://www.seisyu-kai.com/clinic.html#tabs-1" }, "geometry": { "type": "Point", "coordinates": [ 135.406289900000047, 34.7266345 ] } },
{ "type": "Feature", "properties": { "内容": "尼崎医療生活協同組合　潮江診療所【訪問リハビリテーション】兵庫県尼崎市下坂部1-7-7", "url": "https://www.kaigokensaku.mhlw.go.jp/28/index.php?action_kouhyou_detail_004_kani=true&JigyosyoCd=2813022387-00&ServiceCd=140&Type=search", "url2": "http://www.shioe-coop.jp" }, "geometry": { "type": "Point", "coordinates": [ 135.4347096, 34.7413103 ] } },
{ "type": "Feature", "properties": { "内容": "医療法人祥風会　立花みどりクリニック【訪問リハビリテーション】兵庫県尼崎市西立花町2-3-1", "url": "https://www.kaigokensaku.mhlw.go.jp/28/index.php?action_kouhyou_detail_004_kani=true&JigyosyoCd=2813023401-00&ServiceCd=140&Type=search", "url2": "http://www.syofukai.com/" }, "geometry": { "type": "Point", "coordinates": [ 135.398057200000039, 34.7362473 ] } },
{ "type": "Feature", "properties": { "内容": "市民健康開発センターハーティ２１【訪問リハビリテーション】尼崎市南塚口町四丁目４番８号市民健康開発センターハーティ２１", "url": "https://www.kaigokensaku.mhlw.go.jp/28/index.php?action_kouhyou_detail_004_kani=true&JigyosyoCd=2813025281-00&ServiceCd=140&Type=search", "url2": "https://hccweb1.bai.ne.jp/hearty21/hearty/riha/index.html" }, "geometry": { "type": "Point", "coordinates": [ 135.41928645277855, 34.74627919647871 ] } },
{ "type": "Feature", "properties": { "内容": "小中島診療所　訪問リハビリテーション【訪問リハビリテーション】兵庫県尼崎市小中島2-8-8", "url": "https://www.kaigokensaku.mhlw.go.jp/28/index.php?action_kouhyou_detail_004_kani=true&JigyosyoCd=2813025471-00&ServiceCd=140&Type=search", "url2": null }, "geometry": { "type": "Point", "coordinates": [ 135.44318789999997, 34.7471366 ] } },
{ "type": "Feature", "properties": { "内容": "はくほう会セントラル病院【訪問リハビリテーション】兵庫県尼崎市東園田町4丁目23番1号", "url": "https://www.kaigokensaku.mhlw.go.jp/28/index.php?action_kouhyou_detail_004_kani=true&JigyosyoCd=2813026263-00&ServiceCd=140&Type=search", "url2": "http://www.amahakuho.jp/" }, "geometry": { "type": "Point", "coordinates": [ 135.447313300000019, 34.756173900000014 ] } },
{ "type": "Feature", "properties": { "内容": "介護老人保健施設ローランド（訪問リハビリテーション）【訪問リハビリテーション】兵庫県尼崎市潮江2丁目1番10号", "url": "https://www.kaigokensaku.mhlw.go.jp/28/index.php?action_kouhyou_detail_004_kani=true&JigyosyoCd=2853080030-00&ServiceCd=140&Type=search", "url2": "http://www.chuoukai.or.jp/roland/" }, "geometry": { "type": "Point", "coordinates": [ 135.42934, 34.736823 ] } },
{ "type": "Feature", "properties": { "内容": "社会医療法人中央会　介護老人保健施設なにわローランド【訪問リハビリテーション】兵庫県尼崎市東難波町1丁目3番10号", "url": "https://www.kaigokensaku.mhlw.go.jp/28/index.php?action_kouhyou_detail_004_kani=true&JigyosyoCd=2853080097-00&ServiceCd=140&Type=search", "url2": "http://www.chuoukai.or.jp/" }, "geometry": { "type": "Point", "coordinates": [ 135.4139332, 34.7322538 ] } },
{ "type": "Feature", "properties": { "内容": "フローリス介護老人保健施設【訪問リハビリテーション】兵庫県尼崎市西難波町6丁目11番6号", "url": "https://www.kaigokensaku.mhlw.go.jp/28/index.php?action_kouhyou_detail_004_kani=true&JigyosyoCd=2853080121-00&ServiceCd=140&Type=search", "url2": "http://www.floris-care.jp" }, "geometry": { "type": "Point", "coordinates": [ 135.407920099999956, 34.7297149 ] } },
{ "type": "Feature", "properties": { "内容": "西武庫病院【訪問リハビリテーション】兵庫県尼崎市武庫元町２丁目4番13号", "url": "https://www.kaigokensaku.mhlw.go.jp/28/index.php?action_kouhyou_detail_004_kani=true&JigyosyoCd=2813005143-00&ServiceCd=140&Type=search", "url2": "http://www.nishimuko-hp.com/" }, "geometry": { "type": "Point", "coordinates": [ 135.3795144, 34.7559065 ] } },
{ "type": "Feature", "properties": { "内容": "阪神医生協診療所【訪問リハビリテーション】長洲本通1-16-17", "url": "https://www.kaigokensaku.mhlw.go.jp/28/index.php?action_kouhyou_detail_004_kani=true&JigyosyoCd=2813008287-00&ServiceCd=140&Type=search", "url2": "http://www.hansinseikyo.or.jp" }, "geometry": { "type": "Point", "coordinates": [ 135.429976300000021, 34.727635 ] } },
{ "type": "Feature", "properties": { "内容": "医療法人桜会ゆたかクリニック【訪問リハビリテーション】兵庫県尼崎市立花町1丁目5-15立花ホワイトビル", "url": "https://www.kaigokensaku.mhlw.go.jp/28/index.php?action_kouhyou_detail_004_kani=true&JigyosyoCd=2813026206-00&ServiceCd=140&Type=search", "url2": "https://yutaka-clinic.net/" }, "geometry": { "type": "Point", "coordinates": [ 135.399023700000043, 34.7392359 ] } },
{ "type": "Feature", "properties": { "内容": "社会医療法人愛仁会　尼崎だいもつ病院【訪問リハビリテーション】兵庫県尼崎市東大物町1丁目1-1", "url": "https://www.kaigokensaku.mhlw.go.jp/28/index.php?action_kouhyou_detail_004_kani=true&JigyosyoCd=2813026537-00&ServiceCd=140&Type=search", "url2": "https://amagasakidaimotsu.aijinkai.or.jp/" }, "geometry": { "type": "Point", "coordinates": [ 135.428076433868398, 34.717553359198689 ] } },
{ "type": "Feature", "properties": { "内容": "医療法人社団　兼誠会　つかぐち病院【訪問リハビリテーション】兵庫県尼崎市南塚口町6丁目8番地1号", "url": "https://www.kaigokensaku.mhlw.go.jp/28/index.php?action_kouhyou_detail_004_kani=true&JigyosyoCd=2813027071-00&ServiceCd=140&Type=search", "url2": "https://kensei-kai-tsukaguchi.jp/" }, "geometry": { "type": "Point", "coordinates": [ 135.415178642852794, 34.746715619249557 ] } },
{ "type": "Feature", "properties": { "内容": "整形外科ますはらクリニック【訪問リハビリテーション】兵庫県尼崎市神田中通5-195", "url": "https://www.kaigokensaku.mhlw.go.jp/28/index.php?action_kouhyou_detail_004_kani=true&JigyosyoCd=2813028111-00&ServiceCd=140&Type=search", "url2": "https://masuhara-cl.jp/" }, "geometry": { "type": "Point", "coordinates": [ 135.409340189549226, 34.721182351820715 ] } },
{ "type": "Feature", "properties": { "内容": "介護老人保健施設はくほう【訪問リハビリテーション】兵庫県尼崎市若王寺3丁目13番20号", "url": "https://www.kaigokensaku.mhlw.go.jp/28/index.php?action_kouhyou_detail_004_kani=true&JigyosyoCd=2853080162-00&ServiceCd=140&Type=search", "url2": "https://www.amahakuho.jp/roken/" }, "geometry": { "type": "Point", "coordinates": [ 135.441197499999987, 34.7465549 ] } },
{ "type": "Feature", "properties": { "内容": "医療法人大迎整形外科【訪問リハビリテーション】兵庫県明石市二見町東二見895-4", "url": "https://www.kaigokensaku.mhlw.go.jp/28/index.php?action_kouhyou_detail_004_kani=true&JigyosyoCd=2812007447-00&ServiceCd=140&Type=search", "url2": "www.omukai.net" }, "geometry": { "type": "Point", "coordinates": [ 134.8871031, 34.6999233 ] } },
{ "type": "Feature", "properties": { "内容": "阪田整形外科リハビリクリニック【訪問リハビリテーション】兵庫県明石市西新町１－２１－１３", "url": "https://www.kaigokensaku.mhlw.go.jp/28/index.php?action_kouhyou_detail_004_kani=true&JigyosyoCd=2812006084-00&ServiceCd=140&Type=search", "url2": "sakata_kengo@iris.eonet.ne.jp" }, "geometry": { "type": "Point", "coordinates": [ 134.9824097, 34.6525267 ] } },
{ "type": "Feature", "properties": { "内容": "恵泉クリニック【訪問リハビリテーション】明石市大久保町大窪3101-1", "url": "https://www.kaigokensaku.mhlw.go.jp/28/index.php?action_kouhyou_detail_004_kani=true&JigyosyoCd=2812005383-00&ServiceCd=140&Type=search", "url2": null }, "geometry": { "type": "Point", "coordinates": [ 134.947268200000053, 34.709825 ] } },
{ "type": "Feature", "properties": { "内容": "医療法人双葉会　江井島病院訪問リハビリテーション【訪問リハビリテーション】兵庫県明石市大久保町西島434番地の5医療法人双葉会　江井島病院", "url": "https://www.kaigokensaku.mhlw.go.jp/28/index.php?action_kouhyou_detail_004_kani=true&JigyosyoCd=2812007983-00&ServiceCd=140&Type=search", "url2": "eigashima@futabakai1983.or.jp" }, "geometry": { "type": "Point", "coordinates": [ 134.913129515344281, 34.68187267424144 ] } },
{ "type": "Feature", "properties": { "内容": "北　整形外科【訪問リハビリテーション】明石市朝霧南町1丁目165-5朝霧KMビル３F", "url": "https://www.kaigokensaku.mhlw.go.jp/28/index.php?action_kouhyou_detail_004_kani=true&JigyosyoCd=2812004808-00&ServiceCd=140&Type=search", "url2": "http://h27kitaseikei.bizmw.com/index.htm" }, "geometry": { "type": "Point", "coordinates": [ 135.017842259138433, 34.644740221091403 ] } },
{ "type": "Feature", "properties": { "内容": "医療法人若葉会　明石回生病院【訪問リハビリテーション】兵庫県明石市二見町東二見549-1", "url": "https://www.kaigokensaku.mhlw.go.jp/28/index.php?action_kouhyou_detail_004_kani=true&JigyosyoCd=2812003776-00&ServiceCd=140&Type=search", "url2": "http://akashikaisei.wakabakai-hp.com/" }, "geometry": { "type": "Point", "coordinates": [ 134.89164, 34.705694800000032 ] } },
{ "type": "Feature", "properties": { "内容": "しばはら整形外科スポーツ関節クリニック【訪問リハビリテーション】兵庫県明石市魚住町錦が丘４丁目5−1駅前NSビル２階", "url": "https://www.kaigokensaku.mhlw.go.jp/28/index.php?action_kouhyou_detail_004_kani=true&JigyosyoCd=2812007843-00&ServiceCd=140&Type=search", "url2": "https://shibahara-seikei.jp" }, "geometry": { "type": "Point", "coordinates": [ 134.906166500000012, 34.696872 ] } },
{ "type": "Feature", "properties": { "内容": "野木病院【訪問リハビリテーション】明石市魚住町長坂寺1003-1", "url": "https://www.kaigokensaku.mhlw.go.jp/28/index.php?action_kouhyou_detail_004_kani=true&JigyosyoCd=2812004709-00&ServiceCd=140&Type=search", "url2": "http://www.nogi-hospital.or.jp" }, "geometry": { "type": "Point", "coordinates": [ 134.913050109787036, 34.699640393177837 ] } },
{ "type": "Feature", "properties": { "内容": "介護老人保健施設ライフ明海【訪問リハビリテーション】藤江201", "url": "https://www.kaigokensaku.mhlw.go.jp/28/index.php?action_kouhyou_detail_004_kani=true&JigyosyoCd=2872005240-00&ServiceCd=140&Type=search", "url2": "http://www.meikai.or.jp" }, "geometry": { "type": "Point", "coordinates": [ 134.953893783467095, 34.656442290889323 ] } },
{ "type": "Feature", "properties": { "内容": "明石仁十病院【訪問リハビリテーション】兵庫県明石市魚住町清水１８７１－３", "url": "https://www.kaigokensaku.mhlw.go.jp/28/index.php?action_kouhyou_detail_004_kani=true&JigyosyoCd=2812001317-00&ServiceCd=140&Type=search", "url2": "https://ninjyu-hp.or.jp/" }, "geometry": { "type": "Point", "coordinates": [ 134.904319200000032, 34.7157022 ] } },
{ "type": "Feature", "properties": { "内容": "中山クリニック　訪問リハビリテーション【訪問リハビリテーション】明石市魚住町金ヶ崎370", "url": "https://www.kaigokensaku.mhlw.go.jp/28/index.php?action_kouhyou_detail_004_kani=true&JigyosyoCd=2812003677-00&ServiceCd=140&Type=search", "url2": "http://www.akashi-n-clinic.com/" }, "geometry": { "type": "Point", "coordinates": [ 134.925917737434361, 34.69096623509175 ] } },
{ "type": "Feature", "properties": { "内容": "医療法人社団仁恵会石井病院　訪問リハビリテーション【訪問リハビリテーション】兵庫県明石市天文町1丁目５－１１", "url": "https://www.kaigokensaku.mhlw.go.jp/28/index.php?action_kouhyou_detail_004_kani=true&JigyosyoCd=2812005953-00&ServiceCd=140&Type=search", "url2": "http://www.jinkeikai-group.or.jp/ishii/" }, "geometry": { "type": "Point", "coordinates": [ 134.999835424467506, 34.647207219146409 ] } },
{ "type": "Feature", "properties": { "内容": "やす整形外科クリニック【訪問リハビリテーション】兵庫県明石市和坂12-16カトレアビル", "url": "https://www.kaigokensaku.mhlw.go.jp/28/index.php?action_kouhyou_detail_004_kani=true&JigyosyoCd=2812007306-00&ServiceCd=140&Type=search", "url2": "https://yasu-clinic.com/" }, "geometry": { "type": "Point", "coordinates": [ 134.9626647, 34.6660518 ] } },
{ "type": "Feature", "properties": { "内容": "医療法人社団医仁会　ふくやま病院【訪問リハビリテーション】兵庫県明石市硯町２丁目５－５５", "url": "https://www.kaigokensaku.mhlw.go.jp/28/index.php?action_kouhyou_detail_004_kani=true&JigyosyoCd=2812007165-00&ServiceCd=140&Type=search", "url2": "http://www.fukuyama-hp.jp" }, "geometry": { "type": "Point", "coordinates": [ 134.979466300000013, 34.6497808 ] } },
{ "type": "Feature", "properties": { "内容": "明石同仁病院【訪問リハビリテーション】明石市魚住町清水2183", "url": "https://www.kaigokensaku.mhlw.go.jp/28/index.php?action_kouhyou_detail_004_kani=true&JigyosyoCd=2812002828-00&ServiceCd=140&Type=search", "url2": "http://www.akashidoujin.jp" }, "geometry": { "type": "Point", "coordinates": [ 134.891620500000045, 34.7205601 ] } },
{ "type": "Feature", "properties": { "内容": "医療法人伯鳳会明石リハビリテーション病院【訪問リハビリテーション】兵庫県明石市二見町西二見685番地3", "url": "https://www.kaigokensaku.mhlw.go.jp/28/index.php?action_kouhyou_detail_004_kani=true&JigyosyoCd=2812006563-00&ServiceCd=140&Type=search", "url2": "https://akashihakuho.com" }, "geometry": { "type": "Point", "coordinates": [ 134.880824299999972, 34.702945 ] } },
{ "type": "Feature", "properties": { "内容": "林医院【訪問リハビリテーション】甲子園口3丁目9番23号", "url": "https://www.kaigokensaku.mhlw.go.jp/28/index.php?action_kouhyou_detail_004_kani=true&JigyosyoCd=2810923827-00&ServiceCd=140&Type=search", "url2": "http://www.hayashi-med.com" }, "geometry": { "type": "Point", "coordinates": [ 135.373962, 34.7377219 ] } },
{ "type": "Feature", "properties": { "内容": "永田整形外科訪問リハビリテーション【訪問リハビリテーション】西宮市甲子園九番町2-25", "url": "https://www.kaigokensaku.mhlw.go.jp/28/index.php?action_kouhyou_detail_004_kani=true&JigyosyoCd=2810909826-00&ServiceCd=140&Type=search", "url2": "http://www.nagataseikeigeka.com/" }, "geometry": { "type": "Point", "coordinates": [ 135.361174, 34.717197 ] } },
{ "type": "Feature", "properties": { "内容": "整形外科たかひろクリニック【訪問リハビリテーション】瓦林町20-11", "url": "https://www.kaigokensaku.mhlw.go.jp/28/index.php?action_kouhyou_detail_004_kani=true&JigyosyoCd=2810923686-00&ServiceCd=140&Type=search", "url2": "www.takahiro-clinic.com" }, "geometry": { "type": "Point", "coordinates": [ 135.369431599999984, 34.7456405 ] } },
{ "type": "Feature", "properties": { "内容": "おかむらクリニック【訪問リハビリテーション】松原町2-20101", "url": "https://www.kaigokensaku.mhlw.go.jp/28/index.php?action_kouhyou_detail_004_kani=true&JigyosyoCd=2810924650-00&ServiceCd=140&Type=search", "url2": "https://okamura-cl.net/" }, "geometry": { "type": "Point", "coordinates": [ 132.474759400000011, 34.3974568 ] } },
{ "type": "Feature", "properties": { "内容": "医療法人協和会　介護老人保健施設ウエルハウス西宮【訪問リハビリテーション】兵庫県西宮市西宮浜4-15-1", "url": "https://www.kaigokensaku.mhlw.go.jp/28/index.php?action_kouhyou_detail_004_kani=true&JigyosyoCd=2850980067-00&ServiceCd=140&Type=search", "url2": "http://www.kyowakai.com/welhouse-nishinomiya/" }, "geometry": { "type": "Point", "coordinates": [ 135.3309497, 34.7122257 ] } },
{ "type": "Feature", "properties": { "内容": "医療法人社団　西宮回生病院【訪問リハビリテーション】兵庫県西宮市大浜町1番4号", "url": "https://www.kaigokensaku.mhlw.go.jp/28/index.php?action_kouhyou_detail_004_kani=true&JigyosyoCd=2810909396-00&ServiceCd=140&Type=search", "url2": "http://www.kaiseihp.jp/" }, "geometry": { "type": "Point", "coordinates": [ 135.327974, 34.7257776 ] } },
{ "type": "Feature", "properties": { "内容": "おはなクリニック【訪問リハビリテーション】甲子園六番町６番7号はれ六番町1階", "url": "https://www.kaigokensaku.mhlw.go.jp/28/index.php?action_kouhyou_detail_004_kani=true&JigyosyoCd=2810926127-00&ServiceCd=140&Type=search", "url2": "http://www.ohana-clinic.com/" }, "geometry": { "type": "Point", "coordinates": [ 135.366991899999988, 34.7250168 ] } },
{ "type": "Feature", "properties": { "内容": "西宮協立訪問リハビリテーションほほえみ【訪問リハビリテーション】西宮市今津山中町11-1", "url": "https://www.kaigokensaku.mhlw.go.jp/28/index.php?action_kouhyou_detail_004_kani=true&JigyosyoCd=2810907424-00&ServiceCd=140&Type=search", "url2": "http://www.nk-hospital.or.jp/hohoemi/center/index.html#ho_reha" }, "geometry": { "type": "Point", "coordinates": [ 135.357450328356208, 34.732168240051728 ] } },
{ "type": "Feature", "properties": { "内容": "大雄会　大井クリニック【訪問リハビリテーション】兵庫県西宮市名次町5-24", "url": "https://www.kaigokensaku.mhlw.go.jp/28/index.php?action_kouhyou_detail_004_kani=true&JigyosyoCd=2810926267-00&ServiceCd=140&Type=search", "url2": "https://oi-clinic.jp/" }, "geometry": { "type": "Point", "coordinates": [ 135.3308271, 34.7491456 ] } },
{ "type": "Feature", "properties": { "内容": "高田上谷病院【訪問リハビリテーション】兵庫県西宮市山口町上山口4-26-14", "url": "https://www.kaigokensaku.mhlw.go.jp/28/index.php?action_kouhyou_detail_004_kani=true&JigyosyoCd=2810908489-00&ServiceCd=140&Type=search", "url2": "http://www.takatakamitani-hp.jp/" }, "geometry": { "type": "Point", "coordinates": [ 135.2465204, 34.8249101 ] } },
{ "type": "Feature", "properties": { "内容": "西宮協立リハビリテーション病院【訪問リハビリテーション】兵庫県西宮市鷲林寺南町２−１３", "url": "https://www.kaigokensaku.mhlw.go.jp/28/index.php?action_kouhyou_detail_004_kani=true&JigyosyoCd=2810920542-00&ServiceCd=140&Type=search", "url2": "http://www.nk-hospital.or.jp/reha/" }, "geometry": { "type": "Point", "coordinates": [ 135.314221399999951, 34.7693317 ] } },
{ "type": "Feature", "properties": { "内容": "西宮わたなべ訪問リハビリステーション【訪問リハビリテーション】兵庫県西宮市室川町10-22西宮渡辺病院", "url": "https://www.kaigokensaku.mhlw.go.jp/28/index.php?action_kouhyou_detail_004_kani=true&JigyosyoCd=2810906491-00&ServiceCd=140&Type=search", "url2": "http://www.n-watanabe-hosp.jp/" }, "geometry": { "type": "Point", "coordinates": [ 135.343449708925135, 34.744292330453327 ] } },
{ "type": "Feature", "properties": { "内容": "医療法人社団　天野整形外科【訪問リハビリテーション】西宮市門戸荘12-23", "url": "https://www.kaigokensaku.mhlw.go.jp/28/index.php?action_kouhyou_detail_004_kani=true&JigyosyoCd=2810909602-00&ServiceCd=140&Type=search", "url2": "http://www.amano-seikei.com/" }, "geometry": { "type": "Point", "coordinates": [ 135.357093500000019, 34.756528 ] } },
{ "type": "Feature", "properties": { "内容": "西宮市立介護老人保健施設　すこやかケア西宮【訪問リハビリテーション】兵庫県西宮市林田町7-17", "url": "https://www.kaigokensaku.mhlw.go.jp/28/index.php?action_kouhyou_detail_004_kani=true&JigyosyoCd=2850980034-00&ServiceCd=140&Type=search", "url2": "https://www.nishinomiya-fukushi.jp/" }, "geometry": { "type": "Point", "coordinates": [ 135.36098770000001, 34.7574695 ] } },
{ "type": "Feature", "properties": { "内容": "医療法人社団岡田整形外科【訪問リハビリテーション】兵庫県洲本市上物部１−２−６", "url": "https://www.kaigokensaku.mhlw.go.jp/28/index.php?action_kouhyou_detail_004_kani=true&JigyosyoCd=2811501184-00&ServiceCd=140&Type=search", "url2": null }, "geometry": { "type": "Point", "coordinates": [ 134.8892174, 34.3344084 ] } },
{ "type": "Feature", "properties": { "内容": "医療法人いちえ会　介護老人保健施設　せんけい苑　訪問リハビリテーション【訪問リハビリテーション】兵庫県洲本市桑間字太田495-1", "url": "https://www.kaigokensaku.mhlw.go.jp/28/index.php?action_kouhyou_detail_004_kani=true&JigyosyoCd=2871501173-00&ServiceCd=140&Type=search", "url2": null }, "geometry": { "type": "Point", "coordinates": [ 134.865834, 34.3454701 ] } },
{ "type": "Feature", "properties": { "内容": "介護老人保健施設　愛しや【訪問リハビリテーション】兵庫県芦屋市浜風町３１－３", "url": "https://www.kaigokensaku.mhlw.go.jp/28/index.php?action_kouhyou_detail_004_kani=true&JigyosyoCd=2851080040-00&ServiceCd=140&Type=search", "url2": "http://meirinfukushi.or.jp/ashiya/" }, "geometry": { "type": "Point", "coordinates": [ 135.321221799999989, 34.7181227 ] } },
{ "type": "Feature", "properties": { "内容": "エルステイ芦屋【訪問リハビリテーション】兵庫県芦屋市浜町12番3号", "url": "https://www.kaigokensaku.mhlw.go.jp/28/index.php?action_kouhyou_detail_004_kani=true&JigyosyoCd=2851080024-00&ServiceCd=140&Type=search", "url2": "https://ellehome.jp/" }, "geometry": { "type": "Point", "coordinates": [ 135.31668609999997, 34.7259608 ] } },
{ "type": "Feature", "properties": { "内容": "医療法人縁和会　芦屋セントマリア病院【訪問リハビリテーション】兵庫県芦屋市朝日ヶ丘町8-22", "url": "https://www.kaigokensaku.mhlw.go.jp/28/index.php?action_kouhyou_detail_004_kani=true&JigyosyoCd=2811004163-00&ServiceCd=140&Type=search", "url2": "https://www.ashiya-hp-maria.jp/" }, "geometry": { "type": "Point", "coordinates": [ 135.3047795, 34.7462908 ] } },
{ "type": "Feature", "properties": { "内容": "医療法人社団いしかわ整形外科【訪問リハビリテーション】兵庫県伊丹市山田２丁目3-23", "url": "https://www.kaigokensaku.mhlw.go.jp/28/index.php?action_kouhyou_detail_004_kani=true&JigyosyoCd=2813305014-00&ServiceCd=140&Type=search", "url2": "www.ishikawa-ort.com" }, "geometry": { "type": "Point", "coordinates": [ 135.392589, 34.771661 ] } },
{ "type": "Feature", "properties": { "内容": "介護老人保険施設　伊丹ゆうあい【訪問リハビリテーション】兵庫県伊丹市荒牧６丁目１６－２", "url": "https://www.kaigokensaku.mhlw.go.jp/28/index.php?action_kouhyou_detail_004_kani=true&JigyosyoCd=2853380042-00&ServiceCd=140&Type=search", "url2": "seishokai-gr.or.jp" }, "geometry": { "type": "Point", "coordinates": [ 135.387653399999977, 34.8123583 ] } },
{ "type": "Feature", "properties": { "内容": "医療法人社団豊明会　常岡病院【訪問リハビリテーション】兵庫県伊丹市行基町２丁目５番地", "url": "https://www.kaigokensaku.mhlw.go.jp/28/index.php?action_kouhyou_detail_004_kani=true&JigyosyoCd=2813302920-00&ServiceCd=140&Type=search", "url2": "http://www.tsuneoka-h.or.jp" }, "geometry": { "type": "Point", "coordinates": [ 135.40999910000005, 34.7790596 ] } },
{ "type": "Feature", "properties": { "内容": "かねこ脳神経外科リハビリクリニック【訪問リハビリテーション】兵庫県伊丹市山田5-3-3スギ薬局2階", "url": "https://www.kaigokensaku.mhlw.go.jp/28/index.php?action_kouhyou_detail_004_kani=true&JigyosyoCd=2813305527-00&ServiceCd=140&Type=search", "url2": "https://kaneko-nsr.com" }, "geometry": { "type": "Point", "coordinates": [ 135.384385007073263, 34.772345756178943 ] } },
{ "type": "Feature", "properties": { "内容": "伊丹大野診療所【訪問リハビリテーション】兵庫県伊丹市大野1丁目3-2", "url": "https://www.kaigokensaku.mhlw.go.jp/28/index.php?action_kouhyou_detail_004_kani=true&JigyosyoCd=2813303340-00&ServiceCd=140&Type=search", "url2": "http://showakai-g.com/index.html" }, "geometry": { "type": "Point", "coordinates": [ 135.4012143, 34.8045569 ] } },
{ "type": "Feature", "properties": { "内容": "大橋クリニック訪問リハビリテーション【訪問リハビリテーション】兵庫県伊丹市西野3－208－2", "url": "https://www.kaigokensaku.mhlw.go.jp/28/index.php?action_kouhyou_detail_004_kani=true&JigyosyoCd=2813303589-00&ServiceCd=140&Type=search", "url2": "www.ryokushinkai.jp" }, "geometry": { "type": "Point", "coordinates": [ 135.376075899999933, 34.7893451 ] } },
{ "type": "Feature", "properties": { "内容": "伊丹恒生脳神経外科病院【訪問リハビリテーション】兵庫県伊丹市西野1-300-1", "url": "https://www.kaigokensaku.mhlw.go.jp/28/index.php?action_kouhyou_detail_004_kani=true&JigyosyoCd=2813304272-00&ServiceCd=140&Type=search", "url2": "http://itami-kousei.jp/" }, "geometry": { "type": "Point", "coordinates": [ 135.379161279762229, 34.786267074188324 ] } },
{ "type": "Feature", "properties": { "内容": "医療法人社団星晶会　星優クリニック【訪問リハビリテーション】伊丹市桜ケ丘1丁目3-23", "url": "https://www.kaigokensaku.mhlw.go.jp/28/index.php?action_kouhyou_detail_004_kani=true&JigyosyoCd=2813302375-00&ServiceCd=140&Type=search", "url2": "http://seishokai-gr.or.jp/" }, "geometry": { "type": "Point", "coordinates": [ 135.4103782, 34.78378 ] } },
{ "type": "Feature", "properties": { "内容": "あおい病院訪問リハビリテーション【訪問リハビリテーション】兵庫県伊丹市荒牧6丁目14番2号", "url": "https://www.kaigokensaku.mhlw.go.jp/28/index.php?action_kouhyou_detail_004_kani=true&JigyosyoCd=2813304066-00&ServiceCd=140&Type=search", "url2": "http://seishokai-gr.or.jp/" }, "geometry": { "type": "Point", "coordinates": [ 135.387995499999988, 34.811768600000029 ] } },
{ "type": "Feature", "properties": { "内容": "医療法人せいふう会　伊丹せいふう病院【訪問リハビリテーション】兵庫県伊丹市鋳物師5丁目79番", "url": "https://www.kaigokensaku.mhlw.go.jp/28/index.php?action_kouhyou_detail_004_kani=true&JigyosyoCd=2813304587-00&ServiceCd=140&Type=search", "url2": "https://www.itami-seifu-h.jp/" }, "geometry": { "type": "Point", "coordinates": [ 135.412770899999941, 34.800893 ] } },
{ "type": "Feature", "properties": { "内容": "医療法人せいふう会　阪神リハビリテーション病院【訪問リハビリテーション】大野１丁目59-3", "url": "https://www.kaigokensaku.mhlw.go.jp/28/index.php?action_kouhyou_detail_004_kani=true&JigyosyoCd=2813305022-00&ServiceCd=140&Type=search", "url2": "https://www.hanshin-rh.jp" }, "geometry": { "type": "Point", "coordinates": [ 135.4003801, 34.807043 ] } },
{ "type": "Feature", "properties": { "内容": "医療法人社団　天馬会　半田中央病院【訪問リハビリテーション】兵庫県相生市旭３丁目２番１８号", "url": "https://www.kaigokensaku.mhlw.go.jp/28/index.php?action_kouhyou_detail_004_kani=true&JigyosyoCd=2814200776-00&ServiceCd=140&Type=search", "url2": "http://www11.ocn.ne.jp/~handahp/" }, "geometry": { "type": "Point", "coordinates": [ 134.470016200000032, 34.8047394 ] } },
{ "type": "Feature", "properties": { "内容": "老人保健施設アルテハイムやまて【訪問リハビリテーション】兵庫県相生市山手2丁目221", "url": "https://www.kaigokensaku.mhlw.go.jp/28/index.php?action_kouhyou_detail_004_kani=true&JigyosyoCd=2854280019-00&ServiceCd=140&Type=search", "url2": "https://hakuyukai-med.or.jp/" }, "geometry": { "type": "Point", "coordinates": [ 134.4822571, 34.8218407 ] } },
{ "type": "Feature", "properties": { "内容": "魚橋病院【訪問リハビリテーション】兵庫県相生市若狭野町若狭野235-26", "url": "https://www.kaigokensaku.mhlw.go.jp/28/index.php?action_kouhyou_detail_004_kani=true&JigyosyoCd=2814200784-00&ServiceCd=140&Type=search", "url2": "https://www.uohashi.com" }, "geometry": { "type": "Point", "coordinates": [ 134.417437988360632, 34.825042071045154 ] } },
{ "type": "Feature", "properties": { "内容": "医療法人IHI播磨病院【訪問リハビリテーション】兵庫県相生市旭3丁目5番15号", "url": "https://www.kaigokensaku.mhlw.go.jp/28/index.php?action_kouhyou_detail_004_kani=true&JigyosyoCd=2814200875-00&ServiceCd=140&Type=search", "url2": null }, "geometry": { "type": "Point", "coordinates": [ 134.4694226, 34.8062426 ] } },
{ "type": "Feature", "properties": { "内容": "公立豊岡病院組合立豊岡病院出石医療センター【訪問リハビリテーション】兵庫県豊岡市出石町福住１３００", "url": "https://www.kaigokensaku.mhlw.go.jp/28/index.php?action_kouhyou_detail_004_kani=true&JigyosyoCd=2814600322-00&ServiceCd=140&Type=search", "url2": "http://www.toyookahp-kumiai.or.jp/izushi/" }, "geometry": { "type": "Point", "coordinates": [ 134.860581799999977, 35.4675678 ] } },
{ "type": "Feature", "properties": { "内容": "介護老人保健施設出石愛の園訪問リハビリテーション【訪問リハビリテーション】豊岡市出石町福住1313", "url": "https://www.kaigokensaku.mhlw.go.jp/28/index.php?action_kouhyou_detail_004_kani=true&JigyosyoCd=2874401348-00&ServiceCd=140&Type=search", "url2": "http://www.izushi-ainosono.com" }, "geometry": { "type": "Point", "coordinates": [ 134.858873, 35.4677074 ] } },
{ "type": "Feature", "properties": { "内容": "医療法人敬愛会介護老人保健施設豊岡シルバーステイ【訪問リハビリテーション】兵庫県豊岡市戸牧1132-2", "url": "https://www.kaigokensaku.mhlw.go.jp/28/index.php?action_kouhyou_detail_004_kani=true&JigyosyoCd=2854480015-00&ServiceCd=140&Type=search", "url2": "http://www.keiai-kai.jp/" }, "geometry": { "type": "Point", "coordinates": [ 134.805047400000035, 35.5278849 ] } },
{ "type": "Feature", "properties": { "内容": "公立豊岡病院組合立豊岡病院【訪問リハビリテーション】兵庫県豊岡市戸牧1094", "url": "https://www.kaigokensaku.mhlw.go.jp/28/index.php?action_kouhyou_detail_004_kani=true&JigyosyoCd=2814400939-00&ServiceCd=140&Type=search", "url2": "http://www.toyookahp-kumiai.or.jp/toyooka/" }, "geometry": { "type": "Point", "coordinates": [ 134.806311199999982, 35.52659340000001 ] } },
{ "type": "Feature", "properties": { "内容": "山﨑記念クリニック【訪問リハビリテーション】兵庫県加古川市上荘町井ノ口390-2", "url": "https://www.kaigokensaku.mhlw.go.jp/28/index.php?action_kouhyou_detail_004_kani=true&JigyosyoCd=2812202956-00&ServiceCd=140&Type=search", "url2": null }, "geometry": { "type": "Point", "coordinates": [ 134.9119892, 34.8023517 ] } },
{ "type": "Feature", "properties": { "内容": "加古川磯病院【訪問リハビリテーション】兵庫県加古川市八幡町下村1353番地", "url": "https://www.kaigokensaku.mhlw.go.jp/28/index.php?action_kouhyou_detail_004_kani=true&JigyosyoCd=2812204713-00&ServiceCd=140&Type=search", "url2": "http://www.isohosp.com/" }, "geometry": { "type": "Point", "coordinates": [ 134.9144819, 34.7908133 ] } },
{ "type": "Feature", "properties": { "内容": "坂田整形外科リハビリテーション【訪問リハビリテーション】兵庫県加古川市平岡町中野484-1", "url": "https://www.kaigokensaku.mhlw.go.jp/28/index.php?action_kouhyou_detail_004_kani=true&JigyosyoCd=2812203400-00&ServiceCd=140&Type=search", "url2": "http://www.sakata-seikei.com/" }, "geometry": { "type": "Point", "coordinates": [ 134.8679727, 34.7274618 ] } },
{ "type": "Feature", "properties": { "内容": "社会医療法人社団　順心会　介護老人保健施設　加古川白寿苑【訪問リハビリテーション】兵庫県加古川市野口町坂井字西ノ大町58-1", "url": "https://www.kaigokensaku.mhlw.go.jp/28/index.php?action_kouhyou_detail_004_kani=true&JigyosyoCd=2852280045-00&ServiceCd=140&Type=search", "url2": "http://www.junshin.or.jp" }, "geometry": { "type": "Point", "coordinates": [ 134.846661, 34.738252 ] } },
{ "type": "Feature", "properties": { "内容": "順心リハビリテーション病院【訪問リハビリテーション】神野町石守1632地域リハビリテーションセンター", "url": "https://www.kaigokensaku.mhlw.go.jp/28/index.php?action_kouhyou_detail_004_kani=true&JigyosyoCd=2812202261-00&ServiceCd=140&Type=search", "url2": "http://www.junshin.or.jp" }, "geometry": { "type": "Point", "coordinates": [ 134.884912608598313, 34.772700674539841 ] } },
{ "type": "Feature", "properties": { "内容": "老人保健施設　緑寿苑【訪問リハビリテーション】兵庫県加古川市平岡町新在家1197-3", "url": "https://www.kaigokensaku.mhlw.go.jp/28/index.php?action_kouhyou_detail_004_kani=true&JigyosyoCd=2852280037-00&ServiceCd=140&Type=search", "url2": "http://www.tatsumakai.jp" }, "geometry": { "type": "Point", "coordinates": [ 134.870005399999968, 34.7509955 ] } },
{ "type": "Feature", "properties": { "内容": "介護老人保健施設　白寿苑【訪問リハビリテーション】兵庫県加古川市神野町石守1632", "url": "https://www.kaigokensaku.mhlw.go.jp/28/index.php?action_kouhyou_detail_004_kani=true&JigyosyoCd=2852280011-00&ServiceCd=140&Type=search", "url2": "http://www.junshin.or.jp" }, "geometry": { "type": "Point", "coordinates": [ 134.884142399999973, 34.7726266 ] } },
{ "type": "Feature", "properties": { "内容": "医療法人社団　てんわかかりつけ医院【訪問リハビリテーション】兵庫県赤穂市鷆和９５－３４", "url": "https://www.kaigokensaku.mhlw.go.jp/28/index.php?action_kouhyou_detail_004_kani=true&JigyosyoCd=2814301145-00&ServiceCd=140&Type=search", "url2": "tenwakakaritsuke.com" }, "geometry": { "type": "Point", "coordinates": [ 134.355839599999968, 34.7539527 ] } },
{ "type": "Feature", "properties": { "内容": "赤穂中央病院訪問リハビリテーション【訪問リハビリテーション】兵庫県赤穂市惣門町52-6", "url": "https://www.kaigokensaku.mhlw.go.jp/28/index.php?action_kouhyou_detail_004_kani=true&JigyosyoCd=2814300618-00&ServiceCd=140&Type=search", "url2": "http://www.hakuho.or.jp/ako/" }, "geometry": { "type": "Point", "coordinates": [ 134.385534499999949, 34.756045 ] } },
{ "type": "Feature", "properties": { "内容": "上田医院【訪問リハビリテーション】兵庫県西脇市野村町８６５－５", "url": "https://www.kaigokensaku.mhlw.go.jp/28/index.php?action_kouhyou_detail_004_kani=true&JigyosyoCd=2811800842-00&ServiceCd=140&Type=search", "url2": "https://www.uedaiin.biz/" }, "geometry": { "type": "Point", "coordinates": [ 134.969203200000038, 34.9706683 ] } },
{ "type": "Feature", "properties": { "内容": "社会医療法人社団　正峰会　大山記念病院【訪問リハビリテーション】兵庫県西脇市黒田庄町田高313番地", "url": "https://www.kaigokensaku.mhlw.go.jp/28/index.php?action_kouhyou_detail_004_kani=true&JigyosyoCd=2812700330-00&ServiceCd=140&Type=search", "url2": "HTTP://WWW.SEIHOUKAI.COM" }, "geometry": { "type": "Point", "coordinates": [ 134.992905031213354, 35.05550757756896 ] } },
{ "type": "Feature", "properties": { "内容": "木本整形外科クリニック訪問リハビリテーション【訪問リハビリテーション】兵庫県宝塚市中山五月台2丁目3-7", "url": "https://www.kaigokensaku.mhlw.go.jp/28/index.php?action_kouhyou_detail_004_kani=true&JigyosyoCd=2811105135-00&ServiceCd=140&Type=search", "url2": null }, "geometry": { "type": "Point", "coordinates": [ 135.3685319, 34.8322144 ] } },
{ "type": "Feature", "properties": { "内容": "医療法人社団大輝会　やまもと整形リハビリクリニック【訪問リハビリテーション】兵庫県宝塚市山本東3丁目14番6号", "url": "https://www.kaigokensaku.mhlw.go.jp/28/index.php?action_kouhyou_detail_004_kani=true&JigyosyoCd=2811102728-00&ServiceCd=140&Type=search", "url2": "https://daikikai.com/" }, "geometry": { "type": "Point", "coordinates": [ 135.3897388, 34.8197257 ] } },
{ "type": "Feature", "properties": { "内容": "医療法人　尚和会　宝塚リハビリテーション病院【訪問リハビリテーション】兵庫県宝塚市鶴の荘22番2号", "url": "https://www.kaigokensaku.mhlw.go.jp/28/index.php?action_kouhyou_detail_004_kani=true&JigyosyoCd=2811104211-00&ServiceCd=140&Type=search", "url2": "http://www.takara-reha.com" }, "geometry": { "type": "Point", "coordinates": [ 135.360361499999954, 34.8091412 ] } },
{ "type": "Feature", "properties": { "内容": "晃成会クリニック訪問リハビリテーション【訪問リハビリテーション】兵庫県宝塚市光明町１-5", "url": "https://www.kaigokensaku.mhlw.go.jp/28/index.php?action_kouhyou_detail_004_kani=true&JigyosyoCd=2811104773-00&ServiceCd=140&Type=search", "url2": "http://www.kouseikai-clinic.or.jp/" }, "geometry": { "type": "Point", "coordinates": [ 135.360462301188562, 34.791613268620154 ] } },
{ "type": "Feature", "properties": { "内容": "医療法人社団やなかクリニック　訪問リハビリテーション部門【訪問リハビリテーション】兵庫県宝塚市川面4丁目9-5", "url": "https://www.kaigokensaku.mhlw.go.jp/28/index.php?action_kouhyou_detail_004_kani=true&JigyosyoCd=2811104849-00&ServiceCd=140&Type=search", "url2": "https://www.yanakaclinic.com/" }, "geometry": { "type": "Point", "coordinates": [ 135.3452148, 34.8124643 ] } },
{ "type": "Feature", "properties": { "内容": "あいわクリニック訪問リハビリテーション【訪問リハビリテーション】宝塚市中筋2丁目10番11号", "url": "https://www.kaigokensaku.mhlw.go.jp/28/index.php?action_kouhyou_detail_004_kani=true&JigyosyoCd=2811105234-00&ServiceCd=140&Type=search", "url2": "https://swc-aiwakai.jp/service/takarazuka_zaitaku/#sec_05" }, "geometry": { "type": "Point", "coordinates": [ 135.3778543, 34.8199952 ] } },
{ "type": "Feature", "properties": { "内容": "介護老人保健施設ステップハウス宝塚【訪問リハビリテーション】宝塚市小浜4丁目5番6号", "url": "https://www.kaigokensaku.mhlw.go.jp/28/index.php?action_kouhyou_detail_004_kani=true&JigyosyoCd=2851180055-00&ServiceCd=140&Type=search", "url2": "http://ｗｗｗ.takarazuka-fukushi.or.jp/" }, "geometry": { "type": "Point", "coordinates": [ 135.366088900000022, 34.8049558 ] } },
{ "type": "Feature", "properties": { "内容": "宝塚医療生活協同組合良元診療所【訪問リハビリテーション】宝塚市大成町１０-４５", "url": "https://www.kaigokensaku.mhlw.go.jp/28/index.php?action_kouhyou_detail_004_kani=true&JigyosyoCd=2811101290-00&ServiceCd=140&Type=search", "url2": "http://www.takarazuka-mcoop.net/ryogen" }, "geometry": { "type": "Point", "coordinates": [ 135.3562619, 34.7829295 ] } },
{ "type": "Feature", "properties": { "内容": "医療法人社団　敬命会　吉川病院【訪問リハビリテーション】兵庫県三木市吉川町稲田１番地の２", "url": "https://www.kaigokensaku.mhlw.go.jp/28/index.php?action_kouhyou_detail_004_kani=true&JigyosyoCd=2812301576-00&ServiceCd=140&Type=search", "url2": "yokawa-hospital.com" }, "geometry": { "type": "Point", "coordinates": [ 135.123558799999955, 34.8872436 ] } },
{ "type": "Feature", "properties": { "内容": "医療法人社団関田会　ときわ病院【訪問リハビリテーション】志染町広野5丁目271", "url": "https://www.kaigokensaku.mhlw.go.jp/28/index.php?action_kouhyou_detail_004_kani=true&JigyosyoCd=2812301279-00&ServiceCd=140&Type=search", "url2": "http://www.tokiwa-hospital.or.jp" }, "geometry": { "type": "Point", "coordinates": [ 135.021755, 34.7722239 ] } },
{ "type": "Feature", "properties": { "内容": "服部病院【訪問リハビリテーション】兵庫県三木市大塚218-3", "url": "https://www.kaigokensaku.mhlw.go.jp/28/index.php?action_kouhyou_detail_004_kani=true&JigyosyoCd=2812301493-00&ServiceCd=140&Type=search", "url2": "http://www.hattori-hospital.com/" }, "geometry": { "type": "Point", "coordinates": [ 134.999848499999985, 34.7991292 ] } },
{ "type": "Feature", "properties": { "内容": "医療法人社団　和敬会【訪問リハビリテーション】兵庫県三木市大塚１－５－８９", "url": "https://www.kaigokensaku.mhlw.go.jp/28/index.php?action_kouhyou_detail_004_kani=true&JigyosyoCd=2812301410-00&ServiceCd=140&Type=search", "url2": "http://www.mikiyama-hp.jp/" }, "geometry": { "type": "Point", "coordinates": [ 134.993582599999968, 34.7954024 ] } },
{ "type": "Feature", "properties": { "内容": "三木山陽病院【訪問リハビリテーション】兵庫県三木市志染町吉田1213-1", "url": "https://www.kaigokensaku.mhlw.go.jp/28/index.php?action_kouhyou_detail_004_kani=true&JigyosyoCd=2812301477-00&ServiceCd=140&Type=search", "url2": "http://www.hoyukai.or.jp/" }, "geometry": { "type": "Point", "coordinates": [ 135.0133141, 34.7904972 ] } },
{ "type": "Feature", "properties": { "内容": "つくだ整形外科　ロコモケアステーション【訪問リハビリテーション】兵庫県高砂市今市2丁目301-1", "url": "https://www.kaigokensaku.mhlw.go.jp/28/index.php?action_kouhyou_detail_004_kani=true&JigyosyoCd=2812101638-00&ServiceCd=140&Type=search", "url2": "http://tsukudaseikei.com/" }, "geometry": { "type": "Point", "coordinates": [ 134.798311632228462, 34.767080320849857 ] } },
{ "type": "Feature", "properties": { "内容": "けい整形外科クリニック【訪問リハビリテーション】兵庫県高砂市北浜町西浜1208-75", "url": "https://www.kaigokensaku.mhlw.go.jp/28/index.php?action_kouhyou_detail_004_kani=true&JigyosyoCd=2812101430-00&ServiceCd=140&Type=search", "url2": "http://n-ortho.jp/" }, "geometry": { "type": "Point", "coordinates": [ 134.7512786, 34.7811315 ] } },
{ "type": "Feature", "properties": { "内容": "医療法人社団　魚川医院　ゆうゆう訪問リハビリステーション【訪問リハビリテーション】兵庫県高砂市米田町米田873-2", "url": "https://www.kaigokensaku.mhlw.go.jp/28/index.php?action_kouhyou_detail_004_kani=true&JigyosyoCd=2812101414-00&ServiceCd=140&Type=search", "url2": "http://uokawa-home.com" }, "geometry": { "type": "Point", "coordinates": [ 134.807556100000056, 34.7746843 ] } },
{ "type": "Feature", "properties": { "内容": "介護老人保健施設　高砂白寿苑【訪問リハビリテーション】兵庫県高砂市北浜町西浜773-1", "url": "https://www.kaigokensaku.mhlw.go.jp/28/index.php?action_kouhyou_detail_004_kani=true&JigyosyoCd=2852180039-00&ServiceCd=140&Type=search", "url2": "http://www.junshin.or.jp" }, "geometry": { "type": "Point", "coordinates": [ 134.747899100000041, 34.7849315 ] } },
{ "type": "Feature", "properties": { "内容": "東高砂訪問リハビリテーション【訪問リハビリテーション】兵庫県高砂市米田町古新305-1", "url": "https://www.kaigokensaku.mhlw.go.jp/28/index.php?action_kouhyou_detail_004_kani=true&JigyosyoCd=2812101778-00&ServiceCd=140&Type=search", "url2": "http://www.higashitakasago.com" }, "geometry": { "type": "Point", "coordinates": [ 134.809108599999945, 34.7718972 ] } },
{ "type": "Feature", "properties": { "内容": "介護老人保健施設まごころハーモニー【訪問リハビリテーション】兵庫県高砂市高砂町松波町440番6", "url": "https://www.kaigokensaku.mhlw.go.jp/28/index.php?action_kouhyou_detail_004_kani=true&JigyosyoCd=2852180013-00&ServiceCd=140&Type=search", "url2": "http://www.harmony-en.com" }, "geometry": { "type": "Point", "coordinates": [ 134.797646399999962, 34.7521611 ] } },
{ "type": "Feature", "properties": { "内容": "ふどう整形外科クリニック【訪問リハビリテーション】兵庫県川西市火打1－16－6　オアシスタウンキセラ川西2F", "url": "https://www.kaigokensaku.mhlw.go.jp/28/index.php?action_kouhyou_detail_004_kani=true&JigyosyoCd=2813103195-00&ServiceCd=140&Type=search", "url2": null }, "geometry": { "type": "Point", "coordinates": [ 135.4194383, 34.8361493 ] } },
{ "type": "Feature", "properties": { "内容": "医療法人社団　　どひ整形外科【訪問リハビリテーション】兵庫県川西市小花2-7-1-202", "url": "https://www.kaigokensaku.mhlw.go.jp/28/index.php?action_kouhyou_detail_004_kani=true&JigyosyoCd=2813102155-00&ServiceCd=140&Type=search", "url2": null }, "geometry": { "type": "Point", "coordinates": [ 135.418161300000065, 34.8261434 ] } },
{ "type": "Feature", "properties": { "内容": "あゆみ整形外科クリニック【訪問リハビリテーション】兵庫県川西市大和西2-2-1", "url": "https://www.kaigokensaku.mhlw.go.jp/28/index.php?action_kouhyou_detail_004_kani=true&JigyosyoCd=2813102353-00&ServiceCd=140&Type=search", "url2": null }, "geometry": { "type": "Point", "coordinates": [ 135.4168056, 34.8862072 ] } },
{ "type": "Feature", "properties": { "内容": "医療法人協和会　協立記念病院【訪問リハビリテーション】兵庫県川西市平野1丁目39番1号", "url": "https://www.kaigokensaku.mhlw.go.jp/28/index.php?action_kouhyou_detail_004_kani=true&JigyosyoCd=2813100977-00&ServiceCd=140&Type=search", "url2": "https://www.kyowakai.com/kyoritsu_kinen_hp/" }, "geometry": { "type": "Point", "coordinates": [ 135.4179655, 34.869367500000024 ] } },
{ "type": "Feature", "properties": { "内容": "介護老人保健施設ウエルハウス清和台【訪問リハビリテーション】清和台東2丁目1番2号", "url": "https://www.kaigokensaku.mhlw.go.jp/28/index.php?action_kouhyou_detail_004_kani=true&JigyosyoCd=2853180020-00&ServiceCd=140&Type=search", "url2": "http://www.kyowakai.com/" }, "geometry": { "type": "Point", "coordinates": [ 135.3859919, 34.8773515 ] } },
{ "type": "Feature", "properties": { "内容": "医療法人社団　九十九記念病院【訪問リハビリテーション】兵庫県川西市栄町10番4号", "url": "https://www.kaigokensaku.mhlw.go.jp/28/index.php?action_kouhyou_detail_004_kani=true&JigyosyoCd=2813103682-00&ServiceCd=140&Type=search", "url2": "https://www.tukumo-kinenhp.jp/" }, "geometry": { "type": "Point", "coordinates": [ 135.4137574, 34.8291646 ] } },
{ "type": "Feature", "properties": { "内容": "土井リハビリテーション病院【訪問リハビリテーション】兵庫県小野市復井町字中ノ池1723-2", "url": "https://www.kaigokensaku.mhlw.go.jp/28/index.php?action_kouhyou_detail_004_kani=true&JigyosyoCd=2811900642-00&ServiceCd=140&Type=search", "url2": "www.doi-hospital.com" }, "geometry": { "type": "Point", "coordinates": [ 134.92130830021668, 34.900744362857381 ] } },
{ "type": "Feature", "properties": { "内容": "緑駿病院【訪問リハビリテーション】兵庫県小野市匠台７２番１", "url": "https://www.kaigokensaku.mhlw.go.jp/28/index.php?action_kouhyou_detail_004_kani=true&JigyosyoCd=2811901046-00&ServiceCd=140&Type=search", "url2": "https://ryokushun.jp" }, "geometry": { "type": "Point", "coordinates": [ 134.9734005, 34.8213662 ] } },
{ "type": "Feature", "properties": { "内容": "介護老人保健施設シルバーランド訪問リハビリテーション【訪問リハビリテーション】兵庫県小野市葉多町261-1", "url": "https://www.kaigokensaku.mhlw.go.jp/28/index.php?action_kouhyou_detail_004_kani=true&JigyosyoCd=2851980017-00&ServiceCd=140&Type=search", "url2": "silverland.or.jp" }, "geometry": { "type": "Point", "coordinates": [ 134.9183294, 34.8553614 ] } },
{ "type": "Feature", "properties": { "内容": "栄宏会小野病院訪問リハビリテーション【訪問リハビリテーション】兵庫県小野市天神町973番", "url": "https://www.kaigokensaku.mhlw.go.jp/28/index.php?action_kouhyou_detail_004_kani=true&JigyosyoCd=2811901020-00&ServiceCd=140&Type=search", "url2": "https://www.ono-hp.eikokai1996.or.jp/relate/ono_ho-riha/" }, "geometry": { "type": "Point", "coordinates": [ 134.9424811, 34.8449607 ] } },
{ "type": "Feature", "properties": { "内容": "さんだリハビリテーション病院【訪問リハビリテーション】兵庫県三田市富士が丘5丁目16番1", "url": "https://www.kaigokensaku.mhlw.go.jp/28/index.php?action_kouhyou_detail_004_kani=true&JigyosyoCd=2811201959-00&ServiceCd=140&Type=search", "url2": "https://sanda.wakeikai-gr.or.jp/" }, "geometry": { "type": "Point", "coordinates": [ 135.2026806, 34.8913461 ] } },
{ "type": "Feature", "properties": { "内容": "医療法人社団　尚仁会　平島病院【訪問リハビリテーション】兵庫県三田市天神１丁目２番１５号", "url": "https://www.kaigokensaku.mhlw.go.jp/28/index.php?action_kouhyou_detail_004_kani=true&JigyosyoCd=2811200647-00&ServiceCd=140&Type=search", "url2": "http://www.mc-shojin.or.jp" }, "geometry": { "type": "Point", "coordinates": [ 135.222231400000027, 34.8897875 ] } },
{ "type": "Feature", "properties": { "内容": "介護老人保健施設愛【訪問リハビリテーション】兵庫県三田市東本庄1188番地", "url": "https://www.kaigokensaku.mhlw.go.jp/28/index.php?action_kouhyou_detail_004_kani=true&JigyosyoCd=2851280038-00&ServiceCd=140&Type=search", "url2": "https://www.hirakataryoiku-med.or.jp/sanda/ai/index.html" }, "geometry": { "type": "Point", "coordinates": [ 135.164267056205745, 34.955571633426118 ] } },
{ "type": "Feature", "properties": { "内容": "医療法人社団整形外科ふくしまクリニック【訪問リハビリテーション】中央町9-36", "url": "https://www.kaigokensaku.mhlw.go.jp/28/index.php?action_kouhyou_detail_004_kani=true&JigyosyoCd=2811201892-00&ServiceCd=140&Type=search", "url2": "www.fukushima-clinic.com" }, "geometry": { "type": "Point", "coordinates": [ 135.2271005, 34.8876572 ] } },
{ "type": "Feature", "properties": { "内容": "介護老人保健施設　加西白寿苑【訪問リハビリテーション】兵庫県加西市北条町東高室四ツ池1231-1", "url": "https://www.kaigokensaku.mhlw.go.jp/28/index.php?action_kouhyou_detail_004_kani=true&JigyosyoCd=2852680053-00&ServiceCd=140&Type=search", "url2": "http://www.junshin.or.jp" }, "geometry": { "type": "Point", "coordinates": [ 134.8435321, 34.916825 ] } },
{ "type": "Feature", "properties": { "内容": "兵庫医科大学ささやま医療センター【訪問リハビリテーション】兵庫県丹波篠山市黒岡5番地", "url": "https://www.kaigokensaku.mhlw.go.jp/28/index.php?action_kouhyou_detail_004_kani=true&JigyosyoCd=2811400858-00&ServiceCd=140&Type=search", "url2": "http://www.sasayama.hyo-med.ac.jp/" }, "geometry": { "type": "Point", "coordinates": [ 135.215843577909823, 35.079715299900478 ] } },
{ "type": "Feature", "properties": { "内容": "介護老人保健施設　咲楽荘【訪問リハビリテーション】兵庫県丹波篠山市東吹976-1", "url": "https://www.kaigokensaku.mhlw.go.jp/28/index.php?action_kouhyou_detail_004_kani=true&JigyosyoCd=2851480018-00&ServiceCd=140&Type=search", "url2": "http://www.kiyoukai.com" }, "geometry": { "type": "Point", "coordinates": [ 135.199025, 35.0702278 ] } },
{ "type": "Feature", "properties": { "内容": "医療法人社団　井上医院【訪問リハビリテーション】兵庫県養父市浅野368-2", "url": "https://www.kaigokensaku.mhlw.go.jp/28/index.php?action_kouhyou_detail_004_kani=true&JigyosyoCd=2814801128-00&ServiceCd=140&Type=search", "url2": "www.inoueclinic-yabu.or.jp" }, "geometry": { "type": "Point", "coordinates": [ 134.755748, 35.3613813 ] } },
{ "type": "Feature", "properties": { "内容": "丹波市国民健康保険青垣診療所【訪問リハビリテーション】兵庫県丹波市青垣町沢野114番地", "url": "https://www.kaigokensaku.mhlw.go.jp/28/index.php?action_kouhyou_detail_004_kani=true&JigyosyoCd=2811301585-00&ServiceCd=140&Type=search", "url2": "http://www.city.tamba.lg.jp/" }, "geometry": { "type": "Point", "coordinates": [ 135.0048634, 35.2478762 ] } },
{ "type": "Feature", "properties": { "内容": "アシダメディカルパートナーズ【訪問リハビリテーション】柏原町母坪327‐1", "url": "https://www.kaigokensaku.mhlw.go.jp/28/index.php?action_kouhyou_detail_004_kani=true&JigyosyoCd=2811301759-00&ServiceCd=140&Type=search", "url2": null }, "geometry": { "type": "Point", "coordinates": [ 135.0471747, 35.150115300000017 ] } },
{ "type": "Feature", "properties": { "内容": "さんなん桜の里訪問リハビリテーションセンター【訪問リハビリテーション】兵庫県丹波市山南町野坂211番地５", "url": "https://www.kaigokensaku.mhlw.go.jp/28/index.php?action_kouhyou_detail_004_kani=true&JigyosyoCd=2871301673-00&ServiceCd=140&Type=search", "url2": "http://www.seihoukai.com/sannnan/index.html" }, "geometry": { "type": "Point", "coordinates": [ 134.9989928, 35.0848579 ] } },
{ "type": "Feature", "properties": { "内容": "八木病院【訪問リハビリテーション】兵庫県南あわじ市八木寺内１１４７番地", "url": "https://www.kaigokensaku.mhlw.go.jp/28/index.php?action_kouhyou_detail_004_kani=true&JigyosyoCd=2811700927-00&ServiceCd=140&Type=search", "url2": "http://www.yagi-hp.com/" }, "geometry": { "type": "Point", "coordinates": [ 134.787702099999933, 34.2907357 ] } },
{ "type": "Feature", "properties": { "内容": "平成病院【訪問リハビリテーション】兵庫県南あわじ市八木養宜中１７３", "url": "https://www.kaigokensaku.mhlw.go.jp/28/index.php?action_kouhyou_detail_004_kani=true&JigyosyoCd=2811700729-00&ServiceCd=140&Type=search", "url2": "https://heiseihp.jp/" }, "geometry": { "type": "Point", "coordinates": [ 134.795253900000034, 34.3019901 ] } },
{ "type": "Feature", "properties": { "内容": "中林病院【訪問リハビリテーション】兵庫県南あわじ市神代国衙１６８０ー１", "url": "https://www.kaigokensaku.mhlw.go.jp/28/index.php?action_kouhyou_detail_004_kani=true&JigyosyoCd=2811700919-00&ServiceCd=140&Type=search", "url2": "https://nakabayashihp.or.jp" }, "geometry": { "type": "Point", "coordinates": [ 134.7630513, 34.2748493 ] } },
{ "type": "Feature", "properties": { "内容": "医療法人社団翠鳳会　翠鳳第一病院【訪問リハビリテーション】兵庫県南あわじ市広田広田字畑田１３４－１", "url": "https://www.kaigokensaku.mhlw.go.jp/28/index.php?action_kouhyou_detail_004_kani=true&JigyosyoCd=2811701248-00&ServiceCd=140&Type=search", "url2": "http://www.mima-gr.jp/" }, "geometry": { "type": "Point", "coordinates": [ 134.8329195, 34.3226247 ] } },
{ "type": "Feature", "properties": { "内容": "クリニック　日々青々【訪問リハビリテーション】兵庫県朝来市和田山町東谷110番地1", "url": "https://www.kaigokensaku.mhlw.go.jp/28/index.php?action_kouhyou_detail_004_kani=true&JigyosyoCd=2814900813-00&ServiceCd=140&Type=search", "url2": "https://nichinichi-seisei.jp/" }, "geometry": { "type": "Point", "coordinates": [ 134.848044, 35.3415881 ] } },
{ "type": "Feature", "properties": { "内容": "医療法人社団そよかぜ　そよかぜ診療所【訪問リハビリテーション】兵庫県朝来市山東町矢名瀬町847番地", "url": "https://www.kaigokensaku.mhlw.go.jp/28/index.php?action_kouhyou_detail_004_kani=true&JigyosyoCd=2814900946-00&ServiceCd=140&Type=search", "url2": "http://soyokaze310.sakura.ne.jp/index.html" }, "geometry": { "type": "Point", "coordinates": [ 134.881145699999934, 35.317044 ] } },
{ "type": "Feature", "properties": { "内容": "はるかぜ診療所【訪問リハビリテーション】兵庫県朝来市和田山町竹田2486-76", "url": "https://www.kaigokensaku.mhlw.go.jp/28/index.php?action_kouhyou_detail_004_kani=true&JigyosyoCd=2814900953-00&ServiceCd=140&Type=search", "url2": "http://soyokaze310.sakura.ne.jp/" }, "geometry": { "type": "Point", "coordinates": [ 134.837201763229359, 35.296459516402379 ] } },
{ "type": "Feature", "properties": { "内容": "社会医療法人社団　順心会　順心淡路病院【訪問リハビリテーション】兵庫県淡路市大町下６６－１", "url": "https://www.kaigokensaku.mhlw.go.jp/28/index.php?action_kouhyou_detail_004_kani=true&JigyosyoCd=2811601125-00&ServiceCd=140&Type=search", "url2": "http://www.junshin.or.jp" }, "geometry": { "type": "Point", "coordinates": [ 134.857325, 34.4368806 ] } },
{ "type": "Feature", "properties": { "内容": "医療法人社団　曽山医院【訪問リハビリテーション】兵庫県淡路市志筑1391番地9", "url": "https://www.kaigokensaku.mhlw.go.jp/28/index.php?action_kouhyou_detail_004_kani=true&JigyosyoCd=2811600937-00&ServiceCd=140&Type=search", "url2": "http://www.soyama-clinic.com/" }, "geometry": { "type": "Point", "coordinates": [ 134.89573919999998, 34.4379599 ] } },
{ "type": "Feature", "properties": { "内容": "淡路白寿苑【訪問リハビリテーション】兵庫県淡路市大町畑584-6", "url": "https://www.kaigokensaku.mhlw.go.jp/28/index.php?action_kouhyou_detail_004_kani=true&JigyosyoCd=2851680013-00&ServiceCd=140&Type=search", "url2": "https://www.junshin.or.jp/tsunahakujuen.html" }, "geometry": { "type": "Point", "coordinates": [ 134.8625093, 34.4278799 ] } },
{ "type": "Feature", "properties": { "内容": "東浦平成病院【訪問リハビリテーション】兵庫県淡路市久留麻1867", "url": "https://www.kaigokensaku.mhlw.go.jp/28/index.php?action_kouhyou_detail_004_kani=true&JigyosyoCd=2811601158-00&ServiceCd=140&Type=search", "url2": "http://higashihp.jp/" }, "geometry": { "type": "Point", "coordinates": [ 134.986693100000025, 34.5247487 ] } },
{ "type": "Feature", "properties": { "内容": "聖隷淡路病院【訪問リハビリテーション】兵庫県淡路市夢舞台1-1", "url": "https://www.kaigokensaku.mhlw.go.jp/28/index.php?action_kouhyou_detail_004_kani=true&JigyosyoCd=2811601455-00&ServiceCd=140&Type=search", "url2": "https://www.seirei.or.jp/awaji/index.html" }, "geometry": { "type": "Point", "coordinates": [ 135.016747, 34.56932 ] } },
{ "type": "Feature", "properties": { "内容": "いなもち医院【訪問リハビリテーション】兵庫県宍粟市山崎町船元79‐1", "url": "https://www.kaigokensaku.mhlw.go.jp/28/index.php?action_kouhyou_detail_004_kani=true&JigyosyoCd=2813800873-00&ServiceCd=140&Type=search", "url2": "http://www.inamochi.com" }, "geometry": { "type": "Point", "coordinates": [ 134.551186599999937, 34.9955183 ] } },
{ "type": "Feature", "properties": { "内容": "垣尾内科クリニック【訪問リハビリテーション】兵庫県宍粟市山崎町田井５６２－１", "url": "https://www.kaigokensaku.mhlw.go.jp/28/index.php?action_kouhyou_detail_004_kani=true&JigyosyoCd=2813800923-00&ServiceCd=140&Type=search", "url2": null }, "geometry": { "type": "Point", "coordinates": [ 134.566428683467166, 35.046151572412086 ] } },
{ "type": "Feature", "properties": { "内容": "介護老人保健施設サンスマイル北野【訪問リハビリテーション】兵庫県加東市北野55番地1", "url": "https://www.kaigokensaku.mhlw.go.jp/28/index.php?action_kouhyou_detail_004_kani=true&JigyosyoCd=2852580030-00&ServiceCd=140&Type=search", "url2": "http://kasuganokai.com/sskitano/" }, "geometry": { "type": "Point", "coordinates": [ 134.954466599999932, 34.9340462 ] } },
{ "type": "Feature", "properties": { "内容": "老人保健施設旭陽訪問リハビリテーション【訪問リハビリテーション】兵庫県たつの市揖西町小神字塚原1556-1", "url": "https://www.kaigokensaku.mhlw.go.jp/28/index.php?action_kouhyou_detail_004_kani=true&JigyosyoCd=2853680011-00&ServiceCd=140&Type=search", "url2": "http://www.kuwanomien.jp" }, "geometry": { "type": "Point", "coordinates": [ 134.533030599999961, 34.8603788 ] } },
{ "type": "Feature", "properties": { "内容": "医療法人社団仁德会　とくなが病院【訪問リハビリテーション】兵庫県たつの市神岡町東觜崎473-5", "url": "https://www.kaigokensaku.mhlw.go.jp/28/index.php?action_kouhyou_detail_004_kani=true&JigyosyoCd=2813601180-00&ServiceCd=140&Type=search", "url2": "https://www.tokunaga-hospital.jp/index.php" }, "geometry": { "type": "Point", "coordinates": [ 134.5561151, 34.8831147 ] } },
{ "type": "Feature", "properties": { "内容": "訪問リハビリテーションせいふう猪名川【訪問リハビリテーション】兵庫県川辺郡猪名川町北田原字屏風岳３番地", "url": "https://www.kaigokensaku.mhlw.go.jp/28/index.php?action_kouhyou_detail_004_kani=true&JigyosyoCd=2873200550-00&ServiceCd=140&Type=search", "url2": "https://www.seifu-inagawa-rk.jp/" }, "geometry": { "type": "Point", "coordinates": [ 135.358093694442744, 34.917147227352721 ] } },
{ "type": "Feature", "properties": { "内容": "多可赤十字老人保健施設訪問リハビリステーション【訪問リハビリテーション】兵庫県多可郡多可町中区岸上280‐19", "url": "https://www.kaigokensaku.mhlw.go.jp/28/index.php?action_kouhyou_detail_004_kani=true&JigyosyoCd=2872700659-00&ServiceCd=140&Type=search", "url2": "http://www.taka.jrc.or.jp" }, "geometry": { "type": "Point", "coordinates": [ 134.923365100000012, 35.0542034 ] } },
{ "type": "Feature", "properties": { "内容": "医療法人社団　いなみ会　私立稲美中央病院【訪問リハビリテーション】加古郡稲美町国安１２８６－２３", "url": "https://www.kaigokensaku.mhlw.go.jp/28/index.php?action_kouhyou_detail_004_kani=true&JigyosyoCd=2812800403-00&ServiceCd=140&Type=search", "url2": "http://inamichuou-hospital.or.jp/" }, "geometry": { "type": "Point", "coordinates": [ 134.919948890026831, 34.751365420235395 ] } },
{ "type": "Feature", "properties": { "内容": "大西メディカルクリニック　訪問リハビリテーション【訪問リハビリテーション】兵庫県加古郡稲美町国岡2丁目4番地の３", "url": "https://www.kaigokensaku.mhlw.go.jp/28/index.php?action_kouhyou_detail_004_kani=true&JigyosyoCd=2812800767-00&ServiceCd=140&Type=search", "url2": "https://hinode.or.jp/establishment/home_onishi/" }, "geometry": { "type": "Point", "coordinates": [ 134.908502700000014, 34.7475675 ] } },
{ "type": "Feature", "properties": { "内容": "介護老人保健施設サンライズ【訪問リハビリテーション】兵庫県加古郡稲美町国安1237", "url": "https://www.kaigokensaku.mhlw.go.jp/28/index.php?action_kouhyou_detail_004_kani=true&JigyosyoCd=2852880018-00&ServiceCd=140&Type=search", "url2": "http://www.hoshikai.or.jp" }, "geometry": { "type": "Point", "coordinates": [ 134.917472800000041, 34.7464658 ] } },
{ "type": "Feature", "properties": { "内容": "あさいくりにっく【訪問リハビリテーション】兵庫県加古郡播磨町宮北１－５－１４", "url": "https://www.kaigokensaku.mhlw.go.jp/28/index.php?action_kouhyou_detail_004_kani=true&JigyosyoCd=2812800916-00&ServiceCd=140&Type=search", "url2": "https://asai-cl.jp" }, "geometry": { "type": "Point", "coordinates": [ 134.866420290876732, 34.718238748642911 ] } },
{ "type": "Feature", "properties": { "内容": "医療法人社団　アキタケ診療所【訪問リハビリテーション】兵庫県神崎郡福崎町福崎新73-3", "url": "https://www.kaigokensaku.mhlw.go.jp/28/index.php?action_kouhyou_detail_004_kani=true&JigyosyoCd=2813400732-00&ServiceCd=140&Type=search", "url2": null }, "geometry": { "type": "Point", "coordinates": [ 134.750537799999961, 34.9553097 ] } },
{ "type": "Feature", "properties": { "内容": "介護老人保健施設　　高嶺の郷【訪問リハビリテーション】兵庫県赤穂郡上郡町山野里２３０５番地１", "url": "https://www.kaigokensaku.mhlw.go.jp/28/index.php?action_kouhyou_detail_004_kani=true&JigyosyoCd=2853980015-00&ServiceCd=140&Type=search", "url2": "https://youandi.takaminefukushikai.com/" }, "geometry": { "type": "Point", "coordinates": [ 134.3508194, 34.8696197 ] } },
{ "type": "Feature", "properties": { "内容": "岡田整形外科【訪問リハビリテーション】兵庫県赤穂郡上郡町３９－１", "url": "https://www.kaigokensaku.mhlw.go.jp/28/index.php?action_kouhyou_detail_004_kani=true&JigyosyoCd=2813900368-00&ServiceCd=140&Type=search", "url2": null }, "geometry": { "type": "Point", "coordinates": [ 134.3562274, 34.8736349 ] } },
{ "type": "Feature", "properties": { "内容": "尾﨑病院【訪問リハビリテーション】兵庫県佐用郡佐用町佐用141-4", "url": "https://www.kaigokensaku.mhlw.go.jp/28/index.php?action_kouhyou_detail_004_kani=true&JigyosyoCd=2813700479-00&ServiceCd=140&Type=search", "url2": "http://www.osakihp.com/" }, "geometry": { "type": "Point", "coordinates": [ 134.421313167879475, 35.06832305761462 ] } },
{ "type": "Feature", "properties": { "内容": "岡尾医院【訪問リハビリテーション】兵庫県佐用郡佐用町米田410‐2", "url": "https://www.kaigokensaku.mhlw.go.jp/28/index.php?action_kouhyou_detail_004_kani=true&JigyosyoCd=2813700461-00&ServiceCd=140&Type=search", "url2": null }, "geometry": { "type": "Point", "coordinates": [ 134.378327961238, 34.988031342529595 ] } },
{ "type": "Feature", "properties": { "内容": "医療法人社団一葉会　佐用共立病院【訪問リハビリテーション】兵庫県佐用郡佐用町佐用1111番地", "url": "https://www.kaigokensaku.mhlw.go.jp/28/index.php?action_kouhyou_detail_004_kani=true&JigyosyoCd=2813700305-00&ServiceCd=140&Type=search", "url2": "http://sayohp.jp/" }, "geometry": { "type": "Point", "coordinates": [ 134.352090299999986, 35.0041983 ] } },
{ "type": "Feature", "properties": { "内容": "公立浜坂病院【訪問リハビリテーション】兵庫県美方郡新温泉町二日市184-1", "url": "https://www.kaigokensaku.mhlw.go.jp/28/index.php?action_kouhyou_detail_004_kani=true&JigyosyoCd=2814700700-00&ServiceCd=140&Type=search", "url2": "https://hamasaka-hosp.town.shinonsen.hyogo.jp/" }, "geometry": { "type": "Point", "coordinates": [ 134.4758546, 35.6185116 ] } }
]
}
