{
"type": "FeatureCollection",
"name": "geo_28_認知症対応型通所介護",
"crs": { "type": "name", "properties": { "name": "urn:ogc:def:crs:OGC:1.3:CRS84" } },
"features": [
{ "type": "Feature", "properties": { "内容": "協同の苑　魚崎中町デイサービス【認知症対応型通所介護】神戸市東灘区魚崎中町４丁目３－１８3階", "url": "https://www.kaigokensaku.mhlw.go.jp/28/index.php?action_kouhyou_detail_004_kani=true&JigyosyoCd=2890100262-00&ServiceCd=720&Type=search", "url2": "http://www.kyodo-no-sono.or.jp/" }, "geometry": { "type": "Point", "coordinates": [ 135.27159359999996, 34.7140173 ] } },
{ "type": "Feature", "properties": { "内容": "コープは～とらんどふれあいデイ本山【認知症対応型通所介護】兵庫県神戸市東灘区田中町２丁目９－１０ハイム本山１階", "url": "https://www.kaigokensaku.mhlw.go.jp/28/index.php?action_kouhyou_detail_004_kani=true&JigyosyoCd=2890100288-00&ServiceCd=720&Type=search", "url2": "https://www.kobe.coop.or.jp/" }, "geometry": { "type": "Point", "coordinates": [ 135.2740569, 34.7237552 ] } },
{ "type": "Feature", "properties": { "内容": "六甲アイランド　認知症対応型デイサービス【認知症対応型通所介護】兵庫県神戸市東灘区向洋町中3丁目2番地-2", "url": "https://www.kaigokensaku.mhlw.go.jp/28/index.php?action_kouhyou_detail_004_kani=true&JigyosyoCd=2890100296-00&ServiceCd=720&Type=search", "url2": "http://www.kyodo-no-sono.or.jp" }, "geometry": { "type": "Point", "coordinates": [ 135.27142926487349, 34.687420179250729 ] } },
{ "type": "Feature", "properties": { "内容": "デイサービス　つむぎ【認知症対応型通所介護】神戸市東灘区本庄町１－２－２１", "url": "https://www.kaigokensaku.mhlw.go.jp/28/index.php?action_kouhyou_detail_004_kani=true&JigyosyoCd=2890100072-00&ServiceCd=720&Type=search", "url2": "http://tsumugi.pinoko.jp/" }, "geometry": { "type": "Point", "coordinates": [ 135.294774400000051, 34.7269441 ] } },
{ "type": "Feature", "properties": { "内容": "デイサービスセンターオリンピア灘【認知症対応型通所介護】兵庫県神戸市灘区灘北通3丁目1-15", "url": "https://www.kaigokensaku.mhlw.go.jp/28/index.php?action_kouhyou_detail_004_kani=true&JigyosyoCd=2890200013-00&ServiceCd=720&Type=search", "url2": "http://www.olympia.or.jp" }, "geometry": { "type": "Point", "coordinates": [ 135.22651350000001, 34.7099843 ] } },
{ "type": "Feature", "properties": { "内容": "Ａｔデイサービス【認知症対応型通所介護】兵庫県神戸市長田区宮川町9丁目5－2", "url": "https://www.kaigokensaku.mhlw.go.jp/28/index.php?action_kouhyou_detail_004_kani=true&JigyosyoCd=2890600139-00&ServiceCd=720&Type=search", "url2": "https://atdayservice.jimdosite.com" }, "geometry": { "type": "Point", "coordinates": [ 135.144264657672124, 34.675842525854392 ] } },
{ "type": "Feature", "properties": { "内容": "デイサービスセンターすこやか友が丘【認知症対応型通所介護】友が丘5丁目5-191", "url": "https://www.kaigokensaku.mhlw.go.jp/28/index.php?action_kouhyou_detail_004_kani=true&JigyosyoCd=2890700079-00&ServiceCd=720&Type=search", "url2": "http:/www.kitasumahoiku-center.or.jp/sukoyaka" }, "geometry": { "type": "Point", "coordinates": [ 135.0896037, 34.6695751 ] } },
{ "type": "Feature", "properties": { "内容": "KOBE須磨きらくえん認知症対応型デイサービス【認知症対応型通所介護】兵庫県神戸市須磨区車字菅ノ池1351-14", "url": "https://www.kaigokensaku.mhlw.go.jp/28/index.php?action_kouhyou_detail_004_kani=true&JigyosyoCd=2890700103-00&ServiceCd=720&Type=search", "url2": "http://www.kirakuen.or.jp/" }, "geometry": { "type": "Point", "coordinates": [ 135.10946, 34.681738199999955 ] } },
{ "type": "Feature", "properties": { "内容": "愛の園デイサービスひだまり【認知症対応型通所介護】妙法寺字野路山1053", "url": "https://www.kaigokensaku.mhlw.go.jp/28/index.php?action_kouhyou_detail_004_kani=true&JigyosyoCd=2890700319-00&ServiceCd=720&Type=search", "url2": "http://ainosono.jp" }, "geometry": { "type": "Point", "coordinates": [ 135.1216576, 34.6830477 ] } },
{ "type": "Feature", "properties": { "内容": "デイサービス　かぐや【認知症対応型通所介護】兵庫県神戸市須磨区車字口中ノ尾737-1", "url": "https://www.kaigokensaku.mhlw.go.jp/28/index.php?action_kouhyou_detail_004_kani=true&JigyosyoCd=2890700137-00&ServiceCd=720&Type=search", "url2": "http://www.jugem-day.com/kaguya/" }, "geometry": { "type": "Point", "coordinates": [ 135.109852639635847, 34.689482824128021 ] } },
{ "type": "Feature", "properties": { "内容": "本多聞高齢者介護支援センター【認知症対応型通所介護】神戸市垂水区本多聞7-2-2", "url": "https://www.kaigokensaku.mhlw.go.jp/28/index.php?action_kouhyou_detail_004_kani=true&JigyosyoCd=2870800055-00&ServiceCd=720&Type=search", "url2": "http://hontamon.jp/" }, "geometry": { "type": "Point", "coordinates": [ 135.043127700000014, 34.6518712 ] } },
{ "type": "Feature", "properties": { "内容": "舞子台グループホーム　デイサービス【認知症対応型通所介護】神戸市垂水区舞子台７丁目３－６", "url": "https://www.kaigokensaku.mhlw.go.jp/28/index.php?action_kouhyou_detail_004_kani=true&JigyosyoCd=2870801285-00&ServiceCd=720&Type=search", "url2": "https://www.kouseikai-gr.jp/facilities/maikodai-group-home/" }, "geometry": { "type": "Point", "coordinates": [ 135.038095718493651, 34.640136062401602 ] } },
{ "type": "Feature", "properties": { "内容": "デイサービスセンターふるさと桜【認知症対応型通所介護】兵庫県神戸市垂水区塩屋町6丁目38-15", "url": "https://www.kaigokensaku.mhlw.go.jp/28/index.php?action_kouhyou_detail_004_kani=true&JigyosyoCd=2890800275-00&ServiceCd=720&Type=search", "url2": "http://www.tokuyo-furusato.or.jp" }, "geometry": { "type": "Point", "coordinates": [ 135.073708900000042, 34.6364484 ] } },
{ "type": "Feature", "properties": { "内容": "社会福祉法人　神港園　神港園しあわせの家デイサービスセンター【認知症対応型通所介護】神戸市北区しあわせの村１番１０号", "url": "https://www.kaigokensaku.mhlw.go.jp/28/index.php?action_kouhyou_detail_004_kani=true&JigyosyoCd=2875000560-00&ServiceCd=720&Type=search", "url2": "http://www.shinkouen.or.jp/" }, "geometry": { "type": "Point", "coordinates": [ 135.1155589, 34.7087213 ] } },
{ "type": "Feature", "properties": { "内容": "生活協同組合コープこうべデイサービス百合が丘【認知症対応型通所介護】兵庫県神戸市北区緑町２丁目３－１３", "url": "https://www.kaigokensaku.mhlw.go.jp/28/index.php?action_kouhyou_detail_004_kani=true&JigyosyoCd=2895000236-00&ServiceCd=720&Type=search", "url2": "http://kobe.coop.or.jp/" }, "geometry": { "type": "Point", "coordinates": [ 135.148855599999933, 34.7482702 ] } },
{ "type": "Feature", "properties": { "内容": "モンファミーユ北六甲【認知症対応型通所介護】谷上南町29番3号", "url": "https://www.kaigokensaku.mhlw.go.jp/28/index.php?action_kouhyou_detail_004_kani=true&JigyosyoCd=2895000301-00&ServiceCd=720&Type=search", "url2": "https://seihoukai-grp.jp/facility_post/kitarokko" }, "geometry": { "type": "Point", "coordinates": [ 135.174609799999985, 34.7619416 ] } },
{ "type": "Feature", "properties": { "内容": "ほっこりデイサービス【認知症対応型通所介護】兵庫県神戸市北区東有野台２丁目１１－７", "url": "https://www.kaigokensaku.mhlw.go.jp/28/index.php?action_kouhyou_detail_004_kani=true&JigyosyoCd=2895000319-00&ServiceCd=720&Type=search", "url2": "http://www.cgi-care.com/dayservice/" }, "geometry": { "type": "Point", "coordinates": [ 135.234416399999986, 34.8098893 ] } },
{ "type": "Feature", "properties": { "内容": "デイサービスきみどり【認知症対応型通所介護】兵庫県神戸市北区緑町7-1-26ラムール山の街ビル１階", "url": "https://www.kaigokensaku.mhlw.go.jp/28/index.php?action_kouhyou_detail_004_kani=true&JigyosyoCd=2895000384-00&ServiceCd=720&Type=search", "url2": "https://yumezou-kaigo.com/" }, "geometry": { "type": "Point", "coordinates": [ 135.1527307, 34.7464366 ] } },
{ "type": "Feature", "properties": { "内容": "ほっこりデイサービス東有野台1丁目【認知症対応型通所介護】兵庫県神戸市北区東有野台１-18-1", "url": "https://www.kaigokensaku.mhlw.go.jp/28/index.php?action_kouhyou_detail_004_kani=true&JigyosyoCd=2895000392-00&ServiceCd=720&Type=search", "url2": "http://www.cgi-care.com/" }, "geometry": { "type": "Point", "coordinates": [ 135.2348464, 34.8083893 ] } },
{ "type": "Feature", "properties": { "内容": "デイサービス　結の家【認知症対応型通所介護】兵庫県神戸市北区広陵町１丁目162-1クレア山の街　202", "url": "https://www.kaigokensaku.mhlw.go.jp/28/index.php?action_kouhyou_detail_004_kani=true&JigyosyoCd=2895000343-00&ServiceCd=720&Type=search", "url2": null }, "geometry": { "type": "Point", "coordinates": [ 135.1566745, 34.7508423 ] } },
{ "type": "Feature", "properties": { "内容": "つどい【認知症対応型通所介護】兵庫県神戸市北区藤原台中町5丁目1番2号", "url": "https://www.kaigokensaku.mhlw.go.jp/28/index.php?action_kouhyou_detail_004_kani=true&JigyosyoCd=2895000178-00&ServiceCd=720&Type=search", "url2": "http://fujinosato.info/" }, "geometry": { "type": "Point", "coordinates": [ 135.214662800000042, 34.8225235 ] } },
{ "type": "Feature", "properties": { "内容": "アクティブライフ神戸【認知症対応型通所介護】兵庫県神戸市中央区籠池通２－２－１０", "url": "https://www.kaigokensaku.mhlw.go.jp/28/index.php?action_kouhyou_detail_004_kani=true&JigyosyoCd=2875100873-00&ServiceCd=720&Type=search", "url2": "http://activelife.co.jp/" }, "geometry": { "type": "Point", "coordinates": [ 135.209570500000041, 34.7114671 ] } },
{ "type": "Feature", "properties": { "内容": "おひさまルーム【認知症対応型通所介護】北別府3-22-3105", "url": "https://www.kaigokensaku.mhlw.go.jp/28/index.php?action_kouhyou_detail_004_kani=true&JigyosyoCd=2895200125-00&ServiceCd=720&Type=search", "url2": null }, "geometry": { "type": "Point", "coordinates": [ 135.014998432990581, 34.67518461830835 ] } },
{ "type": "Feature", "properties": { "内容": "サフィニアデイサービス【認知症対応型通所介護】玉津町今津128-2", "url": "https://www.kaigokensaku.mhlw.go.jp/28/index.php?action_kouhyou_detail_004_kani=true&JigyosyoCd=2895200349-00&ServiceCd=720&Type=search", "url2": "https://safxinia.co.jp/" }, "geometry": { "type": "Point", "coordinates": [ 134.987011700000011, 34.6737188 ] } },
{ "type": "Feature", "properties": { "内容": "なでしこケアセンター【認知症対応型通所介護】兵庫県神戸市西区春日台５丁目１７４－１０", "url": "https://www.kaigokensaku.mhlw.go.jp/28/index.php?action_kouhyou_detail_004_kani=true&JigyosyoCd=2875200129-00&ServiceCd=720&Type=search", "url2": "https://www.with-kobe.or.jp/zaitaku/" }, "geometry": { "type": "Point", "coordinates": [ 134.988073799999938, 34.7022231 ] } },
{ "type": "Feature", "properties": { "内容": "デイサービスセンターさくらさく【認知症対応型通所介護】兵庫県神戸市西区月が丘1丁目41-12櫻ホーム西神", "url": "https://www.kaigokensaku.mhlw.go.jp/28/index.php?action_kouhyou_detail_004_kani=true&JigyosyoCd=2895200380-00&ServiceCd=720&Type=search", "url2": "https://seishin.sakuradani-fukushikai.com/" }, "geometry": { "type": "Point", "coordinates": [ 135.052487121565264, 34.756111177215743 ] } },
{ "type": "Feature", "properties": { "内容": "大津みやび野デイサービスセンター【認知症対応型通所介護】大津区大津町一丁目31-111", "url": "https://www.kaigokensaku.mhlw.go.jp/28/index.php?action_kouhyou_detail_004_kani=true&JigyosyoCd=2894000344-00&ServiceCd=720&Type=search", "url2": "http://www.katuhara.or.jp" }, "geometry": { "type": "Point", "coordinates": [ 134.611323399999947, 34.805342400000015 ] } },
{ "type": "Feature", "properties": { "内容": "グループホーム花みずき【認知症対応型通所介護】兵庫県姫路市豊富町豊富９１５－２", "url": "https://www.kaigokensaku.mhlw.go.jp/28/index.php?action_kouhyou_detail_004_kani=true&JigyosyoCd=2874001619-00&ServiceCd=720&Type=search", "url2": "http://izumi-kokoro.com" }, "geometry": { "type": "Point", "coordinates": [ 134.750701899999967, 34.8938156 ] } },
{ "type": "Feature", "properties": { "内容": "通所介護センターえがお【認知症対応型通所介護】尼崎市潮江３丁目１番８号", "url": "https://www.kaigokensaku.mhlw.go.jp/28/index.php?action_kouhyou_detail_004_kani=true&JigyosyoCd=2873001271-00&ServiceCd=720&Type=search", "url2": "http://www.chuoukai.or.jp" }, "geometry": { "type": "Point", "coordinates": [ 135.428884399999987, 34.7382839 ] } },
{ "type": "Feature", "properties": { "内容": "認知症対応型デイサービス立花あまの里【認知症対応型通所介護】水堂町1丁目10-37特別養護老人ホーム立花あまの里", "url": "https://www.kaigokensaku.mhlw.go.jp/28/index.php?action_kouhyou_detail_004_kani=true&JigyosyoCd=2893000584-00&ServiceCd=720&Type=search", "url2": "http://www.shafuku-nijinokai.or.jp/ama_day.html" }, "geometry": { "type": "Point", "coordinates": [ 135.396376700000019, 34.7423911 ] } },
{ "type": "Feature", "properties": { "内容": "社会福祉法人　阪神共同福祉会　園田苑【認知症対応型通所介護】尼崎市小中島２丁目１０－２０", "url": "https://www.kaigokensaku.mhlw.go.jp/28/index.php?action_kouhyou_detail_004_kani=true&JigyosyoCd=2873000729-00&ServiceCd=720&Type=search", "url2": "https://sonodaen.com" }, "geometry": { "type": "Point", "coordinates": [ 135.443761, 34.7482302 ] } },
{ "type": "Feature", "properties": { "内容": "喜楽苑認知症対応型デイサービスセンター【認知症対応型通所介護】兵庫県尼崎市長洲西通２丁目８番３号", "url": "https://www.kaigokensaku.mhlw.go.jp/28/index.php?action_kouhyou_detail_004_kani=true&JigyosyoCd=2873000877-00&ServiceCd=720&Type=search", "url2": "http://www.kirakuen.or.jp" }, "geometry": { "type": "Point", "coordinates": [ 135.428298700000028, 34.7256824 ] } },
{ "type": "Feature", "properties": { "内容": "けま喜楽苑デイサービスセンター【認知症対応型通所介護】尼崎市食満２丁目２２番１号", "url": "https://www.kaigokensaku.mhlw.go.jp/28/index.php?action_kouhyou_detail_004_kani=true&JigyosyoCd=2873001461-00&ServiceCd=720&Type=search", "url2": "http://www.kirakuen.or.jp" }, "geometry": { "type": "Point", "coordinates": [ 135.4310752, 34.7627673 ] } },
{ "type": "Feature", "properties": { "内容": "認知症対応型デイサービスあんしん24【認知症対応型通所介護】兵庫県尼崎市金楽寺町2丁目7-7喜楽苑地域ケアセンター　あんしん24", "url": "https://www.kaigokensaku.mhlw.go.jp/28/index.php?action_kouhyou_detail_004_kani=true&JigyosyoCd=2893000394-00&ServiceCd=720&Type=search", "url2": "http://www.kirakuen.or.jp" }, "geometry": { "type": "Point", "coordinates": [ 135.427798700000039, 34.7245741 ] } },
{ "type": "Feature", "properties": { "内容": "デイサービこころあい武庫之荘【認知症対応型通所介護】兵庫県尼崎市南武庫之荘8丁目18-27グループホームこころあい武庫之荘", "url": "https://www.kaigokensaku.mhlw.go.jp/28/index.php?action_kouhyou_detail_004_kani=true&JigyosyoCd=2893000840-00&ServiceCd=720&Type=search", "url2": "http://www.gh-field.co.jp" }, "geometry": { "type": "Point", "coordinates": [ 135.383497299999988, 34.7461287 ] } },
{ "type": "Feature", "properties": { "内容": "デイサービスセンター大窪のお家【認知症対応型通所介護】明石市大久保町大窪942番地5", "url": "https://www.kaigokensaku.mhlw.go.jp/28/index.php?action_kouhyou_detail_004_kani=true&JigyosyoCd=2892000098-00&ServiceCd=720&Type=search", "url2": "http://www.you-and-i-kaigo.com" }, "geometry": { "type": "Point", "coordinates": [ 134.947909900000013, 34.687844 ] } },
{ "type": "Feature", "properties": { "内容": "少人数個別対応型デイサービスゆとり庵魚住【認知症対応型通所介護】魚住町西岡2142ゆとり庵魚住", "url": "https://www.kaigokensaku.mhlw.go.jp/28/index.php?action_kouhyou_detail_004_kani=true&JigyosyoCd=2892000296-00&ServiceCd=720&Type=search", "url2": "http://www.hakuaif.or.jp/about/index.html" }, "geometry": { "type": "Point", "coordinates": [ 134.898236499999939, 34.7088473 ] } },
{ "type": "Feature", "properties": { "内容": "協同の苑　藤江デイサービス【認知症対応型通所介護】藤江８９０－９０", "url": "https://www.kaigokensaku.mhlw.go.jp/28/index.php?action_kouhyou_detail_004_kani=true&JigyosyoCd=2892000387-00&ServiceCd=720&Type=search", "url2": "http://www.kyodo-no-sono.or.jp" }, "geometry": { "type": "Point", "coordinates": [ 134.95818410000004, 34.6729153 ] } },
{ "type": "Feature", "properties": { "内容": "コープこうべデイサービス上ノ丸【認知症対応型通所介護】兵庫県明石市上ノ丸３－１２－２", "url": "https://www.kaigokensaku.mhlw.go.jp/28/index.php?action_kouhyou_detail_004_kani=true&JigyosyoCd=2892000379-00&ServiceCd=720&Type=search", "url2": "http://www.kobe.coop.or.jp/" }, "geometry": { "type": "Point", "coordinates": [ 134.99872849999997, 34.6544752 ] } },
{ "type": "Feature", "properties": { "内容": "オリヴィエ東山【認知症対応型通所介護】兵庫県西宮市東山台1丁目5番地", "url": "https://www.kaigokensaku.mhlw.go.jp/28/index.php?action_kouhyou_detail_004_kani=true&JigyosyoCd=2890900612-00&ServiceCd=720&Type=search", "url2": "https://www.olivier.com.mx/" }, "geometry": { "type": "Point", "coordinates": [ 135.31024020000001, 34.8287733 ] } },
{ "type": "Feature", "properties": { "内容": "デイサービスセンターアリス甲子園【認知症対応型通所介護】兵庫県西宮市枝川町8-68高齢者地域福祉連携施設アリス甲子園", "url": "https://www.kaigokensaku.mhlw.go.jp/28/index.php?action_kouhyou_detail_004_kani=true&JigyosyoCd=2890900208-00&ServiceCd=720&Type=search", "url2": "http://www.toyonakafamily.jp/" }, "geometry": { "type": "Point", "coordinates": [ 135.3646215, 34.7083438 ] } },
{ "type": "Feature", "properties": { "内容": "神港園レインボー西宮認知症対応型デイサービス【認知症対応型通所介護】西宮市上田西町3-28レインボー西宮　1階", "url": "https://www.kaigokensaku.mhlw.go.jp/28/index.php?action_kouhyou_detail_004_kani=true&JigyosyoCd=2890900448-00&ServiceCd=720&Type=search", "url2": "https://www.shinkouen.or.jp/shisetsu/rainbow_nishinomiya.html" }, "geometry": { "type": "Point", "coordinates": [ 135.3705267, 34.7109169 ] } },
{ "type": "Feature", "properties": { "内容": "浜脇デイサービスセンター【認知症対応型通所介護】西宮市久保町１４－１２", "url": "https://www.kaigokensaku.mhlw.go.jp/28/index.php?action_kouhyou_detail_004_kani=true&JigyosyoCd=2870900566-00&ServiceCd=720&Type=search", "url2": "https://www.nishinomiya-fukushi.jp/" }, "geometry": { "type": "Point", "coordinates": [ 135.338909199999989, 34.7260028 ] } },
{ "type": "Feature", "properties": { "内容": "宝塚医療生協あったかハウス今津【認知症対応型通所介護】兵庫県西宮市今津山中町３番２３号", "url": "https://www.kaigokensaku.mhlw.go.jp/28/index.php?action_kouhyou_detail_004_kani=true&JigyosyoCd=2890900174-00&ServiceCd=720&Type=search", "url2": "http://www@takarazuka-mcoop.net" }, "geometry": { "type": "Point", "coordinates": [ 135.355732699999976, 34.730889 ] } },
{ "type": "Feature", "properties": { "内容": "アクティブライフ夙川【認知症対応型通所介護】兵庫県西宮市樋之池町１６－４", "url": "https://www.kaigokensaku.mhlw.go.jp/28/index.php?action_kouhyou_detail_004_kani=true&JigyosyoCd=2870900145-00&ServiceCd=720&Type=search", "url2": "http://www.activelife.co.jp" }, "geometry": { "type": "Point", "coordinates": [ 135.318488200000047, 34.753075 ] } },
{ "type": "Feature", "properties": { "内容": "にしのみや苑通所介護事業所【認知症対応型通所介護】西宮市甲山町５３番地", "url": "https://www.kaigokensaku.mhlw.go.jp/28/index.php?action_kouhyou_detail_004_kani=true&JigyosyoCd=2870900467-00&ServiceCd=720&Type=search", "url2": "http://www.nishinomiyaen.jp/" }, "geometry": { "type": "Point", "coordinates": [ 135.32323150000002, 34.7757951 ] } },
{ "type": "Feature", "properties": { "内容": "第２シルバーコースト甲子園　デイサービスセンター【認知症対応型通所介護】兵庫県西宮市枝川町17-55", "url": "https://www.kaigokensaku.mhlw.go.jp/28/index.php?action_kouhyou_detail_004_kani=true&JigyosyoCd=2890900232-00&ServiceCd=720&Type=search", "url2": "http://www.ensyokai.com/" }, "geometry": { "type": "Point", "coordinates": [ 135.358649799999966, 34.7117902 ] } },
{ "type": "Feature", "properties": { "内容": "今津の家【認知症対応型通所介護】兵庫県西宮市今津山中町2-12", "url": "https://www.kaigokensaku.mhlw.go.jp/28/index.php?action_kouhyou_detail_004_kani=true&JigyosyoCd=2890900182-00&ServiceCd=720&Type=search", "url2": "https://chiikinoie.com/guide/05/index.html#contentsGuidePrice" }, "geometry": { "type": "Point", "coordinates": [ 135.3552344, 34.7308703 ] } },
{ "type": "Feature", "properties": { "内容": "デイサービスくにうみ【認知症対応型通所介護】兵庫県洲本市下加茂一丁目６－６", "url": "https://www.kaigokensaku.mhlw.go.jp/28/index.php?action_kouhyou_detail_004_kani=true&JigyosyoCd=2891500197-00&ServiceCd=720&Type=search", "url2": "http://www.hwc.or.jp/kuniumi" }, "geometry": { "type": "Point", "coordinates": [ 134.877151499999968, 34.3477001 ] } },
{ "type": "Feature", "properties": { "内容": "地域福祉センター「ハーブあしや」【認知症対応型通所介護】芦屋市潮見町31-1", "url": "https://www.kaigokensaku.mhlw.go.jp/28/index.php?action_kouhyou_detail_004_kani=true&JigyosyoCd=2871000127-00&ServiceCd=720&Type=search", "url2": "http://www.kirakuen.or.jp" }, "geometry": { "type": "Point", "coordinates": [ 135.306190099999981, 34.7161867 ] } },
{ "type": "Feature", "properties": { "内容": "アクティブライフ芦屋【認知症対応型通所介護】岩園町11-15", "url": "https://www.kaigokensaku.mhlw.go.jp/28/index.php?action_kouhyou_detail_004_kani=true&JigyosyoCd=2871000457-00&ServiceCd=720&Type=search", "url2": "https://www.activelife.co.jp/" }, "geometry": { "type": "Point", "coordinates": [ 135.313533399999983, 34.7428232 ] } },
{ "type": "Feature", "properties": { "内容": "ディサービスこころあい芦屋【認知症対応型通所介護】兵庫県芦屋市岩園町29番14号ディサービスこころあい芦屋", "url": "https://www.kaigokensaku.mhlw.go.jp/28/index.php?action_kouhyou_detail_004_kani=true&JigyosyoCd=2891000032-00&ServiceCd=720&Type=search", "url2": null }, "geometry": { "type": "Point", "coordinates": [ 135.313551600000011, 34.7470149 ] } },
{ "type": "Feature", "properties": { "内容": "協同の苑　ケイ・メゾンときめきデイサービス【認知症対応型通所介護】兵庫県伊丹市森本１－８－１９", "url": "https://www.kaigokensaku.mhlw.go.jp/28/index.php?action_kouhyou_detail_004_kani=true&JigyosyoCd=2873300210-00&ServiceCd=720&Type=search", "url2": "http://www.kyodo-no-sono.or.jp" }, "geometry": { "type": "Point", "coordinates": [ 135.429252799999972, 34.7789376 ] } },
{ "type": "Feature", "properties": { "内容": "（株)北摂福祉研究所【認知症対応型通所介護】兵庫県伊丹市荒牧５－７－１６", "url": "https://www.kaigokensaku.mhlw.go.jp/28/index.php?action_kouhyou_detail_004_kani=true&JigyosyoCd=2893300026-00&ServiceCd=720&Type=search", "url2": "http://www.hokusetu-fukusi.co.jp" }, "geometry": { "type": "Point", "coordinates": [ 135.382104, 34.8097751 ] } },
{ "type": "Feature", "properties": { "内容": "のびのび倶楽部【認知症対応型通所介護】兵庫県伊丹市荒牧南３丁目４-３６のびのび倶楽部", "url": "https://www.kaigokensaku.mhlw.go.jp/28/index.php?action_kouhyou_detail_004_kani=true&JigyosyoCd=2893300125-00&ServiceCd=720&Type=search", "url2": "http://www.hokusetu-fukusi.co.jp/service/nobinobiclub/" }, "geometry": { "type": "Point", "coordinates": [ 135.384231600000021, 34.8061728 ] } },
{ "type": "Feature", "properties": { "内容": "SAIYOまなびの広場伊丹校【認知症対応型通所介護】西野2-408", "url": "https://www.kaigokensaku.mhlw.go.jp/28/index.php?action_kouhyou_detail_004_kani=true&JigyosyoCd=2893300257-00&ServiceCd=720&Type=search", "url2": "saiyo-kaigo.com" }, "geometry": { "type": "Point", "coordinates": [ 135.379027, 34.7908495 ] } },
{ "type": "Feature", "properties": { "内容": "株式会社恵友会エトワール【認知症対応型通所介護】伊丹市南本町３丁目１－７ウィズ新伊丹1Ｆ", "url": "https://www.kaigokensaku.mhlw.go.jp/28/index.php?action_kouhyou_detail_004_kani=true&JigyosyoCd=2893300240-00&ServiceCd=720&Type=search", "url2": "http://keiyukai.html.xdomain.jp/" }, "geometry": { "type": "Point", "coordinates": [ 135.418459699999971, 34.7745363 ] } },
{ "type": "Feature", "properties": { "内容": "こすもす倶楽部デイサービスセンター【認知症対応型通所介護】兵庫県相生市野瀬１３７５－１", "url": "https://www.kaigokensaku.mhlw.go.jp/28/index.php?action_kouhyou_detail_004_kani=true&JigyosyoCd=2874200146-00&ServiceCd=720&Type=search", "url2": "http//ja.cosmos2000,com/" }, "geometry": { "type": "Point", "coordinates": [ 134.48334890000001, 34.7877418 ] } },
{ "type": "Feature", "properties": { "内容": "デイサービスやすらぎの里ひだか【認知症対応型通所介護】兵庫県豊岡市日高町伊府707", "url": "https://www.kaigokensaku.mhlw.go.jp/28/index.php?action_kouhyou_detail_004_kani=true&JigyosyoCd=2894400304-00&ServiceCd=720&Type=search", "url2": "http://www.tokuwakai.jp/" }, "geometry": { "type": "Point", "coordinates": [ 134.7330847, 35.4612598 ] } },
{ "type": "Feature", "properties": { "内容": "たじま荘認知症対応型通所介護事業所【認知症対応型通所介護】豊岡市日高町十戸４５５", "url": "https://www.kaigokensaku.mhlw.go.jp/28/index.php?action_kouhyou_detail_004_kani=true&JigyosyoCd=2894400031-00&ServiceCd=720&Type=search", "url2": "http://www.hwc.or.jp/tajima/" }, "geometry": { "type": "Point", "coordinates": [ 134.719833900000026, 35.4776868 ] } },
{ "type": "Feature", "properties": { "内容": "ことぶき苑認知症対応型通所介護事業所【認知症対応型通所介護】兵庫県豊岡市日高町祢布１３０４", "url": "https://www.kaigokensaku.mhlw.go.jp/28/index.php?action_kouhyou_detail_004_kani=true&JigyosyoCd=2894400098-00&ServiceCd=720&Type=search", "url2": "http:/www.hwc.or.jp/tajima/" }, "geometry": { "type": "Point", "coordinates": [ 134.765072799999984, 35.4646526 ] } },
{ "type": "Feature", "properties": { "内容": "よりあい処　和温【認知症対応型通所介護】豊岡市弥栄町３-１５", "url": "https://www.kaigokensaku.mhlw.go.jp/28/index.php?action_kouhyou_detail_004_kani=true&JigyosyoCd=2894400015-00&ServiceCd=720&Type=search", "url2": null }, "geometry": { "type": "Point", "coordinates": [ 134.822523, 35.5329432 ] } },
{ "type": "Feature", "properties": { "内容": "認知症デイサービスしのべ【認知症対応型通所介護】兵庫県加古川市別府町新野辺2528", "url": "https://www.kaigokensaku.mhlw.go.jp/28/index.php?action_kouhyou_detail_004_kani=true&JigyosyoCd=2892200631-00&ServiceCd=720&Type=search", "url2": "https://hinode.or.jp/" }, "geometry": { "type": "Point", "coordinates": [ 134.839624899999961, 34.729383800000015 ] } },
{ "type": "Feature", "properties": { "内容": "認知症対応型通所介護　ニッケ　れんげの家・加古川【認知症対応型通所介護】兵庫県加古川市加古川町本町239-1", "url": "https://www.kaigokensaku.mhlw.go.jp/28/index.php?action_kouhyou_detail_004_kani=true&JigyosyoCd=2892200235-00&ServiceCd=720&Type=search", "url2": "http://www.nikke-care-service.co.jp/" }, "geometry": { "type": "Point", "coordinates": [ 134.8289565, 34.7698186 ] } },
{ "type": "Feature", "properties": { "内容": "パラディさつき苑ディサービスセンター【認知症対応型通所介護】兵庫県加古川市西神吉町岸224", "url": "https://www.kaigokensaku.mhlw.go.jp/28/index.php?action_kouhyou_detail_004_kani=true&JigyosyoCd=2892200490-00&ServiceCd=720&Type=search", "url2": "qqvz6xw9k@cap.ocn.ne.jp" }, "geometry": { "type": "Point", "coordinates": [ 134.80761659999996, 34.7889442 ] } },
{ "type": "Feature", "properties": { "内容": "少人数個別対応型デイサービスゆとり庵尾上【認知症対応型通所介護】兵庫県加古川市尾上町長田２５４－１", "url": "https://www.kaigokensaku.mhlw.go.jp/28/index.php?action_kouhyou_detail_004_kani=true&JigyosyoCd=2892200300-00&ServiceCd=720&Type=search", "url2": "https://hinode.or.jp/" }, "geometry": { "type": "Point", "coordinates": [ 134.827942900000039, 34.747965 ] } },
{ "type": "Feature", "properties": { "内容": "少人数個別対応型デイサービス　ゆとり庵別府【認知症対応型通所介護】兵庫県加古川市別府町中島町26", "url": "https://www.kaigokensaku.mhlw.go.jp/28/index.php?action_kouhyou_detail_004_kani=true&JigyosyoCd=2892200375-00&ServiceCd=720&Type=search", "url2": "http://www.hakuaif.or.jp/facilities/yutorian2.html#befu" }, "geometry": { "type": "Point", "coordinates": [ 134.845591399999989, 34.7299389 ] } },
{ "type": "Feature", "properties": { "内容": "デイサービスセンターやすらぎ【認知症対応型通所介護】兵庫県赤穂市古浜町57番地", "url": "https://www.kaigokensaku.mhlw.go.jp/28/index.php?action_kouhyou_detail_004_kani=true&JigyosyoCd=2874300185-00&ServiceCd=720&Type=search", "url2": "http://www.sakuradanifukushikai.com/" }, "geometry": { "type": "Point", "coordinates": [ 134.37578510000003, 34.7603638 ] } },
{ "type": "Feature", "properties": { "内容": "デイサービスゆうゆう【認知症対応型通所介護】兵庫県西脇市西脇518-2地域支援ハウスゆうゆう", "url": "https://www.kaigokensaku.mhlw.go.jp/28/index.php?action_kouhyou_detail_004_kani=true&JigyosyoCd=2891800043-00&ServiceCd=720&Type=search", "url2": "http://seihoukai.com/yuyu/" }, "geometry": { "type": "Point", "coordinates": [ 134.970261, 34.9842644 ] } },
{ "type": "Feature", "properties": { "内容": "認知症対応型通所介護　花見鳥【認知症対応型通所介護】宝塚市山本西2丁目6番11号あいわ結愛ガーデン", "url": "https://www.kaigokensaku.mhlw.go.jp/28/index.php?action_kouhyou_detail_004_kani=true&JigyosyoCd=2891100196-00&ServiceCd=720&Type=search", "url2": "http://www.aijinkai.or.jp/yume/" }, "geometry": { "type": "Point", "coordinates": [ 135.381036399999971, 34.8194132 ] } },
{ "type": "Feature", "properties": { "内容": "聖隷デイサービスセンターあゆむ【認知症対応型通所介護】兵庫県宝塚市逆瀬台６丁目1-2", "url": "https://www.kaigokensaku.mhlw.go.jp/28/index.php?action_kouhyou_detail_004_kani=true&JigyosyoCd=2871100224-00&ServiceCd=720&Type=search", "url2": "http://www.seirei.or.jp/hq/" }, "geometry": { "type": "Point", "coordinates": [ 135.330334671240706, 34.793844859993904 ] } },
{ "type": "Feature", "properties": { "内容": "アクティブライフ中山倶楽部【認知症対応型通所介護】宝塚市中山台２－１７－３０", "url": "https://www.kaigokensaku.mhlw.go.jp/28/index.php?action_kouhyou_detail_004_kani=true&JigyosyoCd=2871100307-00&ServiceCd=720&Type=search", "url2": "http://activelife.co.jp/" }, "geometry": { "type": "Point", "coordinates": [ 135.370587800000067, 34.8281226 ] } },
{ "type": "Feature", "properties": { "内容": "児玉診療所デイサービス「のどか」【認知症対応型通所介護】宝塚市川面3丁目24番9号", "url": "https://www.kaigokensaku.mhlw.go.jp/28/index.php?action_kouhyou_detail_004_kani=true&JigyosyoCd=2871101255-00&ServiceCd=720&Type=search", "url2": "http://www.soreiyu.net/" }, "geometry": { "type": "Point", "coordinates": [ 135.343293200000062, 34.811188 ] } },
{ "type": "Feature", "properties": { "内容": "サポートハウス中山ちどり【認知症対応型通所介護】宝塚市中山桜台1丁目7番1号", "url": "https://www.kaigokensaku.mhlw.go.jp/28/index.php?action_kouhyou_detail_004_kani=true&JigyosyoCd=2891100139-00&ServiceCd=720&Type=search", "url2": "http://www.chidori.or.jp" }, "geometry": { "type": "Point", "coordinates": [ 135.3680213, 34.8307 ] } },
{ "type": "Feature", "properties": { "内容": "グループホーム　ゆうわの家【認知症対応型通所介護】兵庫県三木市与呂木683-397", "url": "https://www.kaigokensaku.mhlw.go.jp/28/index.php?action_kouhyou_detail_004_kani=true&JigyosyoCd=2872300658-00&ServiceCd=720&Type=search", "url2": "http://yuwa-fukushikai.or.jp/" }, "geometry": { "type": "Point", "coordinates": [ 135.009195640475468, 34.807770388527182 ] } },
{ "type": "Feature", "properties": { "内容": "早川デイサービス　げんき倶楽部【認知症対応型通所介護】兵庫県三木市加佐字八ヶ坪３３７番地", "url": "https://www.kaigokensaku.mhlw.go.jp/28/index.php?action_kouhyou_detail_004_kani=true&JigyosyoCd=2872300435-00&ServiceCd=720&Type=search", "url2": "http://genki-cl.jp/" }, "geometry": { "type": "Point", "coordinates": [ 134.980586499999959, 34.8121173 ] } },
{ "type": "Feature", "properties": { "内容": "デイサービスセンターみき【認知症対応型通所介護】兵庫県三木市志染町中自由が丘2丁目89", "url": "https://www.kaigokensaku.mhlw.go.jp/28/index.php?action_kouhyou_detail_004_kani=true&JigyosyoCd=2892300035-00&ServiceCd=720&Type=search", "url2": null }, "geometry": { "type": "Point", "coordinates": [ 135.0176567, 34.7786472 ] } },
{ "type": "Feature", "properties": { "内容": "ハピネス川西シルバーデイサービス【認知症対応型通所介護】兵庫県川西市加茂3-13-26", "url": "https://www.kaigokensaku.mhlw.go.jp/28/index.php?action_kouhyou_detail_004_kani=true&JigyosyoCd=2873100388-00&ServiceCd=720&Type=search", "url2": "http://www.seisin.or.jp" }, "geometry": { "type": "Point", "coordinates": [ 135.4025504, 34.81293 ] } },
{ "type": "Feature", "properties": { "内容": "デイサービスセンターこもれび【認知症対応型通所介護】兵庫県小野市久保木町1561-24", "url": "https://www.kaigokensaku.mhlw.go.jp/28/index.php?action_kouhyou_detail_004_kani=true&JigyosyoCd=2891900041-00&ServiceCd=720&Type=search", "url2": "http://nukumori-komorebi.com" }, "geometry": { "type": "Point", "coordinates": [ 134.95659610000007, 34.8746663 ] } },
{ "type": "Feature", "properties": { "内容": "デイサービスセンターこみなみ【認知症対応型通所介護】兵庫県小野市市場町２５５番地", "url": "https://www.kaigokensaku.mhlw.go.jp/28/index.php?action_kouhyou_detail_004_kani=true&JigyosyoCd=2891900082-00&ServiceCd=720&Type=search", "url2": "https://www.kominami.co.jp/" }, "geometry": { "type": "Point", "coordinates": [ 134.9371739, 34.8243646 ] } },
{ "type": "Feature", "properties": { "内容": "ユピテル三田【認知症対応型通所介護】兵庫県三田市中町７－３４", "url": "https://www.kaigokensaku.mhlw.go.jp/28/index.php?action_kouhyou_detail_004_kani=true&JigyosyoCd=2871200396-00&ServiceCd=720&Type=search", "url2": null }, "geometry": { "type": "Point", "coordinates": [ 135.22888503671993, 34.885848890436392 ] } },
{ "type": "Feature", "properties": { "内容": "ひだまりの家デイサービスセンター【認知症対応型通所介護】兵庫県三田市三輪2丁目1番10号グループホームひだまりの家", "url": "https://www.kaigokensaku.mhlw.go.jp/28/index.php?action_kouhyou_detail_004_kani=true&JigyosyoCd=2891200061-00&ServiceCd=720&Type=search", "url2": "http://www.loz-koei.com" }, "geometry": { "type": "Point", "coordinates": [ 135.224650600000018, 34.8897389 ] } },
{ "type": "Feature", "properties": { "内容": "篠山すみれ園　デイサービスセンター【認知症対応型通所介護】丹波篠山市今田町釜屋35番地", "url": "https://www.kaigokensaku.mhlw.go.jp/28/index.php?action_kouhyou_detail_004_kani=true&JigyosyoCd=2871400301-00&ServiceCd=720&Type=search", "url2": "http://www.sasayama-sumire.com" }, "geometry": { "type": "Point", "coordinates": [ 135.129171400000018, 34.962571600000011 ] } },
{ "type": "Feature", "properties": { "内容": "デイサービスしゃくなげ【認知症対応型通所介護】兵庫県丹波篠山市川北１１７４－２", "url": "https://www.kaigokensaku.mhlw.go.jp/28/index.php?action_kouhyou_detail_004_kani=true&JigyosyoCd=2891400018-00&ServiceCd=720&Type=search", "url2": "mpkx93582@leto.eonet.ne.jp" }, "geometry": { "type": "Point", "coordinates": [ 135.182501199999933, 35.0789185 ] } },
{ "type": "Feature", "properties": { "内容": "真愛の家　まごころ【認知症対応型通所介護】兵庫県養父市上野1060", "url": "https://www.kaigokensaku.mhlw.go.jp/28/index.php?action_kouhyou_detail_004_kani=true&JigyosyoCd=2894800016-00&ServiceCd=720&Type=search", "url2": "https://www.sinai-kaigo.com/" }, "geometry": { "type": "Point", "coordinates": [ 134.785435624554225, 35.378827777599646 ] } },
{ "type": "Feature", "properties": { "内容": "スマイル【認知症対応型通所介護】氷上町市辺670-3", "url": "https://www.kaigokensaku.mhlw.go.jp/28/index.php?action_kouhyou_detail_004_kani=true&JigyosyoCd=2891300127-00&ServiceCd=720&Type=search", "url2": "http://e-smilecare.com" }, "geometry": { "type": "Point", "coordinates": [ 135.048445230723246, 35.167487865344263 ] } },
{ "type": "Feature", "properties": { "内容": "メディケア柏原デイサービスセンター【認知症対応型通所介護】兵庫県丹波市柏原町柏原1436-1", "url": "https://www.kaigokensaku.mhlw.go.jp/28/index.php?action_kouhyou_detail_004_kani=true&JigyosyoCd=2891300036-00&ServiceCd=720&Type=search", "url2": "http://www.mdnt.biz/seihoukai-medi-kaibara/index.html" }, "geometry": { "type": "Point", "coordinates": [ 135.073757500000056, 35.1324554 ] } },
{ "type": "Feature", "properties": { "内容": "こもれびの郷【認知症対応型通所介護】和田山町宮田187-4", "url": "https://www.kaigokensaku.mhlw.go.jp/28/index.php?action_kouhyou_detail_004_kani=true&JigyosyoCd=2894900188-00&ServiceCd=720&Type=search", "url2": "https://www.shunyokai.or.jp" }, "geometry": { "type": "Point", "coordinates": [ 134.825506100000041, 35.3583481 ] } },
{ "type": "Feature", "properties": { "内容": "朝来市健康・福祉拠点施設　デイサービスあすなろ【認知症対応型通所介護】兵庫県朝来市和田山町竹田２０６３番地３", "url": "https://www.kaigokensaku.mhlw.go.jp/28/index.php?action_kouhyou_detail_004_kani=true&JigyosyoCd=2894900097-00&ServiceCd=720&Type=search", "url2": "http://hwc.or.jp/ritsuunnosato/" }, "geometry": { "type": "Point", "coordinates": [ 134.841834756483451, 35.292323708191709 ] } },
{ "type": "Feature", "properties": { "内容": "宅老所ふらっと【認知症対応型通所介護】朝来市立脇4－1", "url": "https://www.kaigokensaku.mhlw.go.jp/28/index.php?action_kouhyou_detail_004_kani=true&JigyosyoCd=2894900022-00&ServiceCd=720&Type=search", "url2": null }, "geometry": { "type": "Point", "coordinates": [ 134.796479399999953, 35.2472889 ] } },
{ "type": "Feature", "properties": { "内容": "しおさいデイサービスセンター【認知症対応型通所介護】兵庫県淡路市郡家374番地1", "url": "https://www.kaigokensaku.mhlw.go.jp/28/index.php?action_kouhyou_detail_004_kani=true&JigyosyoCd=2891600013-00&ServiceCd=720&Type=search", "url2": "http://www.chidorikai.or.jp" }, "geometry": { "type": "Point", "coordinates": [ 134.8454693, 34.474902 ] } },
{ "type": "Feature", "properties": { "内容": "あわじ荘認知症対応型通所介護事業所【認知症対応型通所介護】淡路市野島貴船２２９－１", "url": "https://www.kaigokensaku.mhlw.go.jp/28/index.php?action_kouhyou_detail_004_kani=true&JigyosyoCd=2891600021-00&ServiceCd=720&Type=search", "url2": "http://www.hwc.or.jp/awaji/" }, "geometry": { "type": "Point", "coordinates": [ 134.9742569, 34.584217 ] } },
{ "type": "Feature", "properties": { "内容": "デイサービスくるま花水木【認知症対応型通所介護】兵庫県淡路市久留麻236番地", "url": "https://www.kaigokensaku.mhlw.go.jp/28/index.php?action_kouhyou_detail_004_kani=true&JigyosyoCd=2891600096-00&ServiceCd=720&Type=search", "url2": "http://kurumahanamizuki.com/" }, "geometry": { "type": "Point", "coordinates": [ 134.990475306745878, 34.532004838519399 ] } },
{ "type": "Feature", "properties": { "内容": "聖隷カーネーションホームデイサービスセンターうっとこ【認知症対応型通所介護】兵庫県淡路市久留麻1863番地聖隷カーネーションホーム", "url": "https://www.kaigokensaku.mhlw.go.jp/28/index.php?action_kouhyou_detail_004_kani=true&JigyosyoCd=2891600138-00&ServiceCd=720&Type=search", "url2": "http://www.seirei.or.jp/elderlyhome/carnation/" }, "geometry": { "type": "Point", "coordinates": [ 134.987034799999947, 34.5239377 ] } },
{ "type": "Feature", "properties": { "内容": "しあわせ荘デイサービスセンター【認知症対応型通所介護】兵庫県多可郡多可町中区鍛冶屋763-3", "url": "https://www.kaigokensaku.mhlw.go.jp/28/index.php?action_kouhyou_detail_004_kani=true&JigyosyoCd=2872700303-00&ServiceCd=720&Type=search", "url2": "https://siawase-sou.com" }, "geometry": { "type": "Point", "coordinates": [ 134.9312459, 35.0702102 ] } },
{ "type": "Feature", "properties": { "内容": "デイサービス琴池【認知症対応型通所介護】兵庫県加古郡稲美町国安字新開1256番地ケアハウス万葉の郷１Ｆ　北側", "url": "https://www.kaigokensaku.mhlw.go.jp/28/index.php?action_kouhyou_detail_004_kani=true&JigyosyoCd=2892800059-00&ServiceCd=720&Type=search", "url2": "http://hinode.or.jp" }, "geometry": { "type": "Point", "coordinates": [ 134.917617770500186, 34.746861721585375 ] } },
{ "type": "Feature", "properties": { "内容": "福崎町第２老人デイサービスセンター　すみよしの郷【認知症対応型通所介護】兵庫県神崎郡福崎町大貫４４６番地", "url": "https://www.kaigokensaku.mhlw.go.jp/28/index.php?action_kouhyou_detail_004_kani=true&JigyosyoCd=2873400556-00&ServiceCd=720&Type=search", "url2": "https://www.shakyo.or.jp/hp/index.php?s=1236" }, "geometry": { "type": "Point", "coordinates": [ 134.784290300000066, 34.9447558 ] } },
{ "type": "Feature", "properties": { "内容": "ふるさとの家【認知症対応型通所介護】兵庫県神崎郡福崎町南田原1185", "url": "https://www.kaigokensaku.mhlw.go.jp/28/index.php?action_kouhyou_detail_004_kani=true&JigyosyoCd=2893400024-00&ServiceCd=720&Type=search", "url2": null }, "geometry": { "type": "Point", "coordinates": [ 134.768912521070888, 34.942155701964104 ] } },
{ "type": "Feature", "properties": { "内容": "まほろばの里デイサービスセンター【認知症対応型通所介護】兵庫県揖保郡太子町塚森125-1", "url": "https://www.kaigokensaku.mhlw.go.jp/28/index.php?action_kouhyou_detail_004_kani=true&JigyosyoCd=2874100486-00&ServiceCd=720&Type=search", "url2": "http://mahorobanosato.jp/" }, "geometry": { "type": "Point", "coordinates": [ 134.570466600000032, 34.8142658 ] } },
{ "type": "Feature", "properties": { "内容": "ほうらいの里　デイサービスセンター【認知症対応型通所介護】兵庫県赤穂郡上郡町中野１１１８番地１", "url": "https://www.kaigokensaku.mhlw.go.jp/28/index.php?action_kouhyou_detail_004_kani=true&JigyosyoCd=2873900076-00&ServiceCd=720&Type=search", "url2": "http://www.hohrainosato.com/" }, "geometry": { "type": "Point", "coordinates": [ 134.393328099999962, 34.8562546 ] } },
{ "type": "Feature", "properties": { "内容": "清音デイサービスセンター【認知症対応型通所介護】兵庫県赤穂郡上郡町與井42-1", "url": "https://www.kaigokensaku.mhlw.go.jp/28/index.php?action_kouhyou_detail_004_kani=true&JigyosyoCd=2893900023-00&ServiceCd=720&Type=search", "url2": "http://hohrainosato.com/" }, "geometry": { "type": "Point", "coordinates": [ 134.36834410824062, 34.862254101725512 ] } },
{ "type": "Feature", "properties": { "内容": "朝陽ケ丘荘認知症対応型通所介護事業所【認知症対応型通所介護】兵庫県佐用郡佐用町平福138‐1", "url": "https://www.kaigokensaku.mhlw.go.jp/28/index.php?action_kouhyou_detail_004_kani=true&JigyosyoCd=2893700019-00&ServiceCd=720&Type=search", "url2": "http://www.hwc.or.jp/asahigaoka/" }, "geometry": { "type": "Point", "coordinates": [ 134.370706700000028, 35.0500188 ] } },
{ "type": "Feature", "properties": { "内容": "香美町社会福祉協議会香住ふれ愛介護センター認知症対応型共同生活援助事業所「かがやき」共用型指定認知症対応型通所介護事業所【認知症対応型通所介護】兵庫県美方郡香美町香住区無南垣９６", "url": "https://www.kaigokensaku.mhlw.go.jp/28/index.php?action_kouhyou_detail_004_kani=true&JigyosyoCd=2874500370-00&ServiceCd=720&Type=search", "url2": "https://www.kami-shakyo.org/care/302/" }, "geometry": { "type": "Point", "coordinates": [ 134.683706719000725, 35.651409888559392 ] } }
]
}
