{
"type": "FeatureCollection",
"name": "geo_28_高校",
"crs": { "type": "name", "properties": { "name": "urn:ogc:def:crs:EPSG::6668" } },
"features": [
{ "type": "Feature", "properties": { "P29_001": "28102", "P29_002": "D128210000013", "P29_003": "16004", "P29_004": "兵庫県立神戸高等学校", "P29_005": "兵庫県神戸市灘区城の下通1-5-1", "P29_006": "2", "P29_007": "0", "P29_008": "00", "P29_009": null }, "geometry": { "type": "Point", "coordinates": [ 135.214025157608205, 34.718349443428316 ] } },
{ "type": "Feature", "properties": { "P29_001": "28106", "P29_002": "D128210000031", "P29_003": "16004", "P29_004": "兵庫県立兵庫高等学校", "P29_005": "兵庫県神戸市長田区寺池町1-4-1", "P29_006": "2", "P29_007": "0", "P29_008": "00", "P29_009": null }, "geometry": { "type": "Point", "coordinates": [ 135.152003645917745, 34.673101515800212 ] } },
{ "type": "Feature", "properties": { "P29_001": "28106", "P29_002": "D128210000040", "P29_003": "16004", "P29_004": "兵庫県立夢野台高等学校", "P29_005": "兵庫県神戸市長田区房王寺町2-1-1", "P29_006": "2", "P29_007": "0", "P29_008": "00", "P29_009": null }, "geometry": { "type": "Point", "coordinates": [ 135.153431597512338, 34.677107053223018 ] } },
{ "type": "Feature", "properties": { "P29_001": "28106", "P29_002": "D128210000059", "P29_003": "16004", "P29_004": "兵庫県立長田高等学校", "P29_005": "兵庫県神戸市長田区池田谷町2-5", "P29_006": "2", "P29_007": "0", "P29_008": "00", "P29_009": null }, "geometry": { "type": "Point", "coordinates": [ 135.143810424959014, 34.669904899461436 ] } },
{ "type": "Feature", "properties": { "P29_001": "28201", "P29_002": "D128210000095", "P29_003": "16004", "P29_004": "兵庫県立姫路南高等学校", "P29_005": "兵庫県姫路市大津区天満191-5", "P29_006": "2", "P29_007": "0", "P29_008": "00", "P29_009": null }, "geometry": { "type": "Point", "coordinates": [ 134.610110956643126, 34.802868963035841 ] } },
{ "type": "Feature", "properties": { "P29_001": "28201", "P29_002": "D128210000102", "P29_003": "16004", "P29_004": "兵庫県立姫路工業高等学校", "P29_005": "兵庫県姫路市伊伝居600-1", "P29_006": "2", "P29_007": "0", "P29_008": "00", "P29_009": null }, "geometry": { "type": "Point", "coordinates": [ 134.698184396894561, 34.848006421606918 ] } },
{ "type": "Feature", "properties": { "P29_001": "28202", "P29_002": "D128210000139", "P29_003": "16004", "P29_004": "兵庫県立尼崎北高等学校", "P29_005": "兵庫県尼崎市塚口町5-40-1", "P29_006": "2", "P29_007": "0", "P29_008": "00", "P29_009": null }, "geometry": { "type": "Point", "coordinates": [ 135.408584146055119, 34.756038984360885 ] } },
{ "type": "Feature", "properties": { "P29_001": "28203", "P29_002": "D128210000166", "P29_003": "16004", "P29_004": "兵庫県立明石高等学校", "P29_005": "兵庫県明石市荷山町1744", "P29_006": "2", "P29_007": "0", "P29_008": "00", "P29_009": null }, "geometry": { "type": "Point", "coordinates": [ 135.008300037774319, 34.657366407976731 ] } },
{ "type": "Feature", "properties": { "P29_001": "28204", "P29_002": "D128210000184", "P29_003": "16004", "P29_004": "兵庫県立西宮高等学校", "P29_005": "兵庫県西宮市上甲東園2-4-32", "P29_006": "2", "P29_007": "0", "P29_008": "00", "P29_009": null }, "geometry": { "type": "Point", "coordinates": [ 135.352554843065064, 34.767008686121954 ] } },
{ "type": "Feature", "properties": { "P29_001": "28204", "P29_002": "D128210000193", "P29_003": "16004", "P29_004": "兵庫県立鳴尾高等学校", "P29_005": "兵庫県西宮市学文殿町2-1-60", "P29_006": "2", "P29_007": "0", "P29_008": "00", "P29_009": null }, "geometry": { "type": "Point", "coordinates": [ 135.371544441497804, 34.725975694510986 ] } },
{ "type": "Feature", "properties": { "P29_001": "28205", "P29_002": "D128210000200", "P29_003": "16004", "P29_004": "兵庫県立洲本実業高等学校", "P29_005": "兵庫県洲本市宇山2-8-65", "P29_006": "2", "P29_007": "0", "P29_008": "00", "P29_009": null }, "geometry": { "type": "Point", "coordinates": [ 134.882488446018669, 34.349061922482356 ] } },
{ "type": "Feature", "properties": { "P29_001": "28206", "P29_002": "D128210000219", "P29_003": "16004", "P29_004": "兵庫県立芦屋高等学校", "P29_005": "兵庫県芦屋市宮川町6-3", "P29_006": "2", "P29_007": "0", "P29_008": "00", "P29_009": null }, "geometry": { "type": "Point", "coordinates": [ 135.310298633180309, 34.728442369369269 ] } },
{ "type": "Feature", "properties": { "P29_001": "28207", "P29_002": "D128210000228", "P29_003": "16004", "P29_004": "兵庫県立伊丹高等学校", "P29_005": "兵庫県伊丹市緑ヶ丘7-31-1", "P29_006": "2", "P29_007": "0", "P29_008": "00", "P29_009": null }, "geometry": { "type": "Point", "coordinates": [ 135.40796726216405, 34.800005602303862 ] } },
{ "type": "Feature", "properties": { "P29_001": "28210", "P29_002": "D128210000255", "P29_003": "16004", "P29_004": "兵庫県立東播工業高等学校", "P29_005": "兵庫県加古川市東神吉町神吉1748-1", "P29_006": "2", "P29_007": "0", "P29_008": "00", "P29_009": null }, "geometry": { "type": "Point", "coordinates": [ 134.832985698654852, 34.798837878885422 ] } },
{ "type": "Feature", "properties": { "P29_001": "28229", "P29_002": "D128210000264", "P29_003": "16004", "P29_004": "兵庫県立龍野高等学校", "P29_005": "兵庫県たつの市龍野町日山554", "P29_006": "2", "P29_007": "0", "P29_008": "00", "P29_009": null }, "geometry": { "type": "Point", "coordinates": [ 134.537861665323589, 34.863750601261444 ] } },
{ "type": "Feature", "properties": { "P29_001": "28213", "P29_002": "D128210000273", "P29_003": "16004", "P29_004": "兵庫県立西脇工業高等学校", "P29_005": "兵庫県西脇市野村町1790", "P29_006": "2", "P29_007": "0", "P29_008": "00", "P29_009": null }, "geometry": { "type": "Point", "coordinates": [ 134.958921233269592, 34.973018364330287 ] } },
{ "type": "Feature", "properties": { "P29_001": "28214", "P29_002": "D128210000282", "P29_003": "16004", "P29_004": "兵庫県立宝塚高等学校", "P29_005": "兵庫県宝塚市逆瀬台2-2-1", "P29_006": "2", "P29_007": "0", "P29_008": "00", "P29_009": null }, "geometry": { "type": "Point", "coordinates": [ 135.328692543933471, 34.791559706355436 ] } },
{ "type": "Feature", "properties": { "P29_001": "28215", "P29_002": "D128210000291", "P29_003": "16004", "P29_004": "兵庫県立三木高等学校", "P29_005": "兵庫県三木市加佐931", "P29_006": "2", "P29_007": "0", "P29_008": "00", "P29_009": null }, "geometry": { "type": "Point", "coordinates": [ 134.982821291166488, 34.812802764821349 ] } },
{ "type": "Feature", "properties": { "P29_001": "28216", "P29_002": "D128210000308", "P29_003": "16004", "P29_004": "兵庫県立高砂高等学校", "P29_005": "兵庫県高砂市高砂町朝日町2-5-1", "P29_006": "2", "P29_007": "0", "P29_008": "00", "P29_009": null }, "geometry": { "type": "Point", "coordinates": [ 134.802837453355664, 34.755423199138541 ] } },
{ "type": "Feature", "properties": { "P29_001": "28218", "P29_002": "D128210000317", "P29_003": "16004", "P29_004": "兵庫県立小野高等学校", "P29_005": "兵庫県小野市西本町518", "P29_006": "2", "P29_007": "0", "P29_008": "00", "P29_009": null }, "geometry": { "type": "Point", "coordinates": [ 134.932984834846451, 34.845029856465551 ] } },
{ "type": "Feature", "properties": { "P29_001": "28301", "P29_002": "D128210000335", "P29_003": "16004", "P29_004": "兵庫県立猪名川高等学校", "P29_005": "兵庫県川辺郡猪名川町紫合字新林4-4", "P29_006": "2", "P29_007": "0", "P29_008": "00", "P29_009": null }, "geometry": { "type": "Point", "coordinates": [ 135.382723900543198, 34.907695683643063 ] } },
{ "type": "Feature", "properties": { "P29_001": "28215", "P29_002": "D128210000344", "P29_003": "16004", "P29_004": "兵庫県立吉川高等学校", "P29_005": "兵庫県三木市吉川町渡瀬300-12", "P29_006": "2", "P29_007": "0", "P29_008": "00", "P29_009": null }, "geometry": { "type": "Point", "coordinates": [ 135.098003542337722, 34.878965797673743 ] } },
{ "type": "Feature", "properties": { "P29_001": "28106", "P29_002": "D128210000371", "P29_003": "16004", "P29_004": "兵庫県立湊川高等学校", "P29_005": "兵庫県神戸市長田区寺池町1-4-1", "P29_006": "2", "P29_007": "0", "P29_008": "00", "P29_009": null }, "geometry": { "type": "Point", "coordinates": [ 135.151803494114915, 34.672919106086461 ] } },
{ "type": "Feature", "properties": { "P29_001": "28106", "P29_002": "D128210000380", "P29_003": "16004", "P29_004": "兵庫県立長田商業高等学校", "P29_005": "兵庫県神戸市長田区池田谷町2-5-1", "P29_006": "2", "P29_007": "0", "P29_008": "00", "P29_009": null }, "geometry": { "type": "Point", "coordinates": [ 135.143823658136057, 34.670396316675344 ] } },
{ "type": "Feature", "properties": { "P29_001": "28203", "P29_002": "D128210000406", "P29_003": "16004", "P29_004": "兵庫県立錦城高等学校", "P29_005": "兵庫県明石市明南町3-2-1", "P29_006": "2", "P29_007": "0", "P29_008": "00", "P29_009": null }, "geometry": { "type": "Point", "coordinates": [ 134.966298070084719, 34.674773198136329 ] } },
{ "type": "Feature", "properties": { "P29_001": "28101", "P29_002": "D128210000424", "P29_003": "16004", "P29_004": "兵庫県立御影高等学校", "P29_005": "兵庫県神戸市東灘区御影石町4-1-1", "P29_006": "2", "P29_007": "0", "P29_008": "00", "P29_009": null }, "geometry": { "type": "Point", "coordinates": [ 135.250476940455002, 34.717068047704586 ] } },
{ "type": "Feature", "properties": { "P29_001": "28207", "P29_002": "D128210000433", "P29_003": "16004", "P29_004": "兵庫県立阪神昆陽高等学校", "P29_005": "兵庫県伊丹市池尻7-108", "P29_006": "2", "P29_007": "0", "P29_008": "00", "P29_009": null }, "geometry": { "type": "Point", "coordinates": [ 135.376840676997375, 34.77983456926497 ] } },
{ "type": "Feature", "properties": { "P29_001": "28209", "P29_002": "D128210000488", "P29_003": "16004", "P29_004": "兵庫県立豊岡高等学校", "P29_005": "兵庫県豊岡市京町12-91", "P29_006": "2", "P29_007": "0", "P29_008": "00", "P29_009": null }, "geometry": { "type": "Point", "coordinates": [ 134.821052637155816, 35.539042393292597 ] } },
{ "type": "Feature", "properties": { "P29_001": "28212", "P29_002": "D128210000503", "P29_003": "16004", "P29_004": "兵庫県立赤穂高等学校", "P29_005": "兵庫県赤穂市海浜町139", "P29_006": "2", "P29_007": "0", "P29_008": "00", "P29_009": null }, "geometry": { "type": "Point", "coordinates": [ 134.398078452895277, 34.738630708009417 ] } },
{ "type": "Feature", "properties": { "P29_001": "28216", "P29_002": "D128210000521", "P29_003": "16004", "P29_004": "兵庫県立松陽高等学校", "P29_005": "兵庫県高砂市曽根町2794-1", "P29_006": "2", "P29_007": "0", "P29_008": "00", "P29_009": null }, "geometry": { "type": "Point", "coordinates": [ 134.777588466924556, 34.771850807685311 ] } },
{ "type": "Feature", "properties": { "P29_001": "28219", "P29_002": "D128210000549", "P29_003": "16004", "P29_004": "兵庫県立有馬高等学校", "P29_005": "兵庫県三田市天神2-1-50", "P29_006": "2", "P29_007": "0", "P29_008": "00", "P29_009": null }, "geometry": { "type": "Point", "coordinates": [ 135.220297745043638, 34.888103677815103 ] } },
{ "type": "Feature", "properties": { "P29_001": "28220", "P29_002": "D128210000558", "P29_003": "16004", "P29_004": "兵庫県立北条高等学校", "P29_005": "兵庫県加西市段下町847-5", "P29_006": "2", "P29_007": "0", "P29_008": "00", "P29_009": null }, "geometry": { "type": "Point", "coordinates": [ 134.85035599826108, 34.910004919252138 ] } },
{ "type": "Feature", "properties": { "P29_001": "28501", "P29_002": "D128210000576", "P29_003": "16004", "P29_004": "兵庫県立佐用高等学校", "P29_005": "兵庫県佐用郡佐用町佐用260", "P29_006": "2", "P29_007": "0", "P29_008": "00", "P29_009": null }, "geometry": { "type": "Point", "coordinates": [ 134.359711651588725, 35.010286531869269 ] } },
{ "type": "Feature", "properties": { "P29_001": "28585", "P29_002": "D128210000585", "P29_003": "16004", "P29_004": "兵庫県立香住高等学校", "P29_005": "兵庫県美方郡香美町香住区矢田40-1", "P29_006": "2", "P29_007": "0", "P29_008": "00", "P29_009": null }, "geometry": { "type": "Point", "coordinates": [ 134.612390684726677, 35.64098531886971 ] } },
{ "type": "Feature", "properties": { "P29_001": "28223", "P29_002": "D128210000594", "P29_003": "16004", "P29_004": "兵庫県立柏原高等学校", "P29_005": "兵庫県丹波市柏原町東奥50", "P29_006": "2", "P29_007": "0", "P29_008": "00", "P29_009": null }, "geometry": { "type": "Point", "coordinates": [ 135.08221463059175, 35.131920425819764 ] } },
{ "type": "Feature", "properties": { "P29_001": "28101", "P29_002": "D128210000601", "P29_003": "16004", "P29_004": "兵庫県立東灘高等学校", "P29_005": "兵庫県神戸市東灘区深江浜町50", "P29_006": "2", "P29_007": "0", "P29_008": "00", "P29_009": null }, "geometry": { "type": "Point", "coordinates": [ 135.300770186785655, 34.709945426952892 ] } },
{ "type": "Feature", "properties": { "P29_001": "28106", "P29_002": "D128210000610", "P29_003": "16004", "P29_004": "兵庫県立青雲高等学校", "P29_005": "兵庫県神戸市長田区池田谷町2-5", "P29_006": "2", "P29_007": "0", "P29_008": "00", "P29_009": null }, "geometry": { "type": "Point", "coordinates": [ 135.142702146381396, 34.670379981477097 ] } },
{ "type": "Feature", "properties": { "P29_001": "28203", "P29_002": "D128210000629", "P29_003": "16004", "P29_004": "兵庫県立明石西高等学校", "P29_005": "兵庫県明石市二見町西二見1642-1", "P29_006": "2", "P29_007": "0", "P29_008": "00", "P29_009": null }, "geometry": { "type": "Point", "coordinates": [ 134.880252920018364, 34.707044866874703 ] } },
{ "type": "Feature", "properties": { "P29_001": "28201", "P29_002": "D128210000674", "P29_003": "16004", "P29_004": "兵庫県立夢前高等学校", "P29_005": "兵庫県姫路市夢前町前之庄643-1", "P29_006": "2", "P29_007": "0", "P29_008": "00", "P29_009": null }, "geometry": { "type": "Point", "coordinates": [ 134.685771219084188, 34.961206595473314 ] } },
{ "type": "Feature", "properties": { "P29_001": "28201", "P29_002": "D128210000683", "P29_003": "16004", "P29_004": "兵庫県立家島高等学校", "P29_005": "兵庫県姫路市家島町宮1759-1", "P29_006": "2", "P29_007": "0", "P29_008": "00", "P29_009": null }, "geometry": { "type": "Point", "coordinates": [ 134.529738584077876, 34.668907204173671 ] } },
{ "type": "Feature", "properties": { "P29_001": "28446", "P29_002": "D128210000692", "P29_003": "16004", "P29_004": "兵庫県立神崎高等学校", "P29_005": "兵庫県神崎郡神河町福本488-1", "P29_006": "2", "P29_007": "0", "P29_008": "00", "P29_009": null }, "geometry": { "type": "Point", "coordinates": [ 134.773223115613717, 35.058893822784171 ] } },
{ "type": "Feature", "properties": { "P29_001": "28443", "P29_002": "D128210000709", "P29_003": "16004", "P29_004": "兵庫県立福崎高等学校", "P29_005": "兵庫県神崎郡福崎町福田234-1", "P29_006": "2", "P29_007": "0", "P29_008": "00", "P29_009": null }, "geometry": { "type": "Point", "coordinates": [ 134.750422840494707, 34.962813255010651 ] } },
{ "type": "Feature", "properties": { "P29_001": "28227", "P29_002": "D128210000736", "P29_003": "16004", "P29_004": "兵庫県立伊和高等学校", "P29_005": "兵庫県宍粟市一宮町安積616-2", "P29_006": "2", "P29_007": "0", "P29_008": "00", "P29_009": null }, "geometry": { "type": "Point", "coordinates": [ 134.578505472190756, 35.110879772039013 ] } },
{ "type": "Feature", "properties": { "P29_001": "28227", "P29_002": "D128210000745", "P29_003": "16004", "P29_004": "兵庫県立千種高等学校", "P29_005": "兵庫県宍粟市千種町千草727-2", "P29_006": "2", "P29_007": "0", "P29_008": "00", "P29_009": null }, "geometry": { "type": "Point", "coordinates": [ 134.446265367326305, 35.157222630302748 ] } },
{ "type": "Feature", "properties": { "P29_001": "28209", "P29_002": "D128210000754", "P29_003": "16004", "P29_004": "兵庫県立日高高等学校", "P29_005": "兵庫県豊岡市日高町岩中1", "P29_006": "2", "P29_007": "0", "P29_008": "00", "P29_009": null }, "geometry": { "type": "Point", "coordinates": [ 134.773674371291946, 35.469168599335212 ] } },
{ "type": "Feature", "properties": { "P29_001": "28209", "P29_002": "D128210000763", "P29_003": "16004", "P29_004": "兵庫県立出石高等学校", "P29_005": "兵庫県豊岡市出石町下谷35-1", "P29_006": "2", "P29_007": "0", "P29_008": "00", "P29_009": null }, "geometry": { "type": "Point", "coordinates": [ 134.880897862187254, 35.461266548570073 ] } },
{ "type": "Feature", "properties": { "P29_001": "28585", "P29_002": "D128210000772", "P29_003": "16004", "P29_004": "兵庫県立村岡高等学校", "P29_005": "兵庫県美方郡香美町村岡区村岡2931", "P29_006": "2", "P29_007": "0", "P29_008": "00", "P29_009": null }, "geometry": { "type": "Point", "coordinates": [ 134.59910318799345, 35.464887223430686 ] } },
{ "type": "Feature", "properties": { "P29_001": "28586", "P29_002": "D128210000781", "P29_003": "16004", "P29_004": "兵庫県立浜坂高等学校", "P29_005": "兵庫県美方郡新温泉町芦屋853-2", "P29_006": "2", "P29_007": "0", "P29_008": "00", "P29_009": null }, "geometry": { "type": "Point", "coordinates": [ 134.4461931390492, 35.626548428054384 ] } },
{ "type": "Feature", "properties": { "P29_001": "28222", "P29_002": "D128210000790", "P29_003": "16004", "P29_004": "兵庫県立八鹿高等学校", "P29_005": "兵庫県養父市八鹿町九鹿85", "P29_006": "2", "P29_007": "0", "P29_008": "00", "P29_009": null }, "geometry": { "type": "Point", "coordinates": [ 134.763537843256103, 35.404281523041242 ] } },
{ "type": "Feature", "properties": { "P29_001": "28225", "P29_002": "D128210000807", "P29_003": "16004", "P29_004": "兵庫県立生野高等学校", "P29_005": "兵庫県朝来市生野町真弓432-1", "P29_006": "2", "P29_007": "0", "P29_008": "00", "P29_009": null }, "geometry": { "type": "Point", "coordinates": [ 134.790238300829685, 35.153949262342316 ] } },
{ "type": "Feature", "properties": { "P29_001": "28225", "P29_002": "D128210000816", "P29_003": "16004", "P29_004": "兵庫県立和田山高等学校", "P29_005": "兵庫県朝来市和田山町枚田岡字縄手376-1", "P29_006": "2", "P29_007": "0", "P29_008": "00", "P29_009": null }, "geometry": { "type": "Point", "coordinates": [ 134.857848270122474, 35.332096443006769 ] } },
{ "type": "Feature", "properties": { "P29_001": "28223", "P29_002": "D128210000825", "P29_003": "16004", "P29_004": "兵庫県立氷上西高等学校", "P29_005": "兵庫県丹波市青垣町佐治378-3", "P29_006": "2", "P29_007": "0", "P29_008": "00", "P29_009": null }, "geometry": { "type": "Point", "coordinates": [ 135.004421816976873, 35.246570272454321 ] } },
{ "type": "Feature", "properties": { "P29_001": "28223", "P29_002": "D128210000834", "P29_003": "16004", "P29_004": "兵庫県立氷上高等学校", "P29_005": "兵庫県丹波市春日町黒井77", "P29_006": "2", "P29_007": "0", "P29_008": "00", "P29_009": null }, "geometry": { "type": "Point", "coordinates": [ 135.097426704405905, 35.177522478369568 ] } },
{ "type": "Feature", "properties": { "P29_001": "28221", "P29_002": "D128210000843", "P29_003": "16004", "P29_004": "兵庫県立篠山鳳鳴高等学校", "P29_005": "兵庫県丹波篠山市大熊369", "P29_006": "2", "P29_007": "0", "P29_008": "00", "P29_009": null }, "geometry": { "type": "Point", "coordinates": [ 135.223473888615018, 35.086652410950556 ] } },
{ "type": "Feature", "properties": { "P29_001": "28221", "P29_002": "D128210000852", "P29_003": "16004", "P29_004": "兵庫県立篠山産業高等学校", "P29_005": "兵庫県丹波篠山市郡家403-1", "P29_006": "2", "P29_007": "0", "P29_008": "00", "P29_009": null }, "geometry": { "type": "Point", "coordinates": [ 135.203301854721218, 35.08406370100284 ] } },
{ "type": "Feature", "properties": { "P29_001": "28226", "P29_002": "D128210000861", "P29_003": "16004", "P29_004": "兵庫県立津名高等学校", "P29_005": "兵庫県淡路市志筑249-1", "P29_006": "2", "P29_007": "0", "P29_008": "00", "P29_009": null }, "geometry": { "type": "Point", "coordinates": [ 134.906806989872848, 34.439260813003855 ] } },
{ "type": "Feature", "properties": { "P29_001": "28217", "P29_002": "D128210000889", "P29_003": "16004", "P29_004": "兵庫県立川西緑台高等学校", "P29_005": "兵庫県川西市向陽台1-8", "P29_006": "2", "P29_007": "0", "P29_008": "00", "P29_009": null }, "geometry": { "type": "Point", "coordinates": [ 135.409870916401616, 34.875319550586973 ] } },
{ "type": "Feature", "properties": { "P29_001": "28204", "P29_002": "D128210000898", "P29_003": "16004", "P29_004": "兵庫県立西宮北高等学校", "P29_005": "兵庫県西宮市苦楽園二番町16-80", "P29_006": "2", "P29_007": "0", "P29_008": "00", "P29_009": null }, "geometry": { "type": "Point", "coordinates": [ 135.31279734211509, 34.761505657396704 ] } },
{ "type": "Feature", "properties": { "P29_001": "28107", "P29_002": "D128210000905", "P29_003": "16004", "P29_004": "兵庫県立北須磨高等学校", "P29_005": "兵庫県神戸市須磨区友が丘9-23", "P29_006": "2", "P29_007": "0", "P29_008": "00", "P29_009": null }, "geometry": { "type": "Point", "coordinates": [ 135.092580594438601, 34.671368343505179 ] } },
{ "type": "Feature", "properties": { "P29_001": "28109", "P29_002": "D128210000932", "P29_003": "16004", "P29_004": "兵庫県立神戸北高等学校", "P29_005": "兵庫県神戸市北区唐櫃台2-41-1", "P29_006": "2", "P29_007": "0", "P29_008": "00", "P29_009": null }, "geometry": { "type": "Point", "coordinates": [ 135.2166670377824, 34.788911791942503 ] } },
{ "type": "Feature", "properties": { "P29_001": "28108", "P29_002": "D128210000950", "P29_003": "16004", "P29_004": "兵庫県立舞子高等学校", "P29_005": "兵庫県神戸市垂水区学が丘3-2", "P29_006": "2", "P29_007": "0", "P29_008": "00", "P29_009": null }, "geometry": { "type": "Point", "coordinates": [ 135.054902968991684, 34.655678811589837 ] } },
{ "type": "Feature", "properties": { "P29_001": "28109", "P29_002": "D128210000969", "P29_003": "16004", "P29_004": "兵庫県立神戸甲北高等学校", "P29_005": "兵庫県神戸市北区大脇台9-1", "P29_006": "2", "P29_007": "0", "P29_008": "00", "P29_009": null }, "geometry": { "type": "Point", "coordinates": [ 135.162388638249723, 34.739217600213813 ] } },
{ "type": "Feature", "properties": { "P29_001": "28214", "P29_002": "D128210000978", "P29_003": "16004", "P29_004": "兵庫県立宝塚東高等学校", "P29_005": "兵庫県宝塚市中山五月台1-12-1", "P29_006": "2", "P29_007": "0", "P29_008": "00", "P29_009": null }, "geometry": { "type": "Point", "coordinates": [ 135.371462941391712, 34.831935460160743 ] } },
{ "type": "Feature", "properties": { "P29_001": "28221", "P29_002": "D128210001012", "P29_003": "16004", "P29_004": "兵庫県立篠山東雲高等学校", "P29_005": "兵庫県丹波篠山市福住1260", "P29_006": "2", "P29_007": "0", "P29_008": "00", "P29_009": null }, "geometry": { "type": "Point", "coordinates": [ 135.350075274026949, 35.071117597045252 ] } },
{ "type": "Feature", "properties": { "P29_001": "28229", "P29_002": "D128210001021", "P29_003": "16004", "P29_004": "兵庫県立龍野北高等学校", "P29_005": "兵庫県たつの市新宮町芝田125-2", "P29_006": "2", "P29_007": "0", "P29_008": "00", "P29_009": null }, "geometry": { "type": "Point", "coordinates": [ 134.544349016380494, 34.91536937789305 ] } },
{ "type": "Feature", "properties": { "P29_001": "28365", "P29_002": "D128210001058", "P29_003": "16004", "P29_004": "兵庫県立多可高等学校", "P29_005": "兵庫県多可郡多可町中区東山553", "P29_006": "2", "P29_007": "0", "P29_008": "00", "P29_009": null }, "geometry": { "type": "Point", "coordinates": [ 134.917801291379476, 35.076116896088081 ] } },
{ "type": "Feature", "properties": { "P29_001": "28214", "P29_002": "D128210001076", "P29_003": "16004", "P29_004": "兵庫県立宝塚西高等学校", "P29_005": "兵庫県宝塚市ゆずり葉台1-1-1", "P29_006": "2", "P29_007": "0", "P29_008": "00", "P29_009": null }, "geometry": { "type": "Point", "coordinates": [ 135.324572886432804, 34.789583052143406 ] } },
{ "type": "Feature", "properties": { "P29_001": "28107", "P29_002": "D128210001094", "P29_003": "16004", "P29_004": "兵庫県立須磨東高等学校", "P29_005": "兵庫県神戸市須磨区東落合1-1-1", "P29_006": "2", "P29_007": "0", "P29_008": "00", "P29_009": null }, "geometry": { "type": "Point", "coordinates": [ 135.106641464875764, 34.681300308427524 ] } },
{ "type": "Feature", "properties": { "P29_001": "28210", "P29_002": "D128210001110", "P29_003": "16004", "P29_004": "兵庫県立加古川北高等学校", "P29_005": "兵庫県加古川市野口町水足867-1", "P29_006": "2", "P29_007": "0", "P29_008": "00", "P29_009": null }, "geometry": { "type": "Point", "coordinates": [ 134.859309742881493, 34.769379797067593 ] } },
{ "type": "Feature", "properties": { "P29_001": "28207", "P29_002": "D128210001138", "P29_003": "16004", "P29_004": "兵庫県立伊丹西高等学校", "P29_005": "兵庫県伊丹市奥畑3-5", "P29_006": "2", "P29_007": "0", "P29_008": "00", "P29_009": null }, "geometry": { "type": "Point", "coordinates": [ 135.387501091959535, 34.784336816982815 ] } },
{ "type": "Feature", "properties": { "P29_001": "28203", "P29_002": "D128210001147", "P29_003": "16004", "P29_004": "兵庫県立明石清水高等学校", "P29_005": "兵庫県明石市魚住町清水630-1", "P29_006": "2", "P29_007": "0", "P29_008": "00", "P29_009": null }, "geometry": { "type": "Point", "coordinates": [ 134.915383244913841, 34.707709845320586 ] } },
{ "type": "Feature", "properties": { "P29_001": "28216", "P29_002": "D128210001156", "P29_003": "16004", "P29_004": "兵庫県立高砂南高等学校", "P29_005": "兵庫県高砂市西畑2-1-12", "P29_006": "2", "P29_007": "0", "P29_008": "00", "P29_009": null }, "geometry": { "type": "Point", "coordinates": [ 134.796927188000495, 34.749132878467492 ] } },
{ "type": "Feature", "properties": { "P29_001": "28107", "P29_002": "D128210001165", "P29_003": "16004", "P29_004": "兵庫県立須磨友が丘高等学校", "P29_005": "兵庫県神戸市須磨区友が丘1-1-5", "P29_006": "2", "P29_007": "0", "P29_008": "00", "P29_009": null }, "geometry": { "type": "Point", "coordinates": [ 135.101413021229121, 34.667739198423362 ] } },
{ "type": "Feature", "properties": { "P29_001": "28204", "P29_002": "D128210001174", "P29_003": "16004", "P29_004": "兵庫県立西宮甲山高等学校", "P29_005": "兵庫県西宮市鷲林寺字剣谷10", "P29_006": "2", "P29_007": "0", "P29_008": "00", "P29_009": null }, "geometry": { "type": "Point", "coordinates": [ 135.311212937959652, 34.779748517058799 ] } },
{ "type": "Feature", "properties": { "P29_001": "28215", "P29_002": "D128210001192", "P29_003": "16004", "P29_004": "兵庫県立三木北高等学校", "P29_005": "兵庫県三木市志染町青山6-25", "P29_006": "2", "P29_007": "0", "P29_008": "00", "P29_009": null }, "geometry": { "type": "Point", "coordinates": [ 135.035197336564039, 34.77738184862126 ] } },
{ "type": "Feature", "properties": { "P29_001": "28217", "P29_002": "D128210001209", "P29_003": "16004", "P29_004": "兵庫県立川西北陵高等学校", "P29_005": "兵庫県川西市緑が丘2-14-1", "P29_006": "2", "P29_007": "0", "P29_008": "00", "P29_009": null }, "geometry": { "type": "Point", "coordinates": [ 135.400749965729347, 34.897993689273314 ] } },
{ "type": "Feature", "properties": { "P29_001": "28111", "P29_002": "D128210001218", "P29_003": "16004", "P29_004": "兵庫県立神戸高塚高等学校", "P29_005": "兵庫県神戸市西区美賀多台9-1", "P29_006": "2", "P29_007": "0", "P29_008": "00", "P29_009": null }, "geometry": { "type": "Point", "coordinates": [ 135.009735824343522, 34.724439568979939 ] } },
{ "type": "Feature", "properties": { "P29_001": "28203", "P29_002": "D128210001227", "P29_003": "16004", "P29_004": "兵庫県立明石城西高等学校", "P29_005": "兵庫県明石市大久保町谷八木1190-7", "P29_006": "2", "P29_007": "0", "P29_008": "00", "P29_009": null }, "geometry": { "type": "Point", "coordinates": [ 134.9383372062521, 34.67292658576411 ] } },
{ "type": "Feature", "properties": { "P29_001": "28382", "P29_002": "D128210001236", "P29_003": "16004", "P29_004": "兵庫県立播磨南高等学校", "P29_005": "兵庫県加古郡播磨町古宮4-3-1", "P29_006": "2", "P29_007": "0", "P29_008": "00", "P29_009": null }, "geometry": { "type": "Point", "coordinates": [ 134.871840750133543, 34.706798916420247 ] } },
{ "type": "Feature", "properties": { "P29_001": "28214", "P29_002": "D128210001245", "P29_003": "16004", "P29_004": "兵庫県立宝塚北高等学校", "P29_005": "兵庫県宝塚市すみれガ丘4-1-1", "P29_006": "2", "P29_007": "0", "P29_008": "00", "P29_009": null }, "geometry": { "type": "Point", "coordinates": [ 135.337770456916701, 34.822076898889186 ] } },
{ "type": "Feature", "properties": { "P29_001": "28201", "P29_002": "D128210001254", "P29_003": "16004", "P29_004": "兵庫県立姫路飾西高等学校", "P29_005": "兵庫県姫路市飾西字側町148-2", "P29_006": "2", "P29_007": "0", "P29_008": "00", "P29_009": null }, "geometry": { "type": "Point", "coordinates": [ 134.636075340633823, 34.861065178875457 ] } },
{ "type": "Feature", "properties": { "P29_001": "28111", "P29_002": "D128210001263", "P29_003": "16004", "P29_004": "兵庫県立伊川谷北高等学校", "P29_005": "兵庫県神戸市西区学園西町6-1", "P29_006": "2", "P29_007": "0", "P29_008": "00", "P29_009": null }, "geometry": { "type": "Point", "coordinates": [ 135.048396704411658, 34.680150969967578 ] } },
{ "type": "Feature", "properties": { "P29_001": "28219", "P29_002": "D128210001272", "P29_003": "16004", "P29_004": "兵庫県立北摂三田高等学校", "P29_005": "兵庫県三田市狭間が丘1-1-1", "P29_006": "2", "P29_007": "0", "P29_008": "00", "P29_009": null }, "geometry": { "type": "Point", "coordinates": [ 135.207720392001931, 34.878392776854682 ] } },
{ "type": "Feature", "properties": { "P29_001": "28219", "P29_002": "D128210001281", "P29_003": "16004", "P29_004": "兵庫県立三田西陵高等学校", "P29_005": "兵庫県三田市ゆりのき台3-4", "P29_006": "2", "P29_007": "0", "P29_008": "00", "P29_009": null }, "geometry": { "type": "Point", "coordinates": [ 135.175545654818762, 34.911491904478879 ] } },
{ "type": "Feature", "properties": { "P29_001": "28481", "P29_002": "D128210001290", "P29_003": "16004", "P29_004": "兵庫県立大学附属高等学校", "P29_005": "兵庫県赤穂郡上郡町光都3-11-1", "P29_006": "2", "P29_007": "0", "P29_008": "00", "P29_009": null }, "geometry": { "type": "Point", "coordinates": [ 134.448188585442381, 34.923246487368949 ] } },
{ "type": "Feature", "properties": { "P29_001": "28204", "P29_002": "D128210001307", "P29_003": "16004", "P29_004": "兵庫県立西宮香風高等学校", "P29_005": "兵庫県西宮市建石町7-43", "P29_006": "2", "P29_007": "0", "P29_008": "00", "P29_009": null }, "geometry": { "type": "Point", "coordinates": [ 135.332318770212652, 34.728895602287928 ] } },
{ "type": "Feature", "properties": { "P29_001": "28209", "P29_002": "D128210001334", "P29_003": "16004", "P29_004": "兵庫県立豊岡総合高等学校", "P29_005": "兵庫県豊岡市加広町6-68", "P29_006": "2", "P29_007": "0", "P29_008": "00", "P29_009": null }, "geometry": { "type": "Point", "coordinates": [ 134.818413488318981, 35.549803197498143 ] } },
{ "type": "Feature", "properties": { "P29_001": "28206", "P29_002": "D128210001343", "P29_003": "16004", "P29_004": "兵庫県立国際高等学校", "P29_005": "兵庫県芦屋市新浜町1-2", "P29_006": "2", "P29_007": "0", "P29_008": "00", "P29_009": null }, "geometry": { "type": "Point", "coordinates": [ 135.317742202509038, 34.724210007007379 ] } },
{ "type": "Feature", "properties": { "P29_001": "28224", "P29_002": "D128210001361", "P29_003": "16004", "P29_004": "兵庫県立淡路三原高等学校", "P29_005": "兵庫県南あわじ市市円行寺345-1", "P29_006": "2", "P29_007": "0", "P29_008": "00", "P29_009": null }, "geometry": { "type": "Point", "coordinates": [ 134.781047963214633, 34.281633146394775 ] } },
{ "type": "Feature", "properties": { "P29_001": "28110", "P29_002": "D128210001370", "P29_003": "16004", "P29_004": "神戸市立葺合高等学校", "P29_005": "兵庫県神戸市中央区野崎通1-1-1", "P29_006": "3", "P29_007": "0", "P29_008": "00", "P29_009": null }, "geometry": { "type": "Point", "coordinates": [ 135.210583176428003, 34.710724141958309 ] } },
{ "type": "Feature", "properties": { "P29_001": "28201", "P29_002": "D128210001405", "P29_003": "16004", "P29_004": "姫路市立飾磨高等学校", "P29_005": "兵庫県姫路市飾磨区妻鹿672", "P29_006": "3", "P29_007": "0", "P29_008": "00", "P29_009": null }, "geometry": { "type": "Point", "coordinates": [ 134.699109473203066, 34.793470396183359 ] } },
{ "type": "Feature", "properties": { "P29_001": "28204", "P29_002": "D128210001432", "P29_003": "16004", "P29_004": "西宮市立西宮東高等学校", "P29_005": "兵庫県西宮市古川町1-12", "P29_006": "3", "P29_007": "0", "P29_008": "00", "P29_009": null }, "geometry": { "type": "Point", "coordinates": [ 135.367081964405884, 34.714266445838916 ] } },
{ "type": "Feature", "properties": { "P29_001": "28207", "P29_002": "D128210001441", "P29_003": "16004", "P29_004": "伊丹市立伊丹高等学校", "P29_005": "兵庫県伊丹市行基町4-1", "P29_006": "3", "P29_007": "0", "P29_008": "00", "P29_009": null }, "geometry": { "type": "Point", "coordinates": [ 135.409350174115474, 34.776865551258879 ] } },
{ "type": "Feature", "properties": { "P29_001": "28101", "P29_002": "D128210001450", "P29_003": "16004", "P29_004": "神戸市立六甲アイランド高等学校", "P29_005": "兵庫県神戸市東灘区向洋町中4-4", "P29_006": "3", "P29_007": "0", "P29_008": "00", "P29_009": null }, "geometry": { "type": "Point", "coordinates": [ 135.271339958364052, 34.684136512727605 ] } },
{ "type": "Feature", "properties": { "P29_001": "28110", "P29_002": "D128210001469", "P29_003": "16004", "P29_004": "神戸市立科学技術高等学校", "P29_005": "兵庫県神戸市中央区脇浜町1-4-70", "P29_006": "3", "P29_007": "0", "P29_008": "00", "P29_009": null }, "geometry": { "type": "Point", "coordinates": [ 135.213107026423017, 34.704229126331221 ] } },
{ "type": "Feature", "properties": { "P29_001": "28202", "P29_002": "D128210001502", "P29_003": "16004", "P29_004": "尼崎市立琴ノ浦高等学校", "P29_005": "兵庫県尼崎市北城内47-1", "P29_006": "3", "P29_007": "0", "P29_008": "00", "P29_009": null }, "geometry": { "type": "Point", "coordinates": [ 135.419925554306758, 34.716010712870279 ] } },
{ "type": "Feature", "properties": { "P29_001": "28105", "P29_002": "D128210001511", "P29_003": "16004", "P29_004": "神戸市立神港橘高等学校", "P29_005": "兵庫県神戸市兵庫区会下山町3-16-1", "P29_006": "3", "P29_007": "0", "P29_008": "00", "P29_009": null }, "geometry": { "type": "Point", "coordinates": [ 135.156803914439365, 34.675269143463197 ] } },
{ "type": "Feature", "properties": { "P29_001": "28110", "P29_002": "D128210001520", "P29_003": "16004", "P29_004": "神戸市立摩耶兵庫高等学校", "P29_005": "兵庫県神戸市中央区東川崎町1-3-8", "P29_006": "3", "P29_007": "0", "P29_008": "00", "P29_009": null }, "geometry": { "type": "Point", "coordinates": [ 135.179109618349457, 34.676824049344589 ] } },
{ "type": "Feature", "properties": { "P29_001": "28105", "P29_002": "D128210001539", "P29_003": "16004", "P29_004": "神戸市立楠高等学校", "P29_005": "兵庫県神戸市兵庫区松本通1-1-1", "P29_006": "3", "P29_007": "0", "P29_008": "00", "P29_009": null }, "geometry": { "type": "Point", "coordinates": [ 135.164815145117274, 34.67940882025475 ] } },
{ "type": "Feature", "properties": { "P29_001": "28204", "P29_002": "D128210001548", "P29_003": "16004", "P29_004": "西宮市立西宮高等学校", "P29_005": "兵庫県西宮市高座町14-117", "P29_006": "3", "P29_007": "0", "P29_008": "00", "P29_009": null }, "geometry": { "type": "Point", "coordinates": [ 135.34347693860866, 34.756858736542888 ] } },
{ "type": "Feature", "properties": { "P29_001": "28101", "P29_002": "D128310000011", "P29_003": "16004", "P29_004": "甲南女子高等学校", "P29_005": "兵庫県神戸市東灘区森北町5-6-1", "P29_006": "4", "P29_007": "0", "P29_008": "00", "P29_009": null }, "geometry": { "type": "Point", "coordinates": [ 135.291668049768589, 34.734875512177531 ] } },
{ "type": "Feature", "properties": { "P29_001": "28101", "P29_002": "D128310000020", "P29_003": "16004", "P29_004": "灘高等学校", "P29_005": "兵庫県神戸市東灘区魚崎北町8-5-1", "P29_006": "4", "P29_007": "0", "P29_008": "00", "P29_009": null }, "geometry": { "type": "Point", "coordinates": [ 135.26840592361404, 34.719131822306004 ] } },
{ "type": "Feature", "properties": { "P29_001": "28102", "P29_002": "D128310000039", "P29_003": "16004", "P29_004": "六甲学院高等学校", "P29_005": "兵庫県神戸市灘区篠原伯母野山町2-4-1", "P29_006": "4", "P29_007": "0", "P29_008": "00", "P29_009": null }, "geometry": { "type": "Point", "coordinates": [ 135.226565524766386, 34.728510475141071 ] } },
{ "type": "Feature", "properties": { "P29_001": "28102", "P29_002": "D128310000048", "P29_003": "16004", "P29_004": "神戸海星女子学院高等学校", "P29_005": "兵庫県神戸市灘区青谷町2-7-1", "P29_006": "4", "P29_007": "0", "P29_008": "00", "P29_009": null }, "geometry": { "type": "Point", "coordinates": [ 135.211618012535723, 34.712131823945064 ] } },
{ "type": "Feature", "properties": { "P29_001": "28102", "P29_002": "D128310000057", "P29_003": "16004", "P29_004": "松蔭高等学校", "P29_005": "兵庫県神戸市灘区青谷町3-4-47", "P29_006": "4", "P29_007": "0", "P29_008": "00", "P29_009": null }, "geometry": { "type": "Point", "coordinates": [ 135.21078811105221, 34.713898677614402 ] } },
{ "type": "Feature", "properties": { "P29_001": "28110", "P29_002": "D128310000066", "P29_003": "16004", "P29_004": "神戸龍谷高等学校", "P29_005": "兵庫県神戸市中央区中島通5-3-1", "P29_006": "4", "P29_007": "0", "P29_008": "00", "P29_009": null }, "geometry": { "type": "Point", "coordinates": [ 135.204861498448111, 34.712610681841944 ] } },
{ "type": "Feature", "properties": { "P29_001": "28110", "P29_002": "D128310000075", "P29_003": "16004", "P29_004": "神戸第一高等学校", "P29_005": "兵庫県神戸市中央区葺合町寺ケ谷1", "P29_006": "4", "P29_007": "0", "P29_008": "00", "P29_009": null }, "geometry": { "type": "Point", "coordinates": [ 135.196797393817548, 34.709986906820269 ] } },
{ "type": "Feature", "properties": { "P29_001": "28110", "P29_002": "D128310000084", "P29_003": "16004", "P29_004": "神港学園高等学校", "P29_005": "兵庫県神戸市中央区山本通4-19-20", "P29_006": "4", "P29_007": "0", "P29_008": "00", "P29_009": null }, "geometry": { "type": "Point", "coordinates": [ 135.18312243064554, 34.694467596737141 ] } },
{ "type": "Feature", "properties": { "P29_001": "28107", "P29_002": "D128310000093", "P29_003": "16004", "P29_004": "啓明学院高等学校", "P29_005": "兵庫県神戸市須磨区横尾9-5-1", "P29_006": "4", "P29_007": "0", "P29_008": "00", "P29_009": null }, "geometry": { "type": "Point", "coordinates": [ 135.104821668119229, 34.667688178590957 ] } },
{ "type": "Feature", "properties": { "P29_001": "28110", "P29_002": "D128310000100", "P29_003": "16004", "P29_004": "神戸山手女子高等学校", "P29_005": "兵庫県神戸市中央区諏訪山町6-1", "P29_006": "4", "P29_007": "0", "P29_008": "00", "P29_009": null }, "geometry": { "type": "Point", "coordinates": [ 135.178073060384634, 34.695941201612044 ] } },
{ "type": "Feature", "properties": { "P29_001": "28106", "P29_002": "D128310000137", "P29_003": "16004", "P29_004": "彩星工科高等学校", "P29_005": "兵庫県神戸市長田区五番町8-5", "P29_006": "4", "P29_007": "0", "P29_008": "00", "P29_009": null }, "geometry": { "type": "Point", "coordinates": [ 135.149742917549531, 34.66761385419202 ] } },
{ "type": "Feature", "properties": { "P29_001": "28106", "P29_002": "D128310000146", "P29_003": "16004", "P29_004": "神戸常盤女子高等学校", "P29_005": "兵庫県神戸市長田区池田上町92", "P29_006": "4", "P29_007": "0", "P29_008": "00", "P29_009": null }, "geometry": { "type": "Point", "coordinates": [ 135.142989946273758, 34.667413413602773 ] } },
{ "type": "Feature", "properties": { "P29_001": "28106", "P29_002": "D128310000155", "P29_003": "16004", "P29_004": "神戸野田高等学校", "P29_005": "兵庫県神戸市長田区海運町6-1-7", "P29_006": "4", "P29_007": "0", "P29_008": "00", "P29_009": null }, "geometry": { "type": "Point", "coordinates": [ 135.140647795826766, 34.649543398809897 ] } },
{ "type": "Feature", "properties": { "P29_001": "28106", "P29_002": "D128310000164", "P29_003": "16004", "P29_004": "育英高等学校", "P29_005": "兵庫県神戸市長田区長尾町2-1-15", "P29_006": "4", "P29_007": "0", "P29_008": "00", "P29_009": null }, "geometry": { "type": "Point", "coordinates": [ 135.134825918961411, 34.66848390422669 ] } },
{ "type": "Feature", "properties": { "P29_001": "28107", "P29_002": "D128310000173", "P29_003": "16004", "P29_004": "神戸星城高等学校", "P29_005": "兵庫県神戸市須磨区緑が丘1-12-1", "P29_006": "4", "P29_007": "0", "P29_008": "00", "P29_009": null }, "geometry": { "type": "Point", "coordinates": [ 135.116494313507872, 34.68212010901982 ] } },
{ "type": "Feature", "properties": { "P29_001": "28107", "P29_002": "D128310000191", "P29_003": "16004", "P29_004": "滝川高等学校", "P29_005": "兵庫県神戸市須磨区宝田町2-1-1", "P29_006": "4", "P29_007": "0", "P29_008": "00", "P29_009": null }, "geometry": { "type": "Point", "coordinates": [ 135.131589118619161, 34.663259217768498 ] } },
{ "type": "Feature", "properties": { "P29_001": "28107", "P29_002": "D128310000208", "P29_003": "16004", "P29_004": "兵庫大学附属須磨ノ浦高等学校", "P29_005": "兵庫県神戸市須磨区行幸町2-7-3", "P29_006": "4", "P29_007": "0", "P29_008": "00", "P29_009": null }, "geometry": { "type": "Point", "coordinates": [ 135.122652740191654, 34.646113556501504 ] } },
{ "type": "Feature", "properties": { "P29_001": "28108", "P29_002": "D128310000217", "P29_003": "16004", "P29_004": "愛徳学園高等学校", "P29_005": "兵庫県神戸市垂水区歌敷山3-6-49", "P29_006": "4", "P29_007": "0", "P29_008": "00", "P29_009": null }, "geometry": { "type": "Point", "coordinates": [ 135.042653560554641, 34.63882785742144 ] } },
{ "type": "Feature", "properties": { "P29_001": "28108", "P29_002": "D128310000226", "P29_003": "16004", "P29_004": "神戸国際大学附属高等学校", "P29_005": "兵庫県神戸市垂水区学が丘5-1-1", "P29_006": "4", "P29_007": "0", "P29_008": "00", "P29_009": null }, "geometry": { "type": "Point", "coordinates": [ 135.06232835384796, 34.657644348127292 ] } },
{ "type": "Feature", "properties": { "P29_001": "28201", "P29_002": "D128310000235", "P29_003": "16004", "P29_004": "姫路女学院高等学校", "P29_005": "兵庫県姫路市豊沢町83", "P29_006": "4", "P29_007": "0", "P29_008": "00", "P29_009": null }, "geometry": { "type": "Point", "coordinates": [ 134.689546588082095, 34.823854180051242 ] } },
{ "type": "Feature", "properties": { "P29_001": "28201", "P29_002": "D128310000244", "P29_003": "16004", "P29_004": "日ノ本学園高等学校", "P29_005": "兵庫県姫路市香寺町香呂890", "P29_006": "4", "P29_007": "0", "P29_008": "00", "P29_009": null }, "geometry": { "type": "Point", "coordinates": [ 134.728556494114088, 34.918071010525203 ] } },
{ "type": "Feature", "properties": { "P29_001": "28201", "P29_002": "D128310000271", "P29_003": "16004", "P29_004": "東洋大学附属姫路高等学校", "P29_005": "兵庫県姫路市書写字木ノ下1699", "P29_006": "4", "P29_007": "0", "P29_008": "00", "P29_009": null }, "geometry": { "type": "Point", "coordinates": [ 134.657524283367593, 34.876677503173177 ] } },
{ "type": "Feature", "properties": { "P29_001": "28202", "P29_002": "D128310000280", "P29_003": "16004", "P29_004": "園田学園高等学校", "P29_005": "兵庫県尼崎市南塚口町1-24-16", "P29_006": "4", "P29_007": "0", "P29_008": "00", "P29_009": null }, "geometry": { "type": "Point", "coordinates": [ 135.413275818615176, 34.74889518966377 ] } },
{ "type": "Feature", "properties": { "P29_001": "28204", "P29_002": "D128310000306", "P29_003": "16004", "P29_004": "報徳学園高等学校", "P29_005": "兵庫県西宮市上大市5-28-19", "P29_006": "4", "P29_007": "0", "P29_008": "00", "P29_009": null }, "geometry": { "type": "Point", "coordinates": [ 135.372107242364308, 34.769748066391841 ] } },
{ "type": "Feature", "properties": { "P29_001": "28206", "P29_002": "D128310000397", "P29_003": "16004", "P29_004": "甲南高等学校", "P29_005": "兵庫県芦屋市山手町31-3", "P29_006": "4", "P29_007": "0", "P29_008": "00", "P29_009": null }, "geometry": { "type": "Point", "coordinates": [ 135.30008961560506, 34.747310125415481 ] } },
{ "type": "Feature", "properties": { "P29_001": "28214", "P29_002": "D128310000413", "P29_003": "16004", "P29_004": "小林聖心女子学院高等学校", "P29_005": "兵庫県宝塚市塔の町3-113", "P29_006": "4", "P29_007": "0", "P29_008": "00", "P29_009": null }, "geometry": { "type": "Point", "coordinates": [ 135.349981592945625, 34.786732978045158 ] } },
{ "type": "Feature", "properties": { "P29_001": "28214", "P29_002": "D128310000422", "P29_003": "16004", "P29_004": "雲雀丘学園高等学校", "P29_005": "兵庫県宝塚市雲雀丘4-2-1", "P29_006": "4", "P29_007": "0", "P29_008": "00", "P29_009": null }, "geometry": { "type": "Point", "coordinates": [ 135.39969072129955, 34.825415354135444 ] } },
{ "type": "Feature", "properties": { "P29_001": "28219", "P29_002": "D128310000440", "P29_003": "16004", "P29_004": "三田学園高等学校", "P29_005": "兵庫県三田市南が丘2-13-65", "P29_006": "4", "P29_007": "0", "P29_008": "00", "P29_009": null }, "geometry": { "type": "Point", "coordinates": [ 135.216262871742401, 34.877189166183385 ] } },
{ "type": "Feature", "properties": { "P29_001": "28442", "P29_002": "D128310000468", "P29_003": "16004", "P29_004": "市川高等学校", "P29_005": "兵庫県神崎郡市川町東川辺776-18", "P29_006": "4", "P29_007": "0", "P29_008": "00", "P29_009": null }, "geometry": { "type": "Point", "coordinates": [ 134.770596415177778, 34.989577313030281 ] } },
{ "type": "Feature", "properties": { "P29_001": "28201", "P29_002": "D128310000486", "P29_003": "16004", "P29_004": "自由ヶ丘高等学校", "P29_005": "兵庫県姫路市夢前町戸倉566", "P29_006": "4", "P29_007": "0", "P29_008": "00", "P29_009": null }, "geometry": { "type": "Point", "coordinates": [ 134.639772517814862, 34.973630759519274 ] } },
{ "type": "Feature", "properties": { "P29_001": "28111", "P29_002": "D128310000495", "P29_003": "16004", "P29_004": "滝川第二高等学校", "P29_005": "兵庫県神戸市西区春日台6-23", "P29_006": "4", "P29_007": "0", "P29_008": "00", "P29_009": null }, "geometry": { "type": "Point", "coordinates": [ 134.989110763823305, 34.705615626414676 ] } },
{ "type": "Feature", "properties": { "P29_001": "28225", "P29_002": "D128310000501", "P29_003": "16004", "P29_004": "生野学園高等学校", "P29_005": "兵庫県朝来市生野町栃原字西桝渕28-2", "P29_006": "4", "P29_007": "0", "P29_008": "00", "P29_009": null }, "geometry": { "type": "Point", "coordinates": [ 134.75348128095132, 35.14213903134673 ] } },
{ "type": "Feature", "properties": { "P29_001": "28107", "P29_002": "D128310000510", "P29_003": "16004", "P29_004": "神戸国際高等学校", "P29_005": "兵庫県神戸市須磨区高倉台7-21-1", "P29_006": "4", "P29_007": "0", "P29_008": "00", "P29_009": null }, "geometry": { "type": "Point", "coordinates": [ 135.097929327392507, 34.657044090260712 ] } },
{ "type": "Feature", "properties": { "P29_001": "28208", "P29_002": "D128310000538", "P29_003": "16004", "P29_004": "相生学院高等学校", "P29_005": "兵庫県相生市野瀬700", "P29_006": "4", "P29_007": "0", "P29_008": "00", "P29_009": null }, "geometry": { "type": "Point", "coordinates": [ 134.481728190908683, 34.788275209647566 ] } },
{ "type": "Feature", "properties": { "P29_001": "28222", "P29_002": "D128310000547", "P29_003": "16004", "P29_004": "第一学院高等学校養父校", "P29_005": "兵庫県養父市大谷13", "P29_006": "4", "P29_007": "0", "P29_008": "00", "P29_009": null }, "geometry": { "type": "Point", "coordinates": [ 134.691189807005514, 35.387652765089825 ] } },
{ "type": "Feature", "properties": { "P29_001": "28226", "P29_002": "D128310000556", "P29_003": "16004", "P29_004": "ＡＩＥ国際高等学校", "P29_005": "兵庫県淡路市浜1-48", "P29_006": "4", "P29_007": "0", "P29_008": "00", "P29_009": null }, "geometry": { "type": "Point", "coordinates": [ 134.996930652527823, 34.54808005814931 ] } },
{ "type": "Feature", "properties": { "P29_001": "28105", "P29_002": "D128210000022", "P29_003": "16004", "P29_004": "兵庫県立兵庫工業高等学校", "P29_005": "兵庫県神戸市兵庫区和田宮通2-1-63", "P29_006": "2", "P29_007": "0", "P29_008": "00", "P29_009": null }, "geometry": { "type": "Point", "coordinates": [ 135.17357790459937, 34.65992330241253 ] } },
{ "type": "Feature", "properties": { "P29_001": "28108", "P29_002": "D128210000068", "P29_003": "16004", "P29_004": "兵庫県立星陵高等学校", "P29_005": "兵庫県神戸市垂水区星陵台4-3-2", "P29_006": "2", "P29_007": "0", "P29_008": "00", "P29_009": null }, "geometry": { "type": "Point", "coordinates": [ 135.049684828997755, 34.644870095655833 ] } },
{ "type": "Feature", "properties": { "P29_001": "28108", "P29_002": "D128210000077", "P29_003": "16004", "P29_004": "兵庫県立神戸商業高等学校", "P29_005": "兵庫県神戸市垂水区星陵台4-3-1", "P29_006": "2", "P29_007": "0", "P29_008": "00", "P29_009": null }, "geometry": { "type": "Point", "coordinates": [ 135.048129049927013, 34.643811094791694 ] } },
{ "type": "Feature", "properties": { "P29_001": "28201", "P29_002": "D128210000086", "P29_003": "16004", "P29_004": "兵庫県立姫路西高等学校", "P29_005": "兵庫県姫路市北八代2-1-33", "P29_006": "2", "P29_007": "0", "P29_008": "00", "P29_009": null }, "geometry": { "type": "Point", "coordinates": [ 134.694968160619595, 34.849551294005593 ] } },
{ "type": "Feature", "properties": { "P29_001": "28201", "P29_002": "D128210000111", "P29_003": "16004", "P29_004": "兵庫県立飾磨工業高等学校", "P29_005": "兵庫県姫路市飾磨区細江319", "P29_006": "2", "P29_007": "0", "P29_008": "00", "P29_009": null }, "geometry": { "type": "Point", "coordinates": [ 134.669429524143055, 34.801818933750276 ] } },
{ "type": "Feature", "properties": { "P29_001": "28201", "P29_002": "D128210000120", "P29_003": "16004", "P29_004": "兵庫県立姫路商業高等学校", "P29_005": "兵庫県姫路市井ノ口468", "P29_006": "2", "P29_007": "0", "P29_008": "00", "P29_009": null }, "geometry": { "type": "Point", "coordinates": [ 134.656018009608374, 34.825568304252307 ] } },
{ "type": "Feature", "properties": { "P29_001": "28202", "P29_002": "D128210000148", "P29_003": "16004", "P29_004": "兵庫県立尼崎西高等学校", "P29_005": "兵庫県尼崎市大島2-34-1", "P29_006": "2", "P29_007": "0", "P29_008": "00", "P29_009": null }, "geometry": { "type": "Point", "coordinates": [ 135.38506624884306, 34.727497282930649 ] } },
{ "type": "Feature", "properties": { "P29_001": "28202", "P29_002": "D128210000157", "P29_003": "16004", "P29_004": "兵庫県立尼崎工業高等学校", "P29_005": "兵庫県尼崎市長洲中通1-13-1", "P29_006": "2", "P29_007": "0", "P29_008": "00", "P29_009": null }, "geometry": { "type": "Point", "coordinates": [ 135.434484780164013, 34.726498457252333 ] } },
{ "type": "Feature", "properties": { "P29_001": "28203", "P29_002": "D128210000175", "P29_003": "16004", "P29_004": "兵庫県立明石南高等学校", "P29_005": "兵庫県明石市明南町3-2-1", "P29_006": "2", "P29_007": "0", "P29_008": "00", "P29_009": null }, "geometry": { "type": "Point", "coordinates": [ 134.966391085398527, 34.674478414199051 ] } },
{ "type": "Feature", "properties": { "P29_001": "28210", "P29_002": "D128210000237", "P29_003": "16004", "P29_004": "兵庫県立加古川東高等学校", "P29_005": "兵庫県加古川市加古川町粟津232-2", "P29_006": "2", "P29_007": "0", "P29_008": "00", "P29_009": null }, "geometry": { "type": "Point", "coordinates": [ 134.838384768383634, 34.761850378404162 ] } },
{ "type": "Feature", "properties": { "P29_001": "28210", "P29_002": "D128210000246", "P29_003": "16004", "P29_004": "兵庫県立加古川西高等学校", "P29_005": "兵庫県加古川市加古川町本町118", "P29_006": "2", "P29_007": "0", "P29_008": "00", "P29_009": null }, "geometry": { "type": "Point", "coordinates": [ 134.828089729844208, 34.768549197063997 ] } },
{ "type": "Feature", "properties": { "P29_001": "28220", "P29_002": "D128210000326", "P29_003": "16004", "P29_004": "兵庫県立播磨農業高等学校", "P29_005": "兵庫県加西市北条町東高室1236-1", "P29_006": "2", "P29_007": "0", "P29_008": "00", "P29_009": null }, "geometry": { "type": "Point", "coordinates": [ 134.85083733854438, 34.914937604024935 ] } },
{ "type": "Feature", "properties": { "P29_001": "28228", "P29_002": "D128210000353", "P29_003": "16004", "P29_004": "兵庫県立社高等学校", "P29_005": "兵庫県加東市木梨1356-1", "P29_006": "2", "P29_007": "0", "P29_008": "00", "P29_009": null }, "geometry": { "type": "Point", "coordinates": [ 134.98025183155633, 34.91620260613297 ] } },
{ "type": "Feature", "properties": { "P29_001": "28105", "P29_002": "D128210000362", "P29_003": "16004", "P29_004": "兵庫県立神戸工業高等学校", "P29_005": "兵庫県神戸市兵庫区和田宮通2-1-63", "P29_006": "2", "P29_007": "0", "P29_008": "00", "P29_009": null }, "geometry": { "type": "Point", "coordinates": [ 135.173724614719674, 34.659572382540325 ] } },
{ "type": "Feature", "properties": { "P29_001": "28202", "P29_002": "D128210000399", "P29_003": "16004", "P29_004": "兵庫県立神崎工業高等学校", "P29_005": "兵庫県尼崎市長洲中通1-13-1", "P29_006": "2", "P29_007": "0", "P29_008": "00", "P29_009": null }, "geometry": { "type": "Point", "coordinates": [ 135.434617241371058, 34.726865795027571 ] } },
{ "type": "Feature", "properties": { "P29_001": "28464", "P29_002": "D128210000415", "P29_003": "16004", "P29_004": "兵庫県立太子高等学校", "P29_005": "兵庫県揖保郡太子町糸井19", "P29_006": "2", "P29_007": "0", "P29_008": "00", "P29_009": null }, "geometry": { "type": "Point", "coordinates": [ 134.584813793950048, 34.819582478135366 ] } },
{ "type": "Feature", "properties": { "P29_001": "28201", "P29_002": "D128210000442", "P29_003": "16004", "P29_004": "兵庫県立姫路東高等学校", "P29_005": "兵庫県姫路市本町68-70", "P29_006": "2", "P29_007": "0", "P29_008": "00", "P29_009": null }, "geometry": { "type": "Point", "coordinates": [ 134.699146924162051, 34.84077359305104 ] } },
{ "type": "Feature", "properties": { "P29_001": "28202", "P29_002": "D128210000451", "P29_003": "16004", "P29_004": "兵庫県立尼崎高等学校", "P29_005": "兵庫県尼崎市北大物町18-1", "P29_006": "2", "P29_007": "0", "P29_008": "00", "P29_009": null }, "geometry": { "type": "Point", "coordinates": [ 135.426240992792827, 34.72197607372604 ] } },
{ "type": "Feature", "properties": { "P29_001": "28205", "P29_002": "D128210000460", "P29_003": "16004", "P29_004": "兵庫県立洲本高等学校", "P29_005": "兵庫県洲本市上物部2-8-5", "P29_006": "2", "P29_007": "0", "P29_008": "00", "P29_009": null }, "geometry": { "type": "Point", "coordinates": [ 134.884529580687513, 34.335960915543559 ] } },
{ "type": "Feature", "properties": { "P29_001": "28208", "P29_002": "D128210000479", "P29_003": "16004", "P29_004": "兵庫県立相生産業高等学校", "P29_005": "兵庫県相生市千尋町10-50", "P29_006": "2", "P29_007": "0", "P29_008": "00", "P29_009": null }, "geometry": { "type": "Point", "coordinates": [ 134.454590764705245, 34.802328300090437 ] } },
{ "type": "Feature", "properties": { "P29_001": "28210", "P29_002": "D128210000497", "P29_003": "16004", "P29_004": "兵庫県立農業高等学校", "P29_005": "兵庫県加古川市平岡町新在家902-4", "P29_006": "2", "P29_007": "0", "P29_008": "00", "P29_009": null }, "geometry": { "type": "Point", "coordinates": [ 134.874135442208569, 34.753043673913744 ] } },
{ "type": "Feature", "properties": { "P29_001": "28213", "P29_002": "D128210000512", "P29_003": "16004", "P29_004": "兵庫県立西脇高等学校", "P29_005": "兵庫県西脇市野村町1794-60", "P29_006": "2", "P29_007": "0", "P29_008": "00", "P29_009": null }, "geometry": { "type": "Point", "coordinates": [ 134.95804368664156, 34.977758622419429 ] } },
{ "type": "Feature", "properties": { "P29_001": "28218", "P29_002": "D128210000530", "P29_003": "16004", "P29_004": "兵庫県立小野工業高等学校", "P29_005": "兵庫県小野市片山町1034-1", "P29_006": "2", "P29_007": "0", "P29_008": "00", "P29_009": null }, "geometry": { "type": "Point", "coordinates": [ 134.926184847926436, 34.84647388128657 ] } },
{ "type": "Feature", "properties": { "P29_001": "28481", "P29_002": "D128210000567", "P29_003": "16004", "P29_004": "兵庫県立上郡高等学校", "P29_005": "兵庫県赤穂郡上郡町大持207-1", "P29_006": "2", "P29_007": "0", "P29_008": "00", "P29_009": null }, "geometry": { "type": "Point", "coordinates": [ 134.354958319784913, 34.871471944203421 ] } },
{ "type": "Feature", "properties": { "P29_001": "28217", "P29_002": "D128210000638", "P29_003": "16004", "P29_004": "兵庫県立川西明峰高等学校", "P29_005": "兵庫県川西市萩原台西2-324", "P29_006": "2", "P29_007": "0", "P29_008": "00", "P29_009": null }, "geometry": { "type": "Point", "coordinates": [ 135.403609863340336, 34.8454998277982 ] } },
{ "type": "Feature", "properties": { "P29_001": "28222", "P29_002": "D128210000647", "P29_003": "16004", "P29_004": "兵庫県立但馬農業高等学校", "P29_005": "兵庫県養父市八鹿町高柳300-1", "P29_006": "2", "P29_007": "0", "P29_008": "00", "P29_009": null }, "geometry": { "type": "Point", "coordinates": [ 134.746485340786137, 35.396932053653231 ] } },
{ "type": "Feature", "properties": { "P29_001": "28111", "P29_002": "D128210000656", "P29_003": "16004", "P29_004": "兵庫県立伊川谷高等学校", "P29_005": "兵庫県神戸市西区伊川谷町長坂910-5", "P29_006": "2", "P29_007": "0", "P29_008": "00", "P29_009": null }, "geometry": { "type": "Point", "coordinates": [ 135.035565505758541, 34.670519021036078 ] } },
{ "type": "Feature", "properties": { "P29_001": "28201", "P29_002": "D128210000665", "P29_003": "16004", "P29_004": "兵庫県立姫路別所高等学校", "P29_005": "兵庫県姫路市別所町北宿303-1", "P29_006": "2", "P29_007": "0", "P29_008": "00", "P29_009": null }, "geometry": { "type": "Point", "coordinates": [ 134.768506958912269, 34.80896052696324 ] } },
{ "type": "Feature", "properties": { "P29_001": "28201", "P29_002": "D128210000718", "P29_003": "16004", "P29_004": "兵庫県立香寺高等学校", "P29_005": "兵庫県姫路市香寺町土師547", "P29_006": "2", "P29_007": "0", "P29_008": "00", "P29_009": null }, "geometry": { "type": "Point", "coordinates": [ 134.735231559257443, 34.931324788608542 ] } },
{ "type": "Feature", "properties": { "P29_001": "28227", "P29_002": "D128210000727", "P29_003": "16004", "P29_004": "兵庫県立山崎高等学校", "P29_005": "兵庫県宍粟市山崎町加生340", "P29_006": "2", "P29_007": "0", "P29_008": "00", "P29_009": null }, "geometry": { "type": "Point", "coordinates": [ 134.530373177406204, 35.010108655463519 ] } },
{ "type": "Feature", "properties": { "P29_001": "28226", "P29_002": "D128210000870", "P29_003": "16004", "P29_004": "兵庫県立淡路高等学校", "P29_005": "兵庫県淡路市富島171-2", "P29_006": "2", "P29_007": "0", "P29_008": "00", "P29_009": null }, "geometry": { "type": "Point", "coordinates": [ 134.923447800378852, 34.544553493514904 ] } },
{ "type": "Feature", "properties": { "P29_001": "28202", "P29_002": "D128210000914", "P29_003": "16004", "P29_004": "兵庫県立尼崎小田高等学校", "P29_005": "兵庫県尼崎市長洲中通2-17-46", "P29_006": "2", "P29_007": "0", "P29_008": "00", "P29_009": null }, "geometry": { "type": "Point", "coordinates": [ 135.433644304480623, 34.723832310377738 ] } },
{ "type": "Feature", "properties": { "P29_001": "28203", "P29_002": "D128210000923", "P29_003": "16004", "P29_004": "兵庫県立明石北高等学校", "P29_005": "兵庫県明石市大久保町松陰364-1", "P29_006": "2", "P29_007": "0", "P29_008": "00", "P29_009": null }, "geometry": { "type": "Point", "coordinates": [ 134.956234566039228, 34.693851104931106 ] } },
{ "type": "Feature", "properties": { "P29_001": "28207", "P29_002": "D128210000941", "P29_003": "16004", "P29_004": "兵庫県立伊丹北高等学校", "P29_005": "兵庫県伊丹市鴻池7-2-1", "P29_006": "2", "P29_007": "0", "P29_008": "00", "P29_009": null }, "geometry": { "type": "Point", "coordinates": [ 135.383079676090773, 34.802748274574085 ] } },
{ "type": "Feature", "properties": { "P29_001": "28381", "P29_002": "D128210000987", "P29_003": "16004", "P29_004": "兵庫県立東播磨高等学校", "P29_005": "兵庫県加古郡稲美町中一色594-2", "P29_006": "2", "P29_007": "0", "P29_008": "00", "P29_009": null }, "geometry": { "type": "Point", "coordinates": [ 134.885455609403351, 34.754995713988329 ] } },
{ "type": "Feature", "properties": { "P29_001": "28204", "P29_002": "D128210000996", "P29_003": "16004", "P29_004": "兵庫県立西宮南高等学校", "P29_005": "兵庫県西宮市高須町2-1-43", "P29_006": "2", "P29_007": "0", "P29_008": "00", "P29_009": null }, "geometry": { "type": "Point", "coordinates": [ 135.366152767269455, 34.7040879976241 ] } },
{ "type": "Feature", "properties": { "P29_001": "28215", "P29_002": "D128210001003", "P29_003": "16004", "P29_004": "兵庫県立三木東高等学校", "P29_005": "兵庫県三木市別所町小林625-2", "P29_006": "2", "P29_007": "0", "P29_008": "00", "P29_009": null }, "geometry": { "type": "Point", "coordinates": [ 135.004593846544395, 34.779680228513982 ] } },
{ "type": "Feature", "properties": { "P29_001": "28213", "P29_002": "D128210001030", "P29_003": "16004", "P29_004": "兵庫県立西脇北高等学校", "P29_005": "兵庫県西脇市郷瀬町669-32", "P29_006": "2", "P29_007": "0", "P29_008": "00", "P29_009": null }, "geometry": { "type": "Point", "coordinates": [ 134.968192024432113, 34.998609319028255 ] } },
{ "type": "Feature", "properties": { "P29_001": "28201", "P29_002": "D128210001049", "P29_003": "16004", "P29_004": "兵庫県立姫路北高等学校", "P29_005": "兵庫県姫路市本町68-70", "P29_006": "2", "P29_007": "0", "P29_008": "00", "P29_009": null }, "geometry": { "type": "Point", "coordinates": [ 134.699411831177144, 34.840980615641556 ] } },
{ "type": "Feature", "properties": { "P29_001": "28204", "P29_002": "D128210001067", "P29_003": "16004", "P29_004": "兵庫県立西宮今津高等学校", "P29_005": "兵庫県西宮市浜甲子園4-1-5", "P29_006": "2", "P29_007": "0", "P29_008": "00", "P29_009": null }, "geometry": { "type": "Point", "coordinates": [ 135.350398112376297, 34.718774633542054 ] } },
{ "type": "Feature", "properties": { "P29_001": "28208", "P29_002": "D128210001085", "P29_003": "16004", "P29_004": "兵庫県立相生高等学校", "P29_005": "兵庫県相生市山手1-722-10", "P29_006": "2", "P29_007": "0", "P29_008": "00", "P29_009": null }, "geometry": { "type": "Point", "coordinates": [ 134.477218388519589, 34.823264107891738 ] } },
{ "type": "Feature", "properties": { "P29_001": "28202", "P29_002": "D128210001101", "P29_003": "16004", "P29_004": "兵庫県立尼崎稲園高等学校", "P29_005": "兵庫県尼崎市猪名寺3-1-1", "P29_006": "2", "P29_007": "0", "P29_008": "00", "P29_009": null }, "geometry": { "type": "Point", "coordinates": [ 135.421308085260733, 34.763616698878792 ] } },
{ "type": "Feature", "properties": { "P29_001": "28201", "P29_002": "D128210001129", "P29_003": "16004", "P29_004": "兵庫県立網干高等学校", "P29_005": "兵庫県姫路市網干区新在家259-1", "P29_006": "2", "P29_007": "0", "P29_008": "00", "P29_009": null }, "geometry": { "type": "Point", "coordinates": [ 134.591826101109916, 34.773964902596674 ] } },
{ "type": "Feature", "properties": { "P29_001": "28210", "P29_002": "D128210001183", "P29_003": "16004", "P29_004": "兵庫県立加古川南高等学校", "P29_005": "兵庫県加古川市加古川町友沢65-1", "P29_006": "2", "P29_007": "0", "P29_008": "00", "P29_009": null }, "geometry": { "type": "Point", "coordinates": [ 134.819179519928497, 34.76791823961738 ] } },
{ "type": "Feature", "properties": { "P29_001": "28219", "P29_002": "D128210001316", "P29_003": "16004", "P29_004": "兵庫県立三田祥雲館高等学校", "P29_005": "兵庫県三田市学園1-1", "P29_006": "2", "P29_007": "0", "P29_008": "00", "P29_009": null }, "geometry": { "type": "Point", "coordinates": [ 135.16144529536561, 34.911511265596687 ] } },
{ "type": "Feature", "properties": { "P29_001": "28202", "P29_002": "D128210001325", "P29_003": "16004", "P29_004": "兵庫県立武庫荘総合高等学校", "P29_005": "兵庫県尼崎市武庫之荘8-31-1", "P29_006": "2", "P29_007": "0", "P29_008": "00", "P29_009": null }, "geometry": { "type": "Point", "coordinates": [ 135.386366584370791, 34.765180885426773 ] } },
{ "type": "Feature", "properties": { "P29_001": "28109", "P29_002": "D128210001352", "P29_003": "16004", "P29_004": "兵庫県立神戸鈴蘭台高等学校", "P29_005": "兵庫県神戸市北区山田町下谷上字中一里山9-107", "P29_006": "2", "P29_007": "0", "P29_008": "00", "P29_009": null }, "geometry": { "type": "Point", "coordinates": [ 135.153080833361741, 34.719413549947085 ] } },
{ "type": "Feature", "properties": { "P29_001": "28201", "P29_002": "D128210001389", "P29_003": "16004", "P29_004": "姫路市立姫路高等学校", "P29_005": "兵庫県姫路市辻井9-1-10", "P29_006": "3", "P29_007": "0", "P29_008": "00", "P29_009": null }, "geometry": { "type": "Point", "coordinates": [ 134.678194434344675, 34.850488943336266 ] } },
{ "type": "Feature", "properties": { "P29_001": "28201", "P29_002": "D128210001398", "P29_003": "16004", "P29_004": "姫路市立琴丘高等学校", "P29_005": "兵庫県姫路市今宿668", "P29_006": "3", "P29_007": "0", "P29_008": "00", "P29_009": null }, "geometry": { "type": "Point", "coordinates": [ 134.659903492746821, 34.837880146356035 ] } },
{ "type": "Feature", "properties": { "P29_001": "28202", "P29_002": "D128210001414", "P29_003": "16004", "P29_004": "尼崎市立尼崎高等学校", "P29_005": "兵庫県尼崎市上ノ島町1-38-1", "P29_006": "3", "P29_007": "0", "P29_008": "00", "P29_009": null }, "geometry": { "type": "Point", "coordinates": [ 135.402085142557752, 34.750570104563138 ] } },
{ "type": "Feature", "properties": { "P29_001": "28203", "P29_002": "D128210001423", "P29_003": "16004", "P29_004": "明石市立明石商業高等学校", "P29_005": "兵庫県明石市魚住町長坂寺1250", "P29_006": "3", "P29_007": "0", "P29_008": "00", "P29_009": null }, "geometry": { "type": "Point", "coordinates": [ 134.920024287071584, 34.706044458662198 ] } },
{ "type": "Feature", "properties": { "P29_001": "28110", "P29_002": "D128210001478", "P29_003": "16004", "P29_004": "神戸市立神戸工科高等学校", "P29_005": "兵庫県神戸市中央区脇浜町1-4-70", "P29_006": "3", "P29_007": "0", "P29_008": "00", "P29_009": null }, "geometry": { "type": "Point", "coordinates": [ 135.213603586928741, 34.7042700656487 ] } },
{ "type": "Feature", "properties": { "P29_001": "28107", "P29_002": "D128210001487", "P29_003": "16004", "P29_004": "神戸市立須磨翔風高等学校", "P29_005": "兵庫県神戸市須磨区西落合1-1-5", "P29_006": "3", "P29_007": "0", "P29_008": "00", "P29_009": null }, "geometry": { "type": "Point", "coordinates": [ 135.088788493991785, 34.678003095665233 ] } },
{ "type": "Feature", "properties": { "P29_001": "28202", "P29_002": "D128210001496", "P29_003": "16004", "P29_004": "尼崎市立尼崎双星高等学校", "P29_005": "兵庫県尼崎市口田中2-8-1", "P29_006": "3", "P29_007": "0", "P29_008": "00", "P29_009": null }, "geometry": { "type": "Point", "coordinates": [ 135.435825831140221, 34.75214137917304 ] } },
{ "type": "Feature", "properties": { "P29_001": "28102", "P29_002": "D128310000119", "P29_003": "16004", "P29_004": "親和女子高等学校", "P29_005": "兵庫県神戸市灘区土山町6-1", "P29_006": "4", "P29_007": "0", "P29_008": "00", "P29_009": null }, "geometry": { "type": "Point", "coordinates": [ 135.241622561723943, 34.726335424537403 ] } },
{ "type": "Feature", "properties": { "P29_001": "28110", "P29_002": "D128310000128", "P29_003": "16004", "P29_004": "神戸学院大学附属高等学校", "P29_005": "兵庫県神戸市中央区港島中町4-6-3", "P29_006": "4", "P29_007": "0", "P29_008": "00", "P29_009": null }, "geometry": { "type": "Point", "coordinates": [ 135.209835383296991, 34.667893950989281 ] } },
{ "type": "Feature", "properties": { "P29_001": "28107", "P29_002": "D128310000182", "P29_003": "16004", "P29_004": "須磨学園高等学校", "P29_005": "兵庫県神戸市須磨区板宿町3-15-14", "P29_006": "4", "P29_007": "0", "P29_008": "00", "P29_009": null }, "geometry": { "type": "Point", "coordinates": [ 135.127150984611148, 34.664166026582144 ] } },
{ "type": "Feature", "properties": { "P29_001": "28201", "P29_002": "D128310000253", "P29_003": "16004", "P29_004": "賢明女子学院高等学校", "P29_005": "兵庫県姫路市本町68", "P29_006": "4", "P29_007": "0", "P29_008": "00", "P29_009": null }, "geometry": { "type": "Point", "coordinates": [ 134.697220462969256, 34.835977507567414 ] } },
{ "type": "Feature", "properties": { "P29_001": "28201", "P29_002": "D128310000262", "P29_003": "16004", "P29_004": "淳心学院高等学校", "P29_005": "兵庫県姫路市本町68", "P29_006": "4", "P29_007": "0", "P29_008": "00", "P29_009": null }, "geometry": { "type": "Point", "coordinates": [ 134.698721946343284, 34.837367718878667 ] } },
{ "type": "Feature", "properties": { "P29_001": "28202", "P29_002": "D128310000299", "P29_003": "16004", "P29_004": "百合学院高等学校", "P29_005": "兵庫県尼崎市若王寺2-18-2", "P29_006": "4", "P29_007": "0", "P29_008": "00", "P29_009": null }, "geometry": { "type": "Point", "coordinates": [ 135.439938873005445, 34.749358531741578 ] } },
{ "type": "Feature", "properties": { "P29_001": "28204", "P29_002": "D128310000315", "P29_003": "16004", "P29_004": "関西学院高等部", "P29_005": "兵庫県西宮市上ケ原1番町1-155", "P29_006": "4", "P29_007": "0", "P29_008": "00", "P29_009": null }, "geometry": { "type": "Point", "coordinates": [ 135.347148297573995, 34.766657318961599 ] } },
{ "type": "Feature", "properties": { "P29_001": "28204", "P29_002": "D128310000324", "P29_003": "16004", "P29_004": "神戸女学院高等学部", "P29_005": "兵庫県西宮市岡田山4-1", "P29_006": "4", "P29_007": "0", "P29_008": "00", "P29_009": null }, "geometry": { "type": "Point", "coordinates": [ 135.352004479383254, 34.759646504472819 ] } },
{ "type": "Feature", "properties": { "P29_001": "28204", "P29_002": "D128310000333", "P29_003": "16004", "P29_004": "武庫川女子大学附属高等学校", "P29_005": "兵庫県西宮市枝川町4-16", "P29_006": "4", "P29_007": "0", "P29_008": "00", "P29_009": null }, "geometry": { "type": "Point", "coordinates": [ 135.365079663031594, 34.71137091295239 ] } },
{ "type": "Feature", "properties": { "P29_001": "28204", "P29_002": "D128310000342", "P29_003": "16004", "P29_004": "甲子園学院高等学校", "P29_005": "兵庫県西宮市瓦林町4-25", "P29_006": "4", "P29_007": "0", "P29_008": "00", "P29_009": null }, "geometry": { "type": "Point", "coordinates": [ 135.370092629381162, 34.743883179514036 ] } },
{ "type": "Feature", "properties": { "P29_001": "28204", "P29_002": "D128310000351", "P29_003": "16004", "P29_004": "甲陽学院高等学校", "P29_005": "兵庫県西宮市角石町3-138", "P29_006": "4", "P29_007": "0", "P29_008": "00", "P29_009": null }, "geometry": { "type": "Point", "coordinates": [ 135.318810135876191, 34.760279346537253 ] } },
{ "type": "Feature", "properties": { "P29_001": "28105", "P29_002": "D128310000360", "P29_003": "16004", "P29_004": "夙川高等学校", "P29_005": "兵庫県神戸市兵庫区会下山町1-7-1", "P29_006": "4", "P29_007": "0", "P29_008": "00", "P29_009": null }, "geometry": { "type": "Point", "coordinates": [ 135.160080617484908, 34.679726359333785 ] } },
{ "type": "Feature", "properties": { "P29_001": "28204", "P29_002": "D128310000379", "P29_003": "16004", "P29_004": "仁川学院高等学校", "P29_005": "兵庫県西宮市甲東園2-13-9", "P29_006": "4", "P29_007": "0", "P29_008": "00", "P29_009": null }, "geometry": { "type": "Point", "coordinates": [ 135.361800148254048, 34.771279055020138 ] } },
{ "type": "Feature", "properties": { "P29_001": "28204", "P29_002": "D128310000388", "P29_003": "16004", "P29_004": "芦屋学園高等学校", "P29_005": "兵庫県芦屋市六麓荘町16-18", "P29_006": "4", "P29_007": "0", "P29_008": "00", "P29_009": null }, "geometry": { "type": "Point", "coordinates": [ 135.310013002686645, 34.756008271680138 ] } },
{ "type": "Feature", "properties": { "P29_001": "28209", "P29_002": "D128310000404", "P29_003": "16004", "P29_004": "近畿大学附属豊岡高等学校", "P29_005": "兵庫県豊岡市戸牧100", "P29_006": "4", "P29_007": "0", "P29_008": "00", "P29_009": null }, "geometry": { "type": "Point", "coordinates": [ 134.806263414081229, 35.537268206542784 ] } },
{ "type": "Feature", "properties": { "P29_001": "28216", "P29_002": "D128310000431", "P29_003": "16004", "P29_004": "白陵高等学校", "P29_005": "兵庫県高砂市阿弥陀町阿弥陀2260", "P29_006": "4", "P29_007": "0", "P29_008": "00", "P29_009": null }, "geometry": { "type": "Point", "coordinates": [ 134.769136097078729, 34.803006932200283 ] } },
{ "type": "Feature", "properties": { "P29_001": "28219", "P29_002": "D128310000459", "P29_003": "16004", "P29_004": "三田松聖高等学校", "P29_005": "兵庫県三田市四ツ辻1430", "P29_006": "4", "P29_007": "0", "P29_008": "00", "P29_009": null }, "geometry": { "type": "Point", "coordinates": [ 135.159968525928235, 34.950090853287982 ] } },
{ "type": "Feature", "properties": { "P29_001": "28109", "P29_002": "D128310000477", "P29_003": "16004", "P29_004": "神戸弘陵学園高等学校", "P29_005": "兵庫県神戸市北区山田町小部妙賀山10-4", "P29_006": "4", "P29_007": "0", "P29_008": "00", "P29_009": null }, "geometry": { "type": "Point", "coordinates": [ 135.164876262403936, 34.736050504913528 ] } },
{ "type": "Feature", "properties": { "P29_001": "28205", "P29_002": "D128310000529", "P29_003": "16004", "P29_004": "蒼開高等学校", "P29_005": "兵庫県洲本市下加茂1-9-48", "P29_006": "4", "P29_007": "0", "P29_008": "00", "P29_009": null }, "geometry": { "type": "Point", "coordinates": [ 134.879157828758224, 34.351180285338671 ] } }
]
}
