{
"type": "FeatureCollection",
"name": "geo_28_訪問入浴介護",
"crs": { "type": "name", "properties": { "name": "urn:ogc:def:crs:OGC:1.3:CRS84" } },
"features": [
{ "type": "Feature", "properties": { "内容": "セントケア東灘【訪問入浴介護】神戸市東灘区田中町1-1-15きらり神戸201", "url": "https://www.kaigokensaku.mhlw.go.jp/28/index.php?action_kouhyou_detail_004_kani=true&JigyosyoCd=2870101686-00&ServiceCd=120&Type=search", "url2": null }, "geometry": { "type": "Point", "coordinates": [ 135.2774905, 34.7239388 ] } },
{ "type": "Feature", "properties": { "内容": "ニチイケアセンター東神戸【訪問入浴介護】兵庫県神戸市灘区岸地通5丁目2-13アメニティビル201号", "url": "https://www.kaigokensaku.mhlw.go.jp/28/index.php?action_kouhyou_detail_004_kani=true&JigyosyoCd=2870200603-00&ServiceCd=120&Type=search", "url2": "http://www.nichiigakkan.co.jp" }, "geometry": { "type": "Point", "coordinates": [ 135.220975203704825, 34.710691341548099 ] } },
{ "type": "Feature", "properties": { "内容": "アースサポート神戸【訪問入浴介護】兵庫県神戸市兵庫区荒田町1丁目10番5号", "url": "https://www.kaigokensaku.mhlw.go.jp/28/index.php?action_kouhyou_detail_004_kani=true&JigyosyoCd=2870500317-00&ServiceCd=120&Type=search", "url2": "http://www.earthsupport.co.jp" }, "geometry": { "type": "Point", "coordinates": [ 135.168183, 34.680966900000016 ] } },
{ "type": "Feature", "properties": { "内容": "サポートクラブゆう兵庫【訪問入浴介護】神戸市兵庫区水木通１０丁目２番１５号", "url": "https://www.kaigokensaku.mhlw.go.jp/28/index.php?action_kouhyou_detail_004_kani=true&JigyosyoCd=2870500812-00&ServiceCd=120&Type=search", "url2": "http://www.yuu.co.jp" }, "geometry": { "type": "Point", "coordinates": [ 135.158156, 34.6696178 ] } },
{ "type": "Feature", "properties": { "内容": "クローバーのこころ【訪問入浴介護】兵庫県神戸市長田区西尻池町三丁目1番5号", "url": "https://www.kaigokensaku.mhlw.go.jp/28/index.php?action_kouhyou_detail_004_kani=true&JigyosyoCd=2870602568-00&ServiceCd=120&Type=search", "url2": null }, "geometry": { "type": "Point", "coordinates": [ 135.151784600000042, 34.657341 ] } },
{ "type": "Feature", "properties": { "内容": "パナソニック　エイジフリーケアセンター神戸・訪問入浴【訪問入浴介護】神戸市須磨区南町3-3-20　ハイツシーアンドシー2階", "url": "https://www.kaigokensaku.mhlw.go.jp/28/index.php?action_kouhyou_detail_004_kani=true&JigyosyoCd=2870700099-00&ServiceCd=120&Type=search", "url2": null }, "geometry": { "type": "Point", "coordinates": [ 135.124201200000016, 34.6496639 ] } },
{ "type": "Feature", "properties": { "内容": "ゆう・たるみ【訪問入浴介護】兵庫県神戸市垂水区本多聞2丁目24-15", "url": "https://www.kaigokensaku.mhlw.go.jp/28/index.php?action_kouhyou_detail_004_kani=true&JigyosyoCd=2870804040-00&ServiceCd=120&Type=search", "url2": "http://www.u-no-enishi.com" }, "geometry": { "type": "Point", "coordinates": [ 135.045476002485628, 34.65948621498444 ] } },
{ "type": "Feature", "properties": { "内容": "ニチイケアセンター西神戸【訪問入浴介護】神戸市垂水区西舞子2-12-53サンマリン舞子1Ｆ", "url": "https://www.kaigokensaku.mhlw.go.jp/28/index.php?action_kouhyou_detail_004_kani=true&JigyosyoCd=2870802564-00&ServiceCd=120&Type=search", "url2": "www.nichiigakkan.co.jp" }, "geometry": { "type": "Point", "coordinates": [ 135.030375899999967, 34.6413638 ] } },
{ "type": "Feature", "properties": { "内容": "サポートクラブゆう垂水【訪問入浴介護】兵庫県神戸市垂水区福田2丁目１番3号垂水農住団地3号棟101", "url": "https://www.kaigokensaku.mhlw.go.jp/28/index.php?action_kouhyou_detail_004_kani=true&JigyosyoCd=2870804461-00&ServiceCd=120&Type=search", "url2": "http://www.yuu.co.jp" }, "geometry": { "type": "Point", "coordinates": [ 135.065061899999989, 34.6415813 ] } },
{ "type": "Feature", "properties": { "内容": "あおぞら訪問入浴サービス垂水【訪問入浴介護】兵庫県垂水区星が丘2丁目5-4星が丘アパートメント101号室", "url": "https://www.kaigokensaku.mhlw.go.jp/28/index.php?action_kouhyou_detail_004_kani=true&JigyosyoCd=2870804909-00&ServiceCd=120&Type=search", "url2": "https://www.aozora-visitbathing.com/" }, "geometry": { "type": "Point", "coordinates": [ 135.0478453, 34.6400745 ] } },
{ "type": "Feature", "properties": { "内容": "セントケア北神戸【訪問入浴介護】神戸市北区若葉台1-2-24", "url": "https://www.kaigokensaku.mhlw.go.jp/28/index.php?action_kouhyou_detail_004_kani=true&JigyosyoCd=2875001923-00&ServiceCd=120&Type=search", "url2": "https://www.saint-care.com/" }, "geometry": { "type": "Point", "coordinates": [ 135.154632, 34.7396362 ] } },
{ "type": "Feature", "properties": { "内容": "アースサポート神戸北【訪問入浴介護】兵庫県神戸市北区谷上西町27番6号", "url": "https://www.kaigokensaku.mhlw.go.jp/28/index.php?action_kouhyou_detail_004_kani=true&JigyosyoCd=2875002376-00&ServiceCd=120&Type=search", "url2": "http://www.earthsupport.co.jp" }, "geometry": { "type": "Point", "coordinates": [ 135.17024, 34.7625214 ] } },
{ "type": "Feature", "properties": { "内容": "セントケア神戸【訪問入浴介護】兵庫県神戸市中央区多聞通2-4-4ブックローン神戸ビル東館2階", "url": "https://www.kaigokensaku.mhlw.go.jp/28/index.php?action_kouhyou_detail_004_kani=true&JigyosyoCd=2875102028-00&ServiceCd=120&Type=search", "url2": "http://www.saint-care.com/" }, "geometry": { "type": "Point", "coordinates": [ 135.175515799999971, 34.6812837 ] } },
{ "type": "Feature", "properties": { "内容": "アスケア訪問入浴　神戸中央【訪問入浴介護】神戸市中央区琴ノ緒町2丁目8-18KOEIIDA　Bldg　101号室", "url": "https://www.kaigokensaku.mhlw.go.jp/28/index.php?action_kouhyou_detail_004_kani=true&JigyosyoCd=2875102465-00&ServiceCd=120&Type=search", "url2": "http://www.as-care.co.jp" }, "geometry": { "type": "Point", "coordinates": [ 135.197528099999971, 34.6983733 ] } },
{ "type": "Feature", "properties": { "内容": "あおぞら訪問入浴サービス【訪問入浴介護】神戸市西区玉津町西河原148-4", "url": "https://www.kaigokensaku.mhlw.go.jp/28/index.php?action_kouhyou_detail_004_kani=true&JigyosyoCd=2875203511-00&ServiceCd=120&Type=search", "url2": "https://www.aozora-visitbathing.com/" }, "geometry": { "type": "Point", "coordinates": [ 134.988454499999989, 34.6666325 ] } },
{ "type": "Feature", "properties": { "内容": "あっぷる訪問入浴サービス【訪問入浴介護】神屋町６丁目７１", "url": "https://www.kaigokensaku.mhlw.go.jp/28/index.php?action_kouhyou_detail_004_kani=true&JigyosyoCd=2874001239-00&ServiceCd=120&Type=search", "url2": "http://www.apple-117.jp" }, "geometry": { "type": "Point", "coordinates": [ 130.403081899999961, 33.600948 ] } },
{ "type": "Feature", "properties": { "内容": "訪問入浴サービス共立【訪問入浴介護】姫路市飯田472-1介護センターてがら", "url": "https://www.kaigokensaku.mhlw.go.jp/28/index.php?action_kouhyou_detail_004_kani=true&JigyosyoCd=2874001544-00&ServiceCd=120&Type=search", "url2": "hn-ohuro@himeji-mcoop.or.jp" }, "geometry": { "type": "Point", "coordinates": [ 134.669415329137536, 34.815080282858546 ] } },
{ "type": "Feature", "properties": { "内容": "アスケア訪問入浴　姫路【訪問入浴介護】兵庫県姫路市北条口1丁目9番地久宝寺ビル1階", "url": "https://www.kaigokensaku.mhlw.go.jp/28/index.php?action_kouhyou_detail_004_kani=true&JigyosyoCd=2874005768-00&ServiceCd=120&Type=search", "url2": "https://www.as-care.co.jp/" }, "geometry": { "type": "Point", "coordinates": [ 134.695476900000017, 34.827569 ] } },
{ "type": "Feature", "properties": { "内容": "Aio訪問入浴サービス【訪問入浴介護】兵庫県姫路市田寺八丁目14-8", "url": "https://www.kaigokensaku.mhlw.go.jp/28/index.php?action_kouhyou_detail_004_kani=true&JigyosyoCd=2874009893-00&ServiceCd=120&Type=search", "url2": "https://aio-helper.jp" }, "geometry": { "type": "Point", "coordinates": [ 134.670732063053805, 34.861302725065514 ] } },
{ "type": "Feature", "properties": { "内容": "アースサポート姫路【訪問入浴介護】兵庫県姫路市飯田777番地", "url": "https://www.kaigokensaku.mhlw.go.jp/28/index.php?action_kouhyou_detail_004_kani=true&JigyosyoCd=2874002567-00&ServiceCd=120&Type=search", "url2": "http://www.earthsupport.co.jp" }, "geometry": { "type": "Point", "coordinates": [ 134.674771628736607, 34.814949047137063 ] } },
{ "type": "Feature", "properties": { "内容": "アースサポート尼崎【訪問入浴介護】兵庫県尼崎市稲葉元町1丁目7番21号", "url": "https://www.kaigokensaku.mhlw.go.jp/28/index.php?action_kouhyou_detail_004_kani=true&JigyosyoCd=2873005835-00&ServiceCd=120&Type=search", "url2": "http://www.earthsupport.co.jp" }, "geometry": { "type": "Point", "coordinates": [ 135.386797300000012, 34.7383302 ] } },
{ "type": "Feature", "properties": { "内容": "ロータス・ガーデン【訪問入浴介護】尼崎市栗山町1-20-20", "url": "https://www.kaigokensaku.mhlw.go.jp/28/index.php?action_kouhyou_detail_004_kani=true&JigyosyoCd=2873001040-00&ServiceCd=120&Type=search", "url2": "http://www.e-akane.com/" }, "geometry": { "type": "Point", "coordinates": [ 135.408802899999955, 34.7452355 ] } },
{ "type": "Feature", "properties": { "内容": "セントケア尼崎【訪問入浴介護】兵庫県尼崎市南塚口町1-12-3南塚口ファーストビル1F", "url": "https://www.kaigokensaku.mhlw.go.jp/28/index.php?action_kouhyou_detail_004_kani=true&JigyosyoCd=2873005231-00&ServiceCd=120&Type=search", "url2": null }, "geometry": { "type": "Point", "coordinates": [ 135.4154331, 34.753391 ] } },
{ "type": "Feature", "properties": { "内容": "訪問入浴介護ゆうわ【訪問入浴介護】兵庫県尼崎市武庫之荘一丁目６番１号武庫之荘ビル　３階", "url": "https://www.kaigokensaku.mhlw.go.jp/28/index.php?action_kouhyou_detail_004_kani=true&JigyosyoCd=2873004697-00&ServiceCd=120&Type=search", "url2": "http://www.c-ep.jp/" }, "geometry": { "type": "Point", "coordinates": [ 135.392161996329833, 34.752612814680404 ] } },
{ "type": "Feature", "properties": { "内容": "アスケア訪問入浴　尼崎【訪問入浴介護】兵庫県尼崎市南塚口町3丁目9-22カーサ・ヴィーヴァ103号室", "url": "https://www.kaigokensaku.mhlw.go.jp/28/index.php?action_kouhyou_detail_004_kani=true&JigyosyoCd=2873009456-00&ServiceCd=120&Type=search", "url2": "https://www.as-care.co.jp/" }, "geometry": { "type": "Point", "coordinates": [ 135.420519199999973, 34.7516884 ] } },
{ "type": "Feature", "properties": { "内容": "あおぞら訪問入浴サービス明石【訪問入浴介護】兵庫県明石市二見町西二見字西上岡2084ジャストフジヤス　2階202号室", "url": "https://www.kaigokensaku.mhlw.go.jp/28/index.php?action_kouhyou_detail_004_kani=true&JigyosyoCd=2872004243-00&ServiceCd=120&Type=search", "url2": "http://hp.kaipoke.biz/fst/" }, "geometry": { "type": "Point", "coordinates": [ 134.889634645628007, 34.720013534675751 ] } },
{ "type": "Feature", "properties": { "内容": "アスケア訪問入浴　明石【訪問入浴介護】兵庫県明石市桜町10‐15LapuleⅡ", "url": "https://www.kaigokensaku.mhlw.go.jp/28/index.php?action_kouhyou_detail_004_kani=true&JigyosyoCd=2872005380-00&ServiceCd=120&Type=search", "url2": "https://www.as-care.co.jp/" }, "geometry": { "type": "Point", "coordinates": [ 134.9953917, 34.647228099999985 ] } },
{ "type": "Feature", "properties": { "内容": "アースサポート明石【訪問入浴介護】兵庫県明石市山下町5番23号白長ビル101", "url": "https://www.kaigokensaku.mhlw.go.jp/28/index.php?action_kouhyou_detail_004_kani=true&JigyosyoCd=2872001876-00&ServiceCd=120&Type=search", "url2": "http://www.earthsupport.co.jp" }, "geometry": { "type": "Point", "coordinates": [ 134.996479528648848, 34.648786261994339 ] } },
{ "type": "Feature", "properties": { "内容": "有限会社明石福祉介護サービス【訪問入浴介護】兵庫県明石市西明石北町３丁目2-17", "url": "https://www.kaigokensaku.mhlw.go.jp/28/index.php?action_kouhyou_detail_004_kani=true&JigyosyoCd=2872000381-00&ServiceCd=120&Type=search", "url2": null }, "geometry": { "type": "Point", "coordinates": [ 134.964916699999947, 34.66991440000001 ] } },
{ "type": "Feature", "properties": { "内容": "アースサポート西宮【訪問入浴介護】兵庫県西宮市六湛寺町1番8号", "url": "https://www.kaigokensaku.mhlw.go.jp/28/index.php?action_kouhyou_detail_004_kani=true&JigyosyoCd=2870902513-00&ServiceCd=120&Type=search", "url2": "http://www.earthsupport.co.jp" }, "geometry": { "type": "Point", "coordinates": [ 135.344250200000033, 34.7382742 ] } },
{ "type": "Feature", "properties": { "内容": "アスケア訪問入浴　西宮【訪問入浴介護】兵庫県西宮市北昭和町14-15", "url": "https://www.kaigokensaku.mhlw.go.jp/28/index.php?action_kouhyou_detail_004_kani=true&JigyosyoCd=2870903883-00&ServiceCd=120&Type=search", "url2": "https://www.as-care.co.jp/" }, "geometry": { "type": "Point", "coordinates": [ 135.352621699999986, 34.749700900000015 ] } },
{ "type": "Feature", "properties": { "内容": "スマイリーケア西宮【訪問入浴介護】兵庫県西宮市鳴尾町1-3-11", "url": "https://www.kaigokensaku.mhlw.go.jp/28/index.php?action_kouhyou_detail_004_kani=true&JigyosyoCd=2870908056-00&ServiceCd=120&Type=search", "url2": null }, "geometry": { "type": "Point", "coordinates": [ 135.374187, 34.7188164 ] } },
{ "type": "Feature", "properties": { "内容": "ひまわり訪問入浴サービス【訪問入浴介護】兵庫県西宮市門戸荘18-69-2Ｆ", "url": "https://www.kaigokensaku.mhlw.go.jp/28/index.php?action_kouhyou_detail_004_kani=true&JigyosyoCd=2870900459-00&ServiceCd=120&Type=search", "url2": null }, "geometry": { "type": "Point", "coordinates": [ 135.355382599999984, 34.7566946 ] } },
{ "type": "Feature", "properties": { "内容": "ことのはケア【訪問入浴介護】兵庫県西宮市津門西口町7-182F", "url": "https://www.kaigokensaku.mhlw.go.jp/28/index.php?action_kouhyou_detail_004_kani=true&JigyosyoCd=2870906266-00&ServiceCd=120&Type=search", "url2": null }, "geometry": { "type": "Point", "coordinates": [ 135.34844454061431, 34.733879057334249 ] } },
{ "type": "Feature", "properties": { "内容": "ファミリア訪問入浴サービス【訪問入浴介護】兵庫県伊丹市昆陽南１－６－４１", "url": "https://www.kaigokensaku.mhlw.go.jp/28/index.php?action_kouhyou_detail_004_kani=true&JigyosyoCd=2873302877-00&ServiceCd=120&Type=search", "url2": "http://www.eonet.ne.jp~familiar2014" }, "geometry": { "type": "Point", "coordinates": [ 135.395381400000019, 34.7767543 ] } },
{ "type": "Feature", "properties": { "内容": "訪問入浴サービス　えがお【訪問入浴介護】兵庫県豊岡市江本396-1サンシティーEMOTO　102", "url": "https://www.kaigokensaku.mhlw.go.jp/28/index.php?action_kouhyou_detail_004_kani=true&JigyosyoCd=2874401579-00&ServiceCd=120&Type=search", "url2": "bath＠tajima-coop.com" }, "geometry": { "type": "Point", "coordinates": [ 134.832486099999983, 35.5269355 ] } },
{ "type": "Feature", "properties": { "内容": "豊岡市社会福祉協議会訪問入浴事業所【訪問入浴介護】兵庫県豊岡市城南町２３－６豊岡健康福祉センター１階", "url": "https://www.kaigokensaku.mhlw.go.jp/28/index.php?action_kouhyou_detail_004_kani=true&JigyosyoCd=2874401652-00&ServiceCd=120&Type=search", "url2": "http://www.toyooka-wel.jp" }, "geometry": { "type": "Point", "coordinates": [ 134.825133700000038, 35.539912 ] } },
{ "type": "Feature", "properties": { "内容": "アスケア訪問入浴　加古川【訪問入浴介護】兵庫県加古川市加古川町北在家2648ロイヤルコーポ加古川103号室", "url": "https://www.kaigokensaku.mhlw.go.jp/28/index.php?action_kouhyou_detail_004_kani=true&JigyosyoCd=2872202607-00&ServiceCd=120&Type=search", "url2": "https://www.as-care.co.jp/" }, "geometry": { "type": "Point", "coordinates": [ 134.839968838626078, 34.759916804983327 ] } },
{ "type": "Feature", "properties": { "内容": "鶴林園訪問入浴サービスセンター【訪問入浴介護】兵庫県加古川市志方町細工所１０８６番地", "url": "https://www.kaigokensaku.mhlw.go.jp/28/index.php?action_kouhyou_detail_004_kani=true&JigyosyoCd=2872200247-00&ServiceCd=120&Type=search", "url2": "https://www.kakurinen.com" }, "geometry": { "type": "Point", "coordinates": [ 134.841593500000045, 34.8403443 ] } },
{ "type": "Feature", "properties": { "内容": "西脇市社会福祉協議会訪問入浴介護ステーション【訪問入浴介護】兵庫県西脇市郷瀬町666-5", "url": "https://www.kaigokensaku.mhlw.go.jp/28/index.php?action_kouhyou_detail_004_kani=true&JigyosyoCd=2871800526-00&ServiceCd=120&Type=search", "url2": "http://www.nishiwaki-wel.or.jp" }, "geometry": { "type": "Point", "coordinates": [ 134.9704524, 34.9941774 ] } },
{ "type": "Feature", "properties": { "内容": "オアシス訪問入浴　宝塚【訪問入浴介護】兵庫県宝塚市売布東の町１０－６モリタハイツ１０１", "url": "https://www.kaigokensaku.mhlw.go.jp/28/index.php?action_kouhyou_detail_004_kani=true&JigyosyoCd=2871104309-00&ServiceCd=120&Type=search", "url2": "http://hp.kaipoke.biz/ng6/" }, "geometry": { "type": "Point", "coordinates": [ 135.363345799999962, 34.817073600000015 ] } },
{ "type": "Feature", "properties": { "内容": "りんどう訪問入浴介護サービス【訪問入浴介護】兵庫県川西市多田桜木2-10-38", "url": "https://www.kaigokensaku.mhlw.go.jp/28/index.php?action_kouhyou_detail_004_kani=true&JigyosyoCd=2873100750-00&ServiceCd=120&Type=search", "url2": null }, "geometry": { "type": "Point", "coordinates": [ 135.415089200000011, 34.8610053 ] } },
{ "type": "Feature", "properties": { "内容": "アスケア訪問入浴　川西【訪問入浴介護】兵庫県川西市栄根2丁目6-7SKビル・ルミネックス川西Ｃ号室", "url": "https://www.kaigokensaku.mhlw.go.jp/28/index.php?action_kouhyou_detail_004_kani=true&JigyosyoCd=2873100768-00&ServiceCd=120&Type=search", "url2": "https://www.as-care.co.jp/" }, "geometry": { "type": "Point", "coordinates": [ 135.411843699999963, 34.8251834 ] } },
{ "type": "Feature", "properties": { "内容": "ニチイケアセンター川西【訪問入浴介護】川西市中央町3-2川西北ビル5F", "url": "https://www.kaigokensaku.mhlw.go.jp/28/index.php?action_kouhyou_detail_004_kani=true&JigyosyoCd=2873100149-00&ServiceCd=120&Type=search", "url2": "http://www.nichiigakkan.co.jp" }, "geometry": { "type": "Point", "coordinates": [ 135.415365405522607, 34.829360800854822 ] } },
{ "type": "Feature", "properties": { "内容": "ケアサービスゆーぷる【訪問入浴介護】高次１丁目１１－５フレイヴァーパーク　102", "url": "https://www.kaigokensaku.mhlw.go.jp/28/index.php?action_kouhyou_detail_004_kani=true&JigyosyoCd=2871200966-00&ServiceCd=120&Type=search", "url2": "www.yupul-care.com" }, "geometry": { "type": "Point", "coordinates": [ 135.233091800000011, 34.8888156 ] } },
{ "type": "Feature", "properties": { "内容": "丹波市社会福祉協議会ホームヘルプセンター訪問入浴【訪問入浴介護】兵庫県丹波市柏原町柏原2715", "url": "https://www.kaigokensaku.mhlw.go.jp/28/index.php?action_kouhyou_detail_004_kani=true&JigyosyoCd=2871300733-00&ServiceCd=120&Type=search", "url2": "http://www.tambawel.jp" }, "geometry": { "type": "Point", "coordinates": [ 135.0654855, 35.1368983 ] } },
{ "type": "Feature", "properties": { "内容": "アスケア訪問入浴　たつの【訪問入浴介護】たつの市揖保川町黍田50-12", "url": "https://www.kaigokensaku.mhlw.go.jp/28/index.php?action_kouhyou_detail_004_kani=true&JigyosyoCd=2873600783-00&ServiceCd=120&Type=search", "url2": "https://www.as-care.co.jp/" }, "geometry": { "type": "Point", "coordinates": [ 134.52442, 34.825479799999989 ] } },
{ "type": "Feature", "properties": { "内容": "多可町社会福祉協議会　訪問入浴介護事業所【訪問入浴介護】多可郡多可町加美区市原41", "url": "https://www.kaigokensaku.mhlw.go.jp/28/index.php?action_kouhyou_detail_004_kani=true&JigyosyoCd=2872700469-00&ServiceCd=120&Type=search", "url2": "http://www.taka-syakyo.or.jp" }, "geometry": { "type": "Point", "coordinates": [ 134.922387033519442, 35.136703116621774 ] } },
{ "type": "Feature", "properties": { "内容": "市川町社会福祉協議会　訪問入浴介護事業所【訪問入浴介護】兵庫県神崎郡市川町甘地３２３－１", "url": "https://www.kaigokensaku.mhlw.go.jp/28/index.php?action_kouhyou_detail_004_kani=true&JigyosyoCd=2873400523-00&ServiceCd=120&Type=search", "url2": "https://www.ichikawa-syakyo.org" }, "geometry": { "type": "Point", "coordinates": [ 134.760825100000034, 34.990726 ] } },
{ "type": "Feature", "properties": { "内容": "佐用町社会福祉協議会きらめきケアセンター【訪問入浴介護】兵庫県佐用郡佐用町東徳久１９４６番地　南光地域福祉センター内", "url": "https://www.kaigokensaku.mhlw.go.jp/28/index.php?action_kouhyou_detail_004_kani=true&JigyosyoCd=2873700336-00&ServiceCd=120&Type=search", "url2": "http://www.sayo-wel.or.jp/" }, "geometry": { "type": "Point", "coordinates": [ 134.4066699, 34.9988277 ] } },
{ "type": "Feature", "properties": { "内容": "新温泉町社会福祉協議会訪問入浴介護事業所【訪問入浴介護】兵庫県美方郡新温泉町二日市２１６－１", "url": "https://www.kaigokensaku.mhlw.go.jp/28/index.php?action_kouhyou_detail_004_kani=true&JigyosyoCd=2874700384-00&ServiceCd=120&Type=search", "url2": "http://shakyoshinonsen.wixsite.com/shakyo" }, "geometry": { "type": "Point", "coordinates": [ 134.475586600000042, 35.6179186 ] } }
]
}
