{
"type": "FeatureCollection",
"name": "geo_28_大学",
"crs": { "type": "name", "properties": { "name": "urn:ogc:def:crs:EPSG::6668" } },
"features": [
{ "type": "Feature", "properties": { "P29_001": "28102", "P29_002": "F128110108654", "P29_003": "16007", "P29_004": "神戸大学", "P29_005": "兵庫県神戸市灘区六甲台町1-1", "P29_006": "1", "P29_007": "0", "P29_008": "01", "P29_009": "六甲台第２キャンパス" }, "geometry": { "type": "Point", "coordinates": [ 135.235163352740045, 34.725395154947584 ] } },
{ "type": "Feature", "properties": { "P29_001": "28228", "P29_002": "F128110108663", "P29_003": "16007", "P29_004": "兵庫教育大学", "P29_005": "兵庫県加東市下久米942-1", "P29_006": "1", "P29_007": "0", "P29_008": "00", "P29_009": null }, "geometry": { "type": "Point", "coordinates": [ 135.015711321761444, 34.912336014908604 ] } },
{ "type": "Feature", "properties": { "P29_001": "28111", "P29_002": "F128210108670", "P29_003": "16007", "P29_004": "神戸市外国語大学", "P29_005": "兵庫県神戸市西区学園東町9-1", "P29_006": "3", "P29_007": "0", "P29_008": "00", "P29_009": null }, "geometry": { "type": "Point", "coordinates": [ 135.060394005331403, 34.679806689159605 ] } },
{ "type": "Feature", "properties": { "P29_001": "28111", "P29_002": "F128210108689", "P29_003": "16007", "P29_004": "神戸市看護大学", "P29_005": "兵庫県神戸市西区学園西町3-4", "P29_006": "3", "P29_007": "0", "P29_008": "00", "P29_009": null }, "geometry": { "type": "Point", "coordinates": [ 135.052749666271126, 34.686447857190743 ] } },
{ "type": "Feature", "properties": { "P29_001": "28111", "P29_002": "F128210108698", "P29_003": "16007", "P29_004": "兵庫県立大学", "P29_005": "兵庫県神戸市西区学園西町8-2-1", "P29_006": "2", "P29_007": "0", "P29_008": "01", "P29_009": "神戸商科キャンパス" }, "geometry": { "type": "Point", "coordinates": [ 135.052075921072571, 34.678300299435058 ] } },
{ "type": "Feature", "properties": { "P29_001": "28209", "P29_002": "F128210111906", "P29_003": "16007", "P29_004": "芸術文化観光専門職大学", "P29_005": "兵庫県豊岡市山王町7-52", "P29_006": "2", "P29_007": "0", "P29_008": "00", "P29_009": null }, "geometry": { "type": "Point", "coordinates": [ 134.816745479990828, 35.53935153550055 ] } },
{ "type": "Feature", "properties": { "P29_001": "28101", "P29_002": "F128310108703", "P29_003": "16007", "P29_004": "甲南大学", "P29_005": "兵庫県神戸市東灘区岡本8-9-1", "P29_006": "4", "P29_007": "0", "P29_008": "01", "P29_009": "岡本キャンパス" }, "geometry": { "type": "Point", "coordinates": [ 135.268001233080469, 34.729659645611704 ] } },
{ "type": "Feature", "properties": { "P29_001": "28101", "P29_002": "F128310108712", "P29_003": "16007", "P29_004": "甲南女子大学", "P29_005": "兵庫県神戸市東灘区森北町6-2-23", "P29_006": "4", "P29_007": "0", "P29_008": "00", "P29_009": null }, "geometry": { "type": "Point", "coordinates": [ 135.287656956946478, 34.734548169793207 ] } },
{ "type": "Feature", "properties": { "P29_001": "28102", "P29_002": "F128310108721", "P29_003": "16007", "P29_004": "神戸海星女子学院大学", "P29_005": "兵庫県神戸市灘区青谷町2-7-1", "P29_006": "4", "P29_007": "0", "P29_008": "00", "P29_009": null }, "geometry": { "type": "Point", "coordinates": [ 135.211497076222741, 34.713047440378652 ] } },
{ "type": "Feature", "properties": { "P29_001": "28110", "P29_002": "F128310108730", "P29_003": "16007", "P29_004": "神戸学院大学", "P29_005": "兵庫県神戸市中央区港島1-1-3", "P29_006": "4", "P29_007": "0", "P29_008": "01", "P29_009": "ポートアイランドキャンパス第1キャンパス" }, "geometry": { "type": "Point", "coordinates": [ 135.204099714146196, 34.669459275519863 ] } },
{ "type": "Feature", "properties": { "P29_001": "28107", "P29_002": "F128310108749", "P29_003": "16007", "P29_004": "神戸女子大学", "P29_005": "兵庫県神戸市須磨区東須磨青山2-1", "P29_006": "4", "P29_007": "0", "P29_008": "01", "P29_009": "須磨キャンパス" }, "geometry": { "type": "Point", "coordinates": [ 135.109997727081037, 34.657646709106288 ] } },
{ "type": "Feature", "properties": { "P29_001": "28101", "P29_002": "F128310108758", "P29_003": "16007", "P29_004": "神戸薬科大学", "P29_005": "兵庫県神戸市東灘区本山北町4-19-1", "P29_006": "4", "P29_007": "0", "P29_008": "00", "P29_009": null }, "geometry": { "type": "Point", "coordinates": [ 135.283710722881807, 34.73259815580969 ] } },
{ "type": "Feature", "properties": { "P29_001": "28102", "P29_002": "F128310108767", "P29_003": "16007", "P29_004": "神戸松蔭女子学院大学", "P29_005": "兵庫県神戸市灘区篠原伯母野山町1-2-1", "P29_006": "4", "P29_007": "0", "P29_008": "00", "P29_009": null }, "geometry": { "type": "Point", "coordinates": [ 135.229643168881466, 34.727372678640933 ] } },
{ "type": "Feature", "properties": { "P29_001": "28109", "P29_002": "F128310108776", "P29_003": "16007", "P29_004": "神戸親和女子大学", "P29_005": "兵庫県神戸市北区鈴蘭台北町7-13-1", "P29_006": "4", "P29_007": "0", "P29_008": "00", "P29_009": null }, "geometry": { "type": "Point", "coordinates": [ 135.154703045716076, 34.728051457647865 ] } },
{ "type": "Feature", "properties": { "P29_001": "28101", "P29_002": "F128310108785", "P29_003": "16007", "P29_004": "神戸国際大学", "P29_005": "兵庫県神戸市東灘区向洋町中9-1-6", "P29_006": "4", "P29_007": "0", "P29_008": "00", "P29_009": null }, "geometry": { "type": "Point", "coordinates": [ 135.270407329541456, 34.680464858140091 ] } },
{ "type": "Feature", "properties": { "P29_001": "28210", "P29_002": "F128310108794", "P29_003": "16007", "P29_004": "兵庫大学", "P29_005": "兵庫県加古川市平岡町新在家2301", "P29_006": "4", "P29_007": "0", "P29_008": "00", "P29_009": null }, "geometry": { "type": "Point", "coordinates": [ 134.881325431998391, 34.746758101442943 ] } },
{ "type": "Feature", "properties": { "P29_001": "28106", "P29_002": "F128310108801", "P29_003": "16007", "P29_004": "神戸常盤大学", "P29_005": "兵庫県神戸市長田区大谷町2-6-2", "P29_006": "4", "P29_007": "0", "P29_008": "00", "P29_009": null }, "geometry": { "type": "Point", "coordinates": [ 135.141271939114489, 34.665459490322448 ] } },
{ "type": "Feature", "properties": { "P29_001": "28217", "P29_002": "F128310108810", "P29_003": "16007", "P29_004": "宝塚医療大学", "P29_005": "兵庫県宝塚市花屋敷緑ガ丘1", "P29_006": "4", "P29_007": "0", "P29_008": "00", "P29_009": null }, "geometry": { "type": "Point", "coordinates": [ 135.403137399497837, 34.844088704234714 ] } },
{ "type": "Feature", "properties": { "P29_001": "28206", "P29_002": "F128310108829", "P29_003": "16007", "P29_004": "芦屋大学", "P29_005": "兵庫県芦屋市六麓荘町13-22", "P29_006": "4", "P29_007": "0", "P29_008": "00", "P29_009": null }, "geometry": { "type": "Point", "coordinates": [ 135.306676129500261, 34.752396822896074 ] } },
{ "type": "Feature", "properties": { "P29_001": "28204", "P29_002": "F128310108838", "P29_003": "16007", "P29_004": "大手前大学", "P29_005": "兵庫県西宮市御茶家所町6-42", "P29_006": "4", "P29_007": "0", "P29_008": "01", "P29_009": "さくら夙川キャンパス" }, "geometry": { "type": "Point", "coordinates": [ 135.325517895163898, 34.737978915801392 ] } },
{ "type": "Feature", "properties": { "P29_001": "28204", "P29_002": "F128310108847", "P29_003": "16007", "P29_004": "関西学院大学", "P29_005": "兵庫県西宮市上ケ原一番町1-155", "P29_006": "4", "P29_007": "0", "P29_008": "01", "P29_009": "西宮上ケ原キャンパス" }, "geometry": { "type": "Point", "coordinates": [ 135.346409905230189, 34.767654762006629 ] } },
{ "type": "Feature", "properties": { "P29_001": "28214", "P29_002": "F128310108856", "P29_003": "16007", "P29_004": "甲子園大学", "P29_005": "兵庫県宝塚市紅葉ガ丘10-1", "P29_006": "4", "P29_007": "0", "P29_008": "00", "P29_009": null }, "geometry": { "type": "Point", "coordinates": [ 135.333698700566885, 34.806570329355864 ] } },
{ "type": "Feature", "properties": { "P29_001": "28204", "P29_002": "F128310108865", "P29_003": "16007", "P29_004": "神戸女学院大学", "P29_005": "兵庫県西宮市岡田山4-1", "P29_006": "4", "P29_007": "0", "P29_008": "00", "P29_009": null }, "geometry": { "type": "Point", "coordinates": [ 135.350580863535299, 34.759139563117508 ] } },
{ "type": "Feature", "properties": { "P29_001": "28202", "P29_002": "F128310108874", "P29_003": "16007", "P29_004": "園田学園女子大学", "P29_005": "兵庫県尼崎市南塚口町7-29-1", "P29_006": "4", "P29_007": "0", "P29_008": "00", "P29_009": null }, "geometry": { "type": "Point", "coordinates": [ 135.409323703062341, 34.747945833490583 ] } },
{ "type": "Feature", "properties": { "P29_001": "28204", "P29_002": "F128310108883", "P29_003": "16007", "P29_004": "武庫川女子大学", "P29_005": "兵庫県西宮市池開町6-46", "P29_006": "4", "P29_007": "0", "P29_008": "01", "P29_009": "中央キャンパス" }, "geometry": { "type": "Point", "coordinates": [ 135.374814584451741, 34.717562465707893 ] } },
{ "type": "Feature", "properties": { "P29_001": "28204", "P29_002": "F128310108892", "P29_003": "16007", "P29_004": "兵庫医科大学", "P29_005": "兵庫県西宮市武庫川町1-1", "P29_006": "4", "P29_007": "0", "P29_008": "00", "P29_009": null }, "geometry": { "type": "Point", "coordinates": [ 135.378902435227076, 34.718339795225731 ] } },
{ "type": "Feature", "properties": { "P29_001": "28201", "P29_002": "F128310108918", "P29_003": "16007", "P29_004": "姫路獨協大学", "P29_005": "兵庫県姫路市上大野7-2-1", "P29_006": "4", "P29_007": "0", "P29_008": "00", "P29_009": null }, "geometry": { "type": "Point", "coordinates": [ 134.690098925095413, 34.872966444514987 ] } },
{ "type": "Feature", "properties": { "P29_001": "28111", "P29_002": "F128310108927", "P29_003": "16007", "P29_004": "流通科学大学", "P29_005": "兵庫県神戸市西区学園西町3-1", "P29_006": "4", "P29_007": "0", "P29_008": "00", "P29_009": null }, "geometry": { "type": "Point", "coordinates": [ 135.057265012785024, 34.686805979033558 ] } },
{ "type": "Feature", "properties": { "P29_001": "28111", "P29_002": "F128310108936", "P29_003": "16007", "P29_004": "神戸芸術工科大学", "P29_005": "兵庫県神戸市西区学園西町8-1-1", "P29_006": "4", "P29_007": "0", "P29_008": "00", "P29_009": null }, "geometry": { "type": "Point", "coordinates": [ 135.05662854175165, 34.677608259647833 ] } },
{ "type": "Feature", "properties": { "P29_001": "28212", "P29_002": "F128310108945", "P29_003": "16007", "P29_004": "関西福祉大学", "P29_005": "兵庫県赤穂市新田字釜家後380-3", "P29_006": "4", "P29_007": "0", "P29_008": "00", "P29_009": null }, "geometry": { "type": "Point", "coordinates": [ 134.368829381887849, 34.761790764801049 ] } },
{ "type": "Feature", "properties": { "P29_001": "28215", "P29_002": "F128310108954", "P29_003": "16007", "P29_004": "関西国際大学", "P29_005": "兵庫県三木市志染町青山1-18", "P29_006": "4", "P29_007": "0", "P29_008": "01", "P29_009": "三木キャンパス" }, "geometry": { "type": "Point", "coordinates": [ 135.04337165215108, 34.771466267854997 ] } },
{ "type": "Feature", "properties": { "P29_001": "28443", "P29_002": "F128310108963", "P29_003": "16007", "P29_004": "神戸医療未来大学", "P29_005": "兵庫県神崎郡福崎町高岡字塩田1966-5", "P29_006": "4", "P29_007": "0", "P29_008": "00", "P29_009": null }, "geometry": { "type": "Point", "coordinates": [ 134.73836627452016, 34.980587571170979 ] } },
{ "type": "Feature", "properties": { "P29_001": "28110", "P29_002": "F128310108972", "P29_003": "16007", "P29_004": "神戸情報大学院大学", "P29_005": "兵庫県神戸市中央区加納町2-2-7", "P29_006": "4", "P29_007": "0", "P29_008": "00", "P29_009": null }, "geometry": { "type": "Point", "coordinates": [ 135.193251756543305, 34.699012011338986 ] } },
{ "type": "Feature", "properties": { "P29_001": "28226", "P29_002": "F128310108981", "P29_003": "16007", "P29_004": "関西看護医療大学", "P29_005": "兵庫県淡路市志筑字船橋1456-4", "P29_006": "4", "P29_007": "0", "P29_008": "00", "P29_009": null }, "geometry": { "type": "Point", "coordinates": [ 134.89998293595437, 34.435810842974604 ] } },
{ "type": "Feature", "properties": { "P29_001": "28201", "P29_002": "F128310109007", "P29_003": "16007", "P29_004": "姫路大学", "P29_005": "兵庫県姫路市大塩町2042-2", "P29_006": "4", "P29_007": "0", "P29_008": "00", "P29_009": null }, "geometry": { "type": "Point", "coordinates": [ 134.758176032212901, 34.772453616291315 ] } },
{ "type": "Feature", "properties": { "P29_001": "28101", "P29_002": "F128110108654", "P29_003": "16007", "P29_004": "神戸大学", "P29_005": "兵庫県神戸市東灘区深江南町5-1-1", "P29_006": "1", "P29_007": "0", "P29_008": "02", "P29_009": "深江キャンパス" }, "geometry": { "type": "Point", "coordinates": [ 135.290559047603466, 34.718977379985262 ] } },
{ "type": "Feature", "properties": { "P29_001": "28102", "P29_002": "F128110108654", "P29_003": "16007", "P29_004": "神戸大学", "P29_005": "兵庫県神戸市灘区六甲台町2-1", "P29_006": "1", "P29_007": "0", "P29_008": "03", "P29_009": "六甲台第１キャンパス" }, "geometry": { "type": "Point", "coordinates": [ 135.234769976583124, 34.728235894439436 ] } },
{ "type": "Feature", "properties": { "P29_001": "28102", "P29_002": "F128110108654", "P29_003": "16007", "P29_004": "神戸大学", "P29_005": "兵庫県神戸市灘区鶴甲1-2-1", "P29_006": "1", "P29_007": "0", "P29_008": "04", "P29_009": "鶴甲第１キャンパス" }, "geometry": { "type": "Point", "coordinates": [ 135.236931189576126, 34.730804626238616 ] } },
{ "type": "Feature", "properties": { "P29_001": "28102", "P29_002": "F128110108654", "P29_003": "16007", "P29_004": "神戸大学", "P29_005": "兵庫県神戸市灘区鶴甲3-11", "P29_006": "1", "P29_007": "0", "P29_008": "05", "P29_009": "鶴甲第２キャンパス" }, "geometry": { "type": "Point", "coordinates": [ 135.234333239052717, 34.734440962492847 ] } },
{ "type": "Feature", "properties": { "P29_001": "28110", "P29_002": "F128110108654", "P29_003": "16007", "P29_004": "神戸大学", "P29_005": "兵庫県神戸市中央区楠町7-5-1", "P29_006": "1", "P29_007": "0", "P29_008": "06", "P29_009": "楠キャンパス" }, "geometry": { "type": "Point", "coordinates": [ 135.170333521894605, 34.685735150479061 ] } },
{ "type": "Feature", "properties": { "P29_001": "28107", "P29_002": "F128110108654", "P29_003": "16007", "P29_004": "神戸大学", "P29_005": "兵庫県神戸市須磨区友が丘7-10-2", "P29_006": "1", "P29_007": "0", "P29_008": "07", "P29_009": "名谷キャンパス" }, "geometry": { "type": "Point", "coordinates": [ 135.098932172582181, 34.671901441364341 ] } },
{ "type": "Feature", "properties": { "P29_001": "28201", "P29_002": "F128210108698", "P29_003": "16007", "P29_004": "兵庫県立大学", "P29_005": "兵庫県姫路市新在家本町1-1-12", "P29_006": "2", "P29_007": "0", "P29_008": "02", "P29_009": "姫路環境人間キャンパス" }, "geometry": { "type": "Point", "coordinates": [ 134.688181155956045, 34.84807755433625 ] } },
{ "type": "Feature", "properties": { "P29_001": "28201", "P29_002": "F128210108698", "P29_003": "16007", "P29_004": "兵庫県立大学", "P29_005": "兵庫県姫路市書写2167", "P29_006": "2", "P29_007": "0", "P29_008": "03", "P29_009": "姫路工学キャンパス" }, "geometry": { "type": "Point", "coordinates": [ 134.648869260194687, 34.877377949594639 ] } },
{ "type": "Feature", "properties": { "P29_001": "28111", "P29_002": "F128210108698", "P29_003": "16007", "P29_004": "兵庫県立大学", "P29_005": "兵庫県明石市北王子町13-71", "P29_006": "2", "P29_007": "0", "P29_008": "04", "P29_009": "明石看護キャンパス" }, "geometry": { "type": "Point", "coordinates": [ 134.98042662462791, 34.659967685693225 ] } },
{ "type": "Feature", "properties": { "P29_001": "28481", "P29_002": "F128210108698", "P29_003": "16007", "P29_004": "兵庫県立大学", "P29_005": "兵庫県上郡町光都3-2-1", "P29_006": "2", "P29_007": "0", "P29_008": "05", "P29_009": "播磨理学キャンパス" }, "geometry": { "type": "Point", "coordinates": [ 134.445690487572989, 34.929007311809166 ] } },
{ "type": "Feature", "properties": { "P29_001": "28110", "P29_002": "F128310108703", "P29_003": "16007", "P29_004": "甲南大学", "P29_005": "兵庫県神戸市中央区港島南町7-1-20", "P29_006": "4", "P29_007": "0", "P29_008": "02", "P29_009": "ポートアイランドキャンパス" }, "geometry": { "type": "Point", "coordinates": [ 135.218629406717184, 34.653180960117915 ] } },
{ "type": "Feature", "properties": { "P29_001": "28204", "P29_002": "F128310108703", "P29_003": "16007", "P29_004": "甲南大学", "P29_005": "兵庫県西宮市高松町8-33", "P29_006": "4", "P29_007": "0", "P29_008": "03", "P29_009": "西宮キャンパス" }, "geometry": { "type": "Point", "coordinates": [ 135.358024575151376, 34.742817424166738 ] } },
{ "type": "Feature", "properties": { "P29_001": "28111", "P29_002": "F128310108730", "P29_003": "16007", "P29_004": "神戸学院大学", "P29_005": "兵庫県神戸市西区伊川谷町有瀬518", "P29_006": "4", "P29_007": "0", "P29_008": "02", "P29_009": "有瀬キャンパス" }, "geometry": { "type": "Point", "coordinates": [ 135.029485604991237, 34.664009694292034 ] } },
{ "type": "Feature", "properties": { "P29_001": "28110", "P29_002": "F128310108730", "P29_003": "16007", "P29_004": "神戸学院大学", "P29_005": "兵庫県神戸市中央区港島1-3-11", "P29_006": "4", "P29_007": "0", "P29_008": "03", "P29_009": "ポートアイランドキャンパス第2キャンパス" }, "geometry": { "type": "Point", "coordinates": [ 135.204387304385733, 34.665391003111935 ] } },
{ "type": "Feature", "properties": { "P29_001": "28110", "P29_002": "F128310108749", "P29_003": "16007", "P29_004": "神戸女子大学", "P29_005": "兵庫県神戸市中央区港島中町4-7-2", "P29_006": "4", "P29_007": "0", "P29_008": "02", "P29_009": "ポートアイランドキャンパス" }, "geometry": { "type": "Point", "coordinates": [ 135.207703132171332, 34.668536417492412 ] } },
{ "type": "Feature", "properties": { "P29_001": "28110", "P29_002": "F128310108749", "P29_003": "16007", "P29_004": "神戸女子大学", "P29_005": "兵庫県神戸市中央区中山手通2-23-1", "P29_006": "4", "P29_007": "0", "P29_008": "03", "P29_009": "三宮キャンパス" }, "geometry": { "type": "Point", "coordinates": [ 135.188809296825269, 34.695896594218326 ] } },
{ "type": "Feature", "properties": { "P29_001": "28219", "P29_002": "F128310108847", "P29_003": "16007", "P29_004": "関西学院大学", "P29_005": "兵庫県三田市学園2-1", "P29_006": "4", "P29_007": "0", "P29_008": "02", "P29_009": "神戸三田キャンパス" }, "geometry": { "type": "Point", "coordinates": [ 135.164927392032268, 34.915309706166653 ] } },
{ "type": "Feature", "properties": { "P29_001": "28204", "P29_002": "F128310108847", "P29_003": "16007", "P29_004": "関西学院大学", "P29_005": "兵庫県西宮市岡田山7-54", "P29_006": "4", "P29_007": "0", "P29_008": "03", "P29_009": "西宮聖和キャンパス" }, "geometry": { "type": "Point", "coordinates": [ 135.351655947880687, 34.762226200147403 ] } },
{ "type": "Feature", "properties": { "P29_001": "28204", "P29_002": "F128310108847", "P29_003": "16007", "P29_004": "関西学院大学", "P29_005": "兵庫県西宮市高松町5-22　阪急西宮ガーデンズ　ゲート館", "P29_006": "4", "P29_007": "0", "P29_008": "04", "P29_009": "西宮北口キャンパス" }, "geometry": { "type": "Point", "coordinates": [ 135.357354865185926, 34.745310217345008 ] } },
{ "type": "Feature", "properties": { "P29_001": "28204", "P29_002": "F128310108883", "P29_003": "16007", "P29_004": "武庫川女子大学", "P29_005": "兵庫県西宮市甲子園九番町11-68", "P29_006": "4", "P29_007": "0", "P29_008": "02", "P29_009": "浜甲子園キャンパス" }, "geometry": { "type": "Point", "coordinates": [ 135.361876141237047, 34.714145414380475 ] } },
{ "type": "Feature", "properties": { "P29_001": "28204", "P29_002": "F128310108883", "P29_003": "16007", "P29_004": "武庫川女子大学", "P29_005": "兵庫県西宮市戸崎町1-13", "P29_006": "4", "P29_007": "0", "P29_008": "03", "P29_009": "上甲子園キャンパス" }, "geometry": { "type": "Point", "coordinates": [ 135.378040303248241, 34.734245588731469 ] } },
{ "type": "Feature", "properties": { "P29_001": "28202", "P29_002": "F128310108954", "P29_003": "16007", "P29_004": "関西国際大学", "P29_005": "兵庫県尼崎市潮江1-3-23", "P29_006": "4", "P29_007": "0", "P29_008": "02", "P29_009": "尼崎キャンパス" }, "geometry": { "type": "Point", "coordinates": [ 135.429093385575243, 34.734499128245034 ] } },
{ "type": "Feature", "properties": { "P29_001": "28110", "P29_002": "F128310108954", "P29_003": "16007", "P29_004": "関西国際大学", "P29_005": "兵庫県神戸市中央区諏訪山町3-1", "P29_006": "4", "P29_007": "0", "P29_008": "03", "P29_009": "神戸山手キャンパス" }, "geometry": { "type": "Point", "coordinates": [ 135.178252632556166, 34.693880437064948 ] } }
]
}
